Title,Address,Lat,Lng,Img_URL,Description,Rank_of_province,Link,Type,PlaceName,GoogleMapsURL
Nhà Hàng Ấn Độ Namaste,"189 Bùi Viện Phạm Ngũ Lão, Quận 1, Thành phố Hồ Chí Minh 70000 Việt Nam","10,767,863","1,066,949,451",https://media-cdn.tripadvisor.com/media/photo-s/13/10/f0/9f/chicken-biryani.jpg,"NAMASTE INDIA nằm ở trung tâm quận 1, đây là một địa điểm lý tưởng khi bạn muốn trải nghiệm món ngon truyền thống đến từ đất nước Ấn Độ. Thực đơn được chia thành 2 kiểu chay và kiểu mặn, gồm bánh naan, salad,...Thêm",#116 trên 3.735 nhà hàng ở Thành phố Hồ Chí Minh,https://www.tripadvisor.com.vn/Restaurant_Review-g293925-d3178114-Reviews-Namaste_India-Ho_Chi_Minh_City.html,Food,"Nhà Hàng Ấn Độ Namaste 189 Bùi Viện Phạm Ngũ Lão, Quận 1, Thành phố Hồ Chí Minh 70000 Việt Nam",https://maps.app.goo.gl/UAsbyJPtBPcPXvo5A
Nhà Hàng The Alley Cocktail Bar & Kitchen,"63/1 Pastuer, Bến Nghé, Quận 1 Next to Liberty Central Point, Thành phố Hồ Chí Minh 700000 Việt Nam","10,781,971","106,693,081",https://media-cdn.tripadvisor.com/media/photo-s/14/60/ab/ac/img-20180829-213455-largejpg.jpg,"Mình bỡ ngỡ khi bước vài quán là 1 không gian khoáng đãng, hoà tiếng nhạc du dương. Là 1 nơi phù hợp với mọi lứa tuổi, đặc biệt thức uống là ngon cực, nhân viên lại thân thiên vui vẻ.....",#118 trên 3.735 nhà hàng ở Thành phố Hồ Chí Minh,https://www.tripadvisor.com.vn/Restaurant_Review-g293925-d11885108-Reviews-The_Alley_Cocktail_Bar_Kitchen_Restaurant-Ho_Chi_Minh_City.html,Food,"Nhà Hàng The Alley Cocktail Bar & Kitchen 63/1 Pastuer, Bến Nghé, Quận 1 Next to Liberty Central Point, Thành phố Hồ Chí Minh 700000 Việt Nam",
L'Usine Saigon Centre,"65 Le Loi Level 5 - 10 Saigon Centre, Thành phố Hồ Chí Minh 700000 Việt Nam","107,736,479","1,067,009,196",https://media-cdn.tripadvisor.com/media/photo-s/29/eb/1e/a0/l-usine-saigon-centre.jpg,"đồ ăn tạm được, giá cao hơn so với giá trị. Không có gì đặc biệt mình đã đi địa chỉ bên thái văn lung và đồng khởi, mình thấy không gian ok nhưng vị đồ ăn thì mình thấy rất bình thường, phục vụ...Thêm",#117 trên 3.735 nhà hàng ở Thành phố Hồ Chí Minh,https://www.tripadvisor.com.vn/Restaurant_Review-g293925-d2286221-Reviews-L_Usine_Saigon_Centre-Ho_Chi_Minh_City.html,Food,"L'Usine Saigon Centre 65 Le Loi Level 5 - 10 Saigon Centre, Thành phố Hồ Chí Minh 700000 Việt Nam",
Indika Saigon - House Of Curiosity,"43 Nguyen Van Giai Walk Inside The Alley All The Way Till The Back Of The House :), Thành phố Hồ Chí Minh 710359 Việt Nam","10,781,971","106,693,081",https://media-cdn.tripadvisor.com/media/photo-s/1b/8e/32/7d/indika-saigon.jpg,"Thức ăn ngon, không gian thoáng, nhân viên dễ thương và nhạc thì lúc nào cũng hay. Sẽ quay lại thường xuyên.",#119 trên 3.735 nhà hàng ở Thành phố Hồ Chí Minh,https://www.tripadvisor.com.vn/Restaurant_Review-g293925-d10325217-Reviews-Indika_Saigon_House_Of_Curiosity-Ho_Chi_Minh_City.html,Food,"Indika Saigon - House Of Curiosity 43 Nguyen Van Giai Walk Inside The Alley All The Way Till The Back Of The House :), Thành phố Hồ Chí Minh 710359 Việt Nam",
Bếp Mẹ Ỉn - Nguyễn Thái Bình,"165/50 Nguyen Thai Binh, District 1 Phường Nguyễn Thái Bình, Quận 1, Thành phố Hồ Chí Minh 71010, Thành phố Hồ Chí Minh Việt Nam","107,683,486","1,066,987,806",https://media-cdn.tripadvisor.com/media/photo-s/29/ca/bd/9c/north-vietnamese-dish.jpg,87.543 ₫ - 262.629 ₫,#929 trên 3.735 nhà hàng ở Thành phố Hồ Chí Minh,https://www.tripadvisor.com.vn/Restaurant_Review-g293925-d24968033-Reviews-B_p_M_n_Nguy_n_Thai_Binh-Ho_Chi_Minh_City.html,Food,"Bếp Mẹ Ỉn - Nguyễn Thái Bình 165/50 Nguyen Thai Binh, District 1 Phường Nguyễn Thái Bình, Quận 1, Thành phố Hồ Chí Minh 71010, Thành phố Hồ Chí Minh Việt Nam",https://maps.app.goo.gl/qh8tkFXqqNGbovNB8
Oliver's Pizza,"85 Phạm Viết Chánh Phường 19, Quận Bình Thạnh, Thành phố Hồ Chí Minh 700000 Việt Nam","107,901,978","1,067,107,017",https://media-cdn.tripadvisor.com/media/photo-s/0c/63/08/7e/salad-side.jpg,"đồ ăn ngon, nhân viên nhiệt tình, không gian đẹp, nhạc rất chill, thích hợp cho các buổi hẹn hò, gặp gỡ bạn bè",#120 trên 3.735 nhà hàng ở Thành phố Hồ Chí Minh,https://www.tripadvisor.com.vn/Restaurant_Review-g293925-d10458910-Reviews-Oliver_s_Pizza-Ho_Chi_Minh_City.html,Food,"Oliver's Pizza 85 Phạm Viết Chánh Phường 19, Quận Bình Thạnh, Thành phố Hồ Chí Minh 700000 Việt Nam",https://maps.app.goo.gl/iWitdBKrYFfDKnNP7
Market 39,"Corner Hai Ba Trung st. and Le Duan blv. District 1, Thành phố Hồ Chí Minh 700000 Việt Nam","10,781,971","106,693,081",https://media-cdn.tripadvisor.com/media/photo-s/26/f9/1b/e1/market-39-restaurant.jpg,"Tôi và bạn bè đã có một buổi tối vui vẻ và hài lòng tại Market 39. Tôi rất ấn tượng về nơi đây, từ cách bày trí buffet, sự đa dạng về món ăn đến cả cách phục vụ, quan tâm tận tình của...Thêm",#114 trên 3.735 nhà hàng ở Thành phố Hồ Chí Minh,https://www.tripadvisor.com.vn/Restaurant_Review-g293925-d4475447-Reviews-Market_39-Ho_Chi_Minh_City.html,Food,"Market 39 Corner Hai Ba Trung st. and Le Duan blv. District 1, Thành phố Hồ Chí Minh 700000 Việt Nam",https://maps.app.goo.gl/3kjFCkyYGKqiWMSZ9
Skewers,"9A Thai Van Lung Street, District 1 9A Thái Văn Lung, Q.1, Thành phố Hồ Chí Minh Việt Nam","107,790,115","1,067,047,525",https://media-cdn.tripadvisor.com/media/photo-s/14/9b/44/07/first-floor-terrace.jpg,Chúng tôi ăn tối vào một tối chủ nhật và đang tìm kiếm một thứ gì đó phương tây sau 3 tuần ăn tối của người Việt. Chia sẻ 3 món khai vị khi chúng tôi đã cảm thấy như một món chính và hoàn...Thêm,#121 trên 3.735 nhà hàng ở Thành phố Hồ Chí Minh,https://www.tripadvisor.com.vn/Restaurant_Review-g293925-d1122894-Reviews-Skewers-Ho_Chi_Minh_City.html,Food,"Skewers 9A Thai Van Lung Street, District 1 9A Thái Văn Lung, Q.1, Thành phố Hồ Chí Minh Việt Nam",https://maps.app.goo.gl/ynmNZrtU1LZGphtE8
Urbane Lounge,"148 Trần Hưng Đạo Quận 1, thuộc Khách Sạn Pullman, Thành phố Hồ Chí Minh Việt Nam","107,526,126","1,066,683,418",https://media-cdn.tripadvisor.com/media/photo-p/1c/19/a4/e0/say-aloha-this-october.jpg,"đặc biệt burger black angus là món ngon nhất so với tất cả các nơi mà chúng tôi từng trải nghiệm,bởi vậy chúng tôi thường ăn ở đây mỗi tuần ít nhất 1lần",#122 trên 3.735 nhà hàng ở Thành phố Hồ Chí Minh,https://www.tripadvisor.com.vn/Restaurant_Review-g293925-d11707899-Reviews-Urbane_Lounge-Ho_Chi_Minh_City.html,Food,"Urbane Lounge 148 Trần Hưng Đạo Quận 1, thuộc Khách Sạn Pullman, Thành phố Hồ Chí Minh Việt Nam",https://maps.app.goo.gl/36kHGeepTtvB6UZFA
El Sol Meat & Wine,"140/2 Võ Thị Sáu Quận 3, Thành phố Hồ Chí Minh 700000 Việt Nam","107,783,841","1,066,826,105",https://media-cdn.tripadvisor.com/media/photo-s/1a/01/1d/58/el-sol-meat-wine.jpg,"Tôi được xem clip quảng cáo, rất háo hức đặt bàn cho gia đình và khách, 7 người, tại chi nhánh Nguyễn Siêu, các bạn phục vụ nhiệt tình, nhưng món ăn thì dưới trung bình, món soup bò quý vị làm bôi bác quá,...Thêm",#123 trên 3.735 nhà hàng ở Thành phố Hồ Chí Minh,https://www.tripadvisor.com.vn/Restaurant_Review-g293925-d7733642-Reviews-El_Sol_Meat_Wine-Ho_Chi_Minh_City.html,Food,"El Sol Meat & Wine 140/2 Võ Thị Sáu Quận 3, Thành phố Hồ Chí Minh 700000 Việt Nam",https://maps.app.goo.gl/FhJ8wGNXm1AZeTKu7
Secret Garden,"158 Pasteur Bến Nghé, Quận 1, Thành phố Hồ Chí Minh 70000 Việt Nam","107,800,898","1,066,963,442",https://media-cdn.tripadvisor.com/media/photo-s/0e/3c/5f/dc/img-20170123-135752-largejpg.jpg,"Nhà hàng có không gian rộng rãi, bàn ăn được sắp rất vừa cho gia đình. Đồ ăn cũng rất ngon, thi thoảng gia đình mình vẫn qua đây ăn tối. Nếu mê món ăn việt, bạn có thể qua đây để thưởng thức các...Thêm",#124 trên 3.735 nhà hàng ở Thành phố Hồ Chí Minh,https://www.tripadvisor.com.vn/Restaurant_Review-g293925-d4573158-Reviews-Secret_Garden-Ho_Chi_Minh_City.html,Food,"Secret Garden 158 Pasteur Bến Nghé, Quận 1, Thành phố Hồ Chí Minh 70000 Việt Nam",https://maps.app.goo.gl/88GSXteH5mLmz6uW6
Mezz Restaurant,"17 Le Duan Boulevard District 1, Thành phố Hồ Chí Minh 70000 Việt Nam","107,851,163","1,067,030,742",https://media-cdn.tripadvisor.com/media/photo-s/0d/cc/87/1c/photo0jpg.jpg,Chất lượng dịch vụ tuyệt vời! Bạn phục vụ Trinh rất nhiệt tình! Món ăn khá tươi và ngon. Lần sau sẽ quay lại.,#125 trên 3.735 nhà hàng ở Thành phố Hồ Chí Minh,https://www.tripadvisor.com.vn/Restaurant_Review-g293925-d8586252-Reviews-Mezz_Restaurant-Ho_Chi_Minh_City.html,Food,"Mezz Restaurant 17 Le Duan Boulevard District 1, Thành phố Hồ Chí Minh 70000 Việt Nam",https://maps.app.goo.gl/Z8xdSUQaxFvLUXWP7
D'Maris Premier Buffet Phu My Hung,"469 Nguyễn Hữu Thọ Tầng 3 Lotte Mart, Tân Hưng, Quận 7, Thành phố Hồ Chí Minh Việt Nam","107,789,121","1,066,492,197",https://media-cdn.tripadvisor.com/media/photo-s/13/0e/f9/0d/d-maris-premier-buffet.jpg,"Thức ăn phong phú không gian thoáng thích hợp cho gia đình , cần cải thiện chất lượng phục vụ và món tráng miệng .",#127 trên 3.735 nhà hàng ở Thành phố Hồ Chí Minh,https://www.tripadvisor.com.vn/Restaurant_Review-g293925-d13614956-Reviews-D_Maris_Premier_Buffet_Phu_My_Hung-Ho_Chi_Minh_City.html,Food,"D'Maris Premier Buffet Phu My Hung 469 Nguyễn Hữu Thọ Tầng 3 Lotte Mart, Tân Hưng, Quận 7, Thành phố Hồ Chí Minh Việt Nam",https://maps.app.goo.gl/vUf9oFsYyHSCCqQQ7
Cork & Fork Paris Bánh Crêpes,"3/2 Đề Thám Saigon Inncrowd Hostel, Cô Giang, Quận 1, Thành phố Hồ Chí Minh 700000 Việt Nam","107,964,345","106,683,724",https://media-cdn.tripadvisor.com/media/photo-s/13/c7/af/13/cork-fork.jpg,Thực sự rất thích bánh crepes với Nutella và chuối với bột quế và kem vani. Nó đã được thưởng thức để có điều này sau 2 tuần thực phẩm Việt Nam. Tôi thực sự ước rằng sẽ có nhiều nơi như thế này quanh...Thêm,#128 trên 3.735 nhà hàng ở Thành phố Hồ Chí Minh,https://www.tripadvisor.com.vn/Restaurant_Review-g293925-d11931132-Reviews-Cork_Fork_Wine_and_Kitchen-Ho_Chi_Minh_City.html,Food,"Cork & Fork Paris Bánh Crêpes 3/2 Đề Thám Saigon Inncrowd Hostel, Cô Giang, Quận 1, Thành phố Hồ Chí Minh 700000 Việt Nam",
Phở Hùng,"241 Nguyễn Trãi, Phường Nguyễn Cư Trinh, quận 1 288 Nguyễn Tri Phương , P. 4 , Q. 10, Thành phố Hồ Chí Minh 700000 Việt Nam","10,751,624","106,669,488",https://media-cdn.tripadvisor.com/media/photo-s/16/ec/9c/e7/seating.jpg,"Tôi không hiểu sao một thương hiệu lăng xê quá hay sao mà ăn thấy quá tầm thường, nước dùng không ngon mà đắt quá vậy.",#130 trên 3.735 nhà hàng ở Thành phố Hồ Chí Minh,https://www.tripadvisor.com.vn/Restaurant_Review-g293925-d3392848-Reviews-Pho_Hung-Ho_Chi_Minh_City.html,Food,"Phở Hùng 241 Nguyễn Trãi, Phường Nguyễn Cư Trinh, quận 1 288 Nguyễn Tri Phương , P. 4 , Q. 10, Thành phố Hồ Chí Minh 700000 Việt Nam",
San Fu Lou Cantonese Kitchen Ho Chi Minh,"76A Le Lai Street, District 1 195-197 Phan Xich Long ST., District Phu Nhuan, Thành phố Hồ Chí Minh 01 Việt Nam","107,985,189","1,066,874,636",https://media-cdn.tripadvisor.com/media/photo-s/10/60/87/ed/mon-v-t-quay.jpg,"Ngon - rẻ. Nên đi, nhân viên nhiệt tình, thân thiện, món ăn ngon, đa dạng, hấp dẫn, không gian quán ấm áp",#129 trên 3.735 nhà hàng ở Thành phố Hồ Chí Minh,https://www.tripadvisor.com.vn/Restaurant_Review-g293925-d7082831-Reviews-San_Fu_Lou_Cantonese_Kitchen_Ho_Chi_Minh-Ho_Chi_Minh_City.html,Food,"San Fu Lou Cantonese Kitchen Ho Chi Minh 76A Le Lai Street, District 1 195-197 Phan Xich Long ST., District Phu Nhuan, Thành phố Hồ Chí Minh 01 Việt Nam",
Nhà Hàng Belgo,"159 Nguyễn Văn Thủ, Đa Kao, Quận 1, Thành phố Hồ Chí Minh 700000 Việt Nam","10,787,578","1,066,968,126",https://media-cdn.tripadvisor.com/media/photo-s/10/cd/2a/97/a-master-piece-of-art.jpg,"Nhà hàng tại Quận 1, dễ tìm. Bia tươi mát lạnh cho ngày hè oi bức. Không gian cũng phù hợp với nhóm bạn bè.Thêm",#134 trên 3.735 nhà hàng ở Thành phố Hồ Chí Minh,https://www.tripadvisor.com.vn/Restaurant_Review-g293925-d11946866-Reviews-Belgo_Belgian_Craft_Beer_Brewery_Da_Kao-Ho_Chi_Minh_City.html,Food,"Nhà Hàng Belgo 159 Nguyễn Văn Thủ, Đa Kao, Quận 1, Thành phố Hồ Chí Minh 700000 Việt Nam",https://maps.app.goo.gl/TAxZRx9tEhd7RJ2z9
Nhà Hàng Au Parc,"23 Hàn Thuyên Quận 1, Thành phố Hồ Chí Minh 700000 Việt Nam","108,466,438","106,769,276",https://media-cdn.tripadvisor.com/media/photo-s/05/71/21/9d/au-parc.jpg,"tôi đến au parc dùng bữa vài lần và thấy rằng đồ ăn rất ngon hợp khẩu vị cho cả người việt nam và khách nước ngoài. Không gian thoải mái , view rất đẹp. Ngoài ra, quản lý nhà hàng rất thân thiện ,...Thêm",#133 trên 3.735 nhà hàng ở Thành phố Hồ Chí Minh,https://www.tripadvisor.com.vn/Restaurant_Review-g293925-d1125106-Reviews-Au_Parc-Ho_Chi_Minh_City.html,Food,"Nhà Hàng Au Parc 23 Hàn Thuyên Quận 1, Thành phố Hồ Chí Minh 700000 Việt Nam",https://maps.app.goo.gl/5J4eqqHuUaBhjVoN7
Pho Phu Vuong,"339 Le Van Sy, P.1, Q. Tan Binh, Thành phố Hồ Chí Minh 70000 Việt Nam","107,959,638","1,066,659,284",https://media-cdn.tripadvisor.com/media/photo-s/15/fd/70/bb/img-20181230-101032-largejpg.jpg,"Cũng hay ăn sáng ở đây, phở khá ngon, nhiều lựa chọn, nhân viên phục vụ nhanh, nhưng có nhiều hôm thịt bị dai và hơi mùi. Nhưng cũng có hôm rất ngon nên chắc chỉ do đầu vào không ổn định. Đánh giá chung...Thêm",#136 trên 3.735 nhà hàng ở Thành phố Hồ Chí Minh,https://www.tripadvisor.com.vn/Restaurant_Review-g293925-d5989750-Reviews-Pho_Phu_Vuong-Ho_Chi_Minh_City.html,Food,"Pho Phu Vuong 339 Le Van Sy, P.1, Q. Tan Binh, Thành phố Hồ Chí Minh 70000 Việt Nam",https://maps.app.goo.gl/dzChobxgSLdCkFf29
Quince Eatery,"37bis Ky Con District 1, Thành phố Hồ Chí Minh Việt Nam","10,765,327","1,067,001,553",https://media-cdn.tripadvisor.com/media/photo-p/13/2a/ab/6f/quince-eatery.jpg,"Nhà hàng bài trí bếp khiến tôi cảm thấy rất gần gũi, nhân viên phục vụ tương đối tốt. Về món ăn thì chúng mình gọi những món khá khó khăn nên có vẻ ko cảm được vị lắm. NHƯNG không may răng ly nước...Thêm",#137 trên 3.735 nhà hàng ở Thành phố Hồ Chí Minh,https://www.tripadvisor.com.vn/Restaurant_Review-g293925-d13738133-Reviews-Quince_Eatery-Ho_Chi_Minh_City.html,Food,"Quince Eatery 37bis Ky Con District 1, Thành phố Hồ Chí Minh Việt Nam",https://maps.app.goo.gl/bRgBu2TiUAkU7iYB9
Nhà hàng Shri,"72-74 Nguyễn Thị Minh Khai Tầng 23 Toà Nhà Centec, Thành phố Hồ Chí Minh 70000 Việt Nam","10,779,053","106,686,867",https://media-cdn.tripadvisor.com/media/photo-s/19/31/ad/2c/amazing-view-from-our.jpg,"Địa điểm đẹp , thức ăn ngon, nhân viên nhiệt tình, vui vẻ, phong cảnh đẹp thoán mát, cảnh đẹp kjông khí trông lành",#135 trên 3.735 nhà hàng ở Thành phố Hồ Chí Minh,https://www.tripadvisor.com.vn/Restaurant_Review-g293925-d1741415-Reviews-Shri_Restaurant_Lounge-Ho_Chi_Minh_City.html,Food,"Nhà hàng Shri 72-74 Nguyễn Thị Minh Khai Tầng 23 Toà Nhà Centec, Thành phố Hồ Chí Minh 70000 Việt Nam",
Nhà hàng Ý Carpaccio,"79 Hai Bà Trưng, Q.1 Dong Khoi Area, Thành phố Hồ Chí Minh 700000 Việt Nam","107,916,153","1,066,872,091",https://media-cdn.tripadvisor.com/media/photo-s/1a/e8/3a/ed/20200216-122351-largejpg.jpg,"Mình có một trải nghiệm thú vị ở nhà hàng. Không gian yên tình, đồ ăn ngon mang lại cảm giác rất nhẹ nhàng, thư giãn. Sẽ quay lại",#138 trên 3.735 nhà hàng ở Thành phố Hồ Chí Minh,https://www.tripadvisor.com.vn/Restaurant_Review-g293925-d1122867-Reviews-Carpaccio-Ho_Chi_Minh_City.html,Food,"Nhà hàng Ý Carpaccio 79 Hai Bà Trưng, Q.1 Dong Khoi Area, Thành phố Hồ Chí Minh 700000 Việt Nam",https://maps.app.goo.gl/NPeh8i7Pg3CYbMcr8
The Old Compass Cafe and Bar,"63/11, Pasteur Level 3, Ben Nghe, Thành phố Hồ Chí Minh 700000 Việt Nam","107,749,924","1,067,005,975",https://media-cdn.tripadvisor.com/media/photo-s/10/0a/2a/f7/vietnamese-coffee-delicious.jpg,"Bỏ qua cái xô bồ của đêm Sài Gòn để tận hưởng một không gian hoàn toàn khác: ấm cúng và bình yên. Đồ uống rất tuyệt, đặc biệt có món bia lên men thủ công. Các món ăn Việt Nam được đầu bếp chế...Thêm",#132 trên 3.735 nhà hàng ở Thành phố Hồ Chí Minh,https://www.tripadvisor.com.vn/Restaurant_Review-g293925-d10834876-Reviews-The_Old_Compass_Cafe_and_Bar-Ho_Chi_Minh_City.html,Food,"The Old Compass Cafe and Bar 63/11, Pasteur Level 3, Ben Nghe, Thành phố Hồ Chí Minh 700000 Việt Nam",https://maps.app.goo.gl/z8R66sUrg3aJHwff8
IF Restaurant & Cafe,"151 Đồng Khởi Tầng 1, Quận 1, Thành phố Hồ Chí Minh 700000 Việt Nam","10,777,353","106,698,089",https://media-cdn.tripadvisor.com/media/photo-s/06/b4/81/af/grilled-snapper.jpg,"Đây là 1 trong những quán cơm việt truyền thống ,khá ngon và giá hợp lý , Phong cách sang trọng và truyền thống.",#140 trên 3.735 nhà hàng ở Thành phố Hồ Chí Minh,https://www.tripadvisor.com.vn/Restaurant_Review-g293925-d2662406-Reviews-IF_Restaurant_Cafe-Ho_Chi_Minh_City.html,Food,"IF Restaurant & Cafe 151 Đồng Khởi Tầng 1, Quận 1, Thành phố Hồ Chí Minh 700000 Việt Nam",
EON51 Restaurant & Lounge,"2 Hải Triều Tầng 51 toà nhà Bitexco Tower, Quận 1, Thành phố Hồ Chí Minh 700000 Việt Nam",,,https://media-cdn.tripadvisor.com/media/photo-s/03/9a/0e/78/fine-dining-with-the.jpg,"Mình ăn tối cùng với bạn gái ở đây, gọi hai suất full course, chất lượng tay nghề bếp thì ko có gì để chê và view thì đẹp suất xắc.",#142 trên 3.735 nhà hàng ở Thành phố Hồ Chí Minh,https://www.tripadvisor.com.vn/Restaurant_Review-g293925-d3955355-Reviews-EON51_Restaurant_Lounge-Ho_Chi_Minh_City.html,Food,"EON51 Restaurant & Lounge 2 Hải Triều Tầng 51 toà nhà Bitexco Tower, Quận 1, Thành phố Hồ Chí Minh 700000 Việt Nam",
Basilico,"Corner Le Van Huu Street and Nguyen Du Street District 1, Thành phố Hồ Chí Minh 700000 Việt Nam","10,781,971","106,693,081",https://media-cdn.tripadvisor.com/media/photo-s/28/b7/50/be/basilico-dining.jpg,"Một trải nghiệm ăn tối tuyệt vời, nhân viên vô cùng dễ thương và hỗ trợ chúng tôi có một bữa tối tuyệt vời. Vô cùng cảm ơn Hằng, khang ,Hạnh đã phục vụ tôi bữa tối hôm nay",#143 trên 3.735 nhà hàng ở Thành phố Hồ Chí Minh,https://www.tripadvisor.com.vn/Restaurant_Review-g293925-d1741416-Reviews-Basilico-Ho_Chi_Minh_City.html,Food,"Basilico Corner Le Van Huu Street and Nguyen Du Street District 1, Thành phố Hồ Chí Minh 700000 Việt Nam",https://maps.app.goo.gl/LF6ebovAEPywozyy9
The Deck Saigon,"38 Nguyen U Di Thao Dien, Thành phố Hồ Chí Minh District 2 Việt Nam","10,807,271","10,674,459",https://media-cdn.tripadvisor.com/media/photo-s/04/67/ca/16/the-deck-saigon.jpg,"Đồ ăn không đặc biệt, khẩu phần ít, nhân viên phục vụ không thân thiện, đi buổi tối không cảm nhận được view đẹp.",#141 trên 3.735 nhà hàng ở Thành phố Hồ Chí Minh,https://www.tripadvisor.com.vn/Restaurant_Review-g293925-d1928671-Reviews-The_Deck_Saigon-Ho_Chi_Minh_City.html,Food,"The Deck Saigon 38 Nguyen U Di Thao Dien, Thành phố Hồ Chí Minh District 2 Việt Nam",https://maps.app.goo.gl/J332bDhgHnuCtNdi7
Vittorio,"240 Khánh Hội, Street Ward 5, Quận 4, Thành phố Hồ Chí Minh 70000 Việt Nam","1,075,968","1,066,984,868",https://media-cdn.tripadvisor.com/media/photo-s/0e/98/07/85/photo2jpg.jpg,"Dịch vụ tại VIttorio rất kém và họ được định giá quá cao kể từ khi gần đây tăng giá. Tôi nói điều này đã đặt hàng từ họ hàng chục lần vì sự tiện lợi kể từ khi họ ở gần, nhưng không còn...Thêm",#144 trên 3.735 nhà hàng ở Thành phố Hồ Chí Minh,https://www.tripadvisor.com.vn/Restaurant_Review-g293925-d4311615-Reviews-Vittorio-Ho_Chi_Minh_City.html,Food,"Vittorio 240 Khánh Hội, Street Ward 5, Quận 4, Thành phố Hồ Chí Minh 70000 Việt Nam",https://maps.app.goo.gl/6JwG7neKGoKf57cn6
Sushi REI,"10 Nguyễn Thị Minh Khai, Đa Kao, Thành phố Hồ Chí Minh 70000 Việt Nam","107,899,815","1,067,047,218",https://media-cdn.tripadvisor.com/media/photo-s/0e/b1/df/00/spring-special-lunch.jpg,Lần đầu đến đây được thưởng thức sashimi đúng chuẩn Mình đã gọi course cao nhất Anh đầu bếp đẹp trai thực hiện từng món rất hấp dẫn Còn được giới thiệu từng món ăn Cách này trí món rất hấp dẫn và đẹp Chất...Thêm,#145 trên 3.735 nhà hàng ở Thành phố Hồ Chí Minh,https://www.tripadvisor.com.vn/Restaurant_Review-g293925-d8766175-Reviews-Sushi_REI-Ho_Chi_Minh_City.html,Food,"Sushi REI 10 Nguyễn Thị Minh Khai, Đa Kao, Thành phố Hồ Chí Minh 70000 Việt Nam",https://maps.app.goo.gl/tgWQTpaAZNjFquMw8
Cuba La Casa Del Mojito,"91 Pasteur, Q.1, Thành phố Hồ Chí Minh 70000 Việt Nam","107,769,262","1,066,993,038",https://media-cdn.tripadvisor.com/media/photo-s/0c/4f/fb/80/photo1jpg.jpg,Mojito tuyệt vời và bánh sandwich Cubano. Kiểm tra giờ hạnh phúc của họ từ 5-9 cho những đồ uống. Các nhân viên và nhân viên pha chế dường như tự hào về công việc của họ.,#147 trên 3.735 nhà hàng ở Thành phố Hồ Chí Minh,https://www.tripadvisor.com.vn/Restaurant_Review-g293925-d8693147-Reviews-Cuba_La_Casa_Del_Mojito-Ho_Chi_Minh_City.html,Food,"Cuba La Casa Del Mojito 91 Pasteur, Q.1, Thành phố Hồ Chí Minh 70000 Việt Nam",https://maps.app.goo.gl/mRTNtzSfYZzXRB698
Phatty's Sports Bar & Grill,"46-48 Ton That Thiep Street District 1, Ho Chi Minh City, Thành phố Hồ Chí Minh Việt Nam","107,740,779","1,067,032,608",https://media-cdn.tripadvisor.com/media/photo-s/1a/9a/f2/ef/phatty-s-sports-bar-grill.jpg,"Phatty's Sports Bar & Grill thực sự là một nơi lý tưởng để thư giãn sau một ngày dài. Không gian quán được thiết kế hiện đại và ấm cúng, tạo ra một không khí thoải mái cho khách hàng. Điểm cộng lớn nữa là...Thêm",#148 trên 3.735 nhà hàng ở Thành phố Hồ Chí Minh,https://www.tripadvisor.com.vn/Restaurant_Review-g293925-d2097037-Reviews-Phatty_s_Sports_Bar_Grill-Ho_Chi_Minh_City.html,Food,"Phatty's Sports Bar & Grill 46-48 Ton That Thiep Street District 1, Ho Chi Minh City, Thành phố Hồ Chí Minh Việt Nam",https://maps.app.goo.gl/azWQnbimwQbVHRDZ9
Pho Quynh,"323 Pham Ngu Lao, Thành phố Hồ Chí Minh Việt Nam","107,668,465","1,066,885,993",https://media-cdn.tripadvisor.com/media/photo-s/13/9b/62/6b/caption.jpg,Nhân viên và quản lý rất mất dạy không tôn trọng khách hàng.cách quản lý thì thôi rồi lụm thụm lệ thệ.,#149 trên 3.735 nhà hàng ở Thành phố Hồ Chí Minh,https://www.tripadvisor.com.vn/Restaurant_Review-g293925-d2492572-Reviews-Pho_Quynh-Ho_Chi_Minh_City.html,Food,"Pho Quynh 323 Pham Ngu Lao, Thành phố Hồ Chí Minh Việt Nam",https://maps.app.goo.gl/CEDFbRrkNajeVKnv5
Bê Vàng,"261 -263 An Duong Vuong Phường 3, Quận 5, Thành phố Hồ Chí Minh 700000 Việt Nam","107,611,581","1,066,832,786",https://media-cdn.tripadvisor.com/media/photo-s/29/ab/69/8b/trang-tri-ti-c-hoa-h.jpg,"Địa điểm thuận lợi. Phục vụ ân cần, chu đáo. Món ăn phong phú và ngon miệng. Tất cả tạo nên một nhà Bê Vàng đáng để bạn chọn làm điểm đón tiếp cùng đối tác và gia đình.Thêm",#379 trên 3.735 nhà hàng ở Thành phố Hồ Chí Minh,https://www.tripadvisor.com.vn/Restaurant_Review-g293925-d15686405-Reviews-Nha_Hang_Be_Vang-Ho_Chi_Minh_City.html,Food,"Bê Vàng 261 -263 An Duong Vuong Phường 3, Quận 5, Thành phố Hồ Chí Minh 700000 Việt Nam",https://maps.app.goo.gl/wtAQsmb8kCUgpdN79
Pizza 4P's Hai Ba Trung,"151B Hai Bà Trưng phường 6, quận 3, Thành phố Hồ Chí Minh 700000 Việt Nam","107,916,153","1,066,872,091",https://media-cdn.tripadvisor.com/media/photo-s/11/d6/d2/51/getlstd-property-photo.jpg,"món ngon nha !! phục vụ nhanh pizza ngon và giòn đa dạng món, tôi sẽ đến lần tiếp theo trong tahngsThêm",#151 trên 3.735 nhà hàng ở Thành phố Hồ Chí Minh,https://www.tripadvisor.com.vn/Restaurant_Review-g293925-d13417229-Reviews-Pizza_4P_s_Hai_Ba_Trung-Ho_Chi_Minh_City.html,Food,"Pizza 4P's Hai Ba Trung 151B Hai Bà Trưng phường 6, quận 3, Thành phố Hồ Chí Minh 700000 Việt Nam",
Vespa Sofar Bar,"99 Phạm Ngũ Lão, Quận 1, Thành phố Hồ Chí Minh 700000 Việt Nam","107,673,332","1,066,905,498",https://media-cdn.tripadvisor.com/media/photo-s/0f/61/4c/29/prepare-for-a-customer.jpg,"Ở đây có một không gian khá thoáng đãng và đẳng cấp. Mình ấn tượng với cách bày trí và chiếu sáng tại quán. Tuy nhiên, mặc dù đồ ăn ở đây ngon và hấp dẫn, nhưng một số món hình như chưa đạt tới...Thêm",#152 trên 3.735 nhà hàng ở Thành phố Hồ Chí Minh,https://www.tripadvisor.com.vn/Restaurant_Review-g293925-d11741981-Reviews-Vespa_Sofar_Bar-Ho_Chi_Minh_City.html,Food,"Vespa Sofar Bar 99 Phạm Ngũ Lão, Quận 1, Thành phố Hồ Chí Minh 700000 Việt Nam",
Pendolasco,"36 Tống Hữu Định Quận 2, Thành phố Hồ Chí Minh 700000 Việt Nam","10,805,986","1,067,331,307",https://media-cdn.tripadvisor.com/media/photo-p/11/58/5d/45/something-is-arriving.jpg,"Sau khi đọc những đánh giá tuyệt vời trên Trip Advisor về nhà hàng này, chúng tôi biết rằng chúng tôi muốn thử nó trong kỳ nghỉ của chúng tôi. Đó là vị trí lý tưởng, chỉ cách khách sạn cổ điển của chúng tôi,...Thêm",#153 trên 3.735 nhà hàng ở Thành phố Hồ Chí Minh,https://www.tripadvisor.com.vn/Restaurant_Review-g293925-d1057894-Reviews-Pendolasco-Ho_Chi_Minh_City.html,Food,"Pendolasco 36 Tống Hữu Định Quận 2, Thành phố Hồ Chí Minh 700000 Việt Nam",https://maps.app.goo.gl/gjtRtSfCH1owzoMv9
Sol Kitchen & Bar,"115 Lý Tự Trọng Phường Bến Thành, Quận 1, Thành phố Hồ Chí Minh 700000 Việt Nam","10,772,787","1,066,954,284",https://media-cdn.tripadvisor.com/media/photo-s/18/19/57/3a/open-kitchen-bar.jpg,"Không gian ấm cúng, món ăn rất ngon, nhân viên thân thiện, chuyên nghiệp. Tôi đã có một trải nghiệm rất rất tuyệt vời tại đây.",#154 trên 3.735 nhà hàng ở Thành phố Hồ Chí Minh,https://www.tripadvisor.com.vn/Restaurant_Review-g293925-d17642677-Reviews-Sol_Kitchen_Bar-Ho_Chi_Minh_City.html,Food,"Sol Kitchen & Bar 115 Lý Tự Trọng Phường Bến Thành, Quận 1, Thành phố Hồ Chí Minh 700000 Việt Nam",https://maps.app.goo.gl/TMExcz1m2vBJu6DA9
Maguro Studio,"19 Đông Du, Phường Bến Nghé, Thành phố Hồ Chí Minh 700000 Việt Nam","107,761,911","1,067,048,364",https://media-cdn.tripadvisor.com/media/photo-p/28/33/4d/f1/we-are-maguro-studio.jpg,Không gian ấm cúng Bạn Hoa phục vụ nhiệt tình vui vẻ món ngon các món vừa miệng sẽ quay trở lại vào ngày không xa cảm ơn vì bữa ăn,#146 trên 3.735 nhà hàng ở Thành phố Hồ Chí Minh,https://www.tripadvisor.com.vn/Restaurant_Review-g293925-d23805244-Reviews-MAGURO_Studio-Ho_Chi_Minh_City.html,Food,"Maguro Studio 19 Đông Du, Phường Bến Nghé, Thành phố Hồ Chí Minh 700000 Việt Nam",https://maps.app.goo.gl/EJULy7aMTGmjNnH26
Eddies D2 New York Deli & Diner,"71 Thảo Điền Thảo Điền, Quận 2, Thành phố Hồ Chí Minh 700000 Việt Nam","10,791,891","10,675,975",https://media-cdn.tripadvisor.com/media/photo-w/1b/6f/a8/d8/photo3jpg.jpg,"Mình đi chi nhánh Eddie ở Pasteur , D1. Đồ ăn rất ngon và nhiều. Nhân viên phục vụ cũng rất nhiệt tình, cũng hỏi ý kiến mình về đồ ăn cũng như giới thiệu sơ về menu quán cho mình nữa. Nói chung là...Thêm",#155 trên 3.735 nhà hàng ở Thành phố Hồ Chí Minh,https://www.tripadvisor.com.vn/Restaurant_Review-g293925-d18717836-Reviews-Eddies_D2_New_York_Deli_Diner-Ho_Chi_Minh_City.html,Food,"Eddies D2 New York Deli & Diner 71 Thảo Điền Thảo Điền, Quận 2, Thành phố Hồ Chí Minh 700000 Việt Nam",
The First Steakhouse,"6/7 Cách Mạng Tháng 8 P. Bến Thành, Quận 1, Thành phố Hồ Chí Minh 70000 Việt Nam","107,731,679","1,066,901,876",https://media-cdn.tripadvisor.com/media/photo-s/11/27/b3/0e/getlstd-property-photo.jpg,"Mình đã từng ăn ở nhìu nhà hàng Tây ở nhìu nước trên TG kể cả DuBai, mình thấy đồ ăn ở đây k thua gì Steak chuẩn Âu , giá mềm và cung cách phục vụ rất chuyên nghiệpThêm",#156 trên 3.735 nhà hàng ở Thành phố Hồ Chí Minh,https://www.tripadvisor.com.vn/Restaurant_Review-g293925-d13117661-Reviews-The_First_Steakhouse-Ho_Chi_Minh_City.html,Food,"The First Steakhouse 6/7 Cách Mạng Tháng 8 P. Bến Thành, Quận 1, Thành phố Hồ Chí Minh 70000 Việt Nam",
BAR SON,"3C Đ. Tôn Đức Thắng Bến Nghé, Quận 1, Thành phố Hồ Chí Minh 700000 Việt Nam","107,821,258","1,067,067,234",https://media-cdn.tripadvisor.com/media/photo-s/29/a6/83/b1/we-re-so-so-hot-at-the.jpg,Đồ ăn và thức uống ổn hợp lý. Nhân viên dễ thương thái độ phục vụ tốt. Bạn Dương vui vẻ hoạt bát làm hài lòng khách hàng.Thêm,#157 trên 3.735 nhà hàng ở Thành phố Hồ Chí Minh,https://www.tripadvisor.com.vn/Restaurant_Review-g293925-d24901009-Reviews-BAR_SON-Ho_Chi_Minh_City.html,Food,"BAR SON 3C Đ. Tôn Đức Thắng Bến Nghé, Quận 1, Thành phố Hồ Chí Minh 700000 Việt Nam",https://maps.app.goo.gl/Fx1HWdTf62YG3rXNA
The Elbow Room,"52 Pasteur, Q.1, Thành phố Hồ Chí Minh Việt Nam","10,771,263","1,067,024,191",https://media-cdn.tripadvisor.com/media/photo-s/14/98/17/ce/meatball-sub-sandwich.jpg,"Dịch vụ là tuyệt vời. Một trong những người phục vụ nói tiếng Anh xuất sắc và rất thân thiện. Cho tôi mượn bộ sạc điện thoại của anh ấy kể từ khi tôi quên mang theo. Dịch vụ nhanh chóng, tôi đã có mì...Thêm",#158 trên 3.735 nhà hàng ở Thành phố Hồ Chí Minh,https://www.tripadvisor.com.vn/Restaurant_Review-g293925-d2215936-Reviews-The_Elbow_Room-Ho_Chi_Minh_City.html,Food,"The Elbow Room 52 Pasteur, Q.1, Thành phố Hồ Chí Minh Việt Nam",https://maps.app.goo.gl/ZWDpot5VcBexCRCK7
Banh mi Grandma Lu,"41 Cô Bắc, Phường Cầu Ông Lãnh, Quận 1, Thành phố Hồ Chí Minh Việt Nam","107,628,664","106,692,396",https://media-cdn.tripadvisor.com/media/photo-s/1b/58/74/15/full-of-fresh-vegetable.jpg,"Great, good, quán a đẹp, bánh mì giòn, nhiều toppings, vị tri quán trung tâm, nhân viên dễ thương, đang có chương trình tặng cafe muối hấp dẫn",#159 trên 3.735 nhà hàng ở Thành phố Hồ Chí Minh,https://www.tripadvisor.com.vn/Restaurant_Review-g293925-d20924114-Reviews-Banh_mi_Grandma_Lu-Ho_Chi_Minh_City.html,Food,"Banh mi Grandma Lu 41 Cô Bắc, Phường Cầu Ông Lãnh, Quận 1, Thành phố Hồ Chí Minh Việt Nam",
Olé Saigon Restaurant,"92 Đường Quốc Hương Thảo Điền, Quận 2, Thành phố Hồ Chí Minh Việt Nam","108,096,572","1,067,309,155",https://media-cdn.tripadvisor.com/media/photo-s/1c/a2/a0/1d/inside-restaurant.jpg,"Tôi đến nhà hàng này vì tin tưởng vợ chồng chủ quán là người bản xứ TBN, hai vợ chồng rất nhiệt tình, thân thiện. Món ăn tạm được so với các nhà hàng khác tại VN hoặc Nam Mỹ, Barcelona mà tôi đã từng...Thêm",#160 trên 3.735 nhà hàng ở Thành phố Hồ Chí Minh,https://www.tripadvisor.com.vn/Restaurant_Review-g293925-d5790374-Reviews-Ole_Saigon_Restaurant-Ho_Chi_Minh_City.html,Food,"Olé Saigon Restaurant 92 Đường Quốc Hương Thảo Điền, Quận 2, Thành phố Hồ Chí Minh Việt Nam",https://maps.app.goo.gl/HemYQC73aHVwAJ856
Stoker Woodfired Grill & Bar,"44 Mac thi Buoi, Thành phố Hồ Chí Minh 70000 Việt Nam","10,775,427","1,067,048,401",https://media-cdn.tripadvisor.com/media/photo-s/08/b0/42/cd/stoker-woodfired-grill.jpg,"Cách chế biến bò đúng chuẩn theo yêu cầu và nêm nếm gia vị vừa ăn, side dishes cũng rất ngon, tuy nhiên sốt của rocket salad hơi đậm. Giá rượu hơi cao. Glass wine không tệ, giá hợp lý nếu đi vào tầm happy...Thêm",#161 trên 3.735 nhà hàng ở Thành phố Hồ Chí Minh,https://www.tripadvisor.com.vn/Restaurant_Review-g293925-d8530915-Reviews-Stoker_Woodfired_Grill_Bar-Ho_Chi_Minh_City.html,Food,"Stoker Woodfired Grill & Bar 44 Mac thi Buoi, Thành phố Hồ Chí Minh 70000 Việt Nam",https://maps.app.goo.gl/W8ZZbNMRU85XKiFs8
Blank Lounge Landmark,"208 Nguyễn Hữu Cảnh 75F & 76F, Tòa nhà Landmark 81, Phường 22, Bình Thạnh, Thành phố Hồ Chí Minh 700000 Việt Nam","10,795,037","1,067,194,332",https://media-cdn.tripadvisor.com/media/photo-s/17/48/95/e5/a-drink-a-view-and-a.jpg,"Khách nào cũng là khách, mà thái ₫ộ coi thường khách Việt. Gọi book thì bảo full, cứ tới có bàn thì ngồi. Lên tới nơi thì bảo full, chờ đợi xong lên bảo chờ xếp bàn. Mà thật ra cũng không có ₫ông lắm....Thêm",#162 trên 3.735 nhà hàng ở Thành phố Hồ Chí Minh,https://www.tripadvisor.com.vn/Restaurant_Review-g293925-d17281939-Reviews-Blank_Lounge_Landmark-Ho_Chi_Minh_City.html,Food,"Blank Lounge Landmark 208 Nguyễn Hữu Cảnh 75F & 76F, Tòa nhà Landmark 81, Phường 22, Bình Thạnh, Thành phố Hồ Chí Minh 700000 Việt Nam",https://maps.app.goo.gl/8YYk8MZ1poUp9L3u9
Ussina Aging Beef & Bar,"720A Điện Biên Phủ, Phường 22, Quận Bình Thạnh, Thành Phố Hồ Chí Minh Tầng 77, Toà nhà Vincom Landmark 81, Thành phố Hồ Chí Minh 700000 Việt Nam","1,079,483,345","10,672,172,913,787,200",https://media-cdn.tripadvisor.com/media/photo-p/1a/43/bb/c7/ussina-aging-beef-bar.jpg,"View đẹp thật nhưng thức ăn hơi bị kém ngon. Mình đã rất hy vọng có 1 buổi chiêu đãi bạn vừa ngon mắt vừa ngon miệng, nhưng hơi thất vọng",#163 trên 3.735 nhà hàng ở Thành phố Hồ Chí Minh,https://www.tripadvisor.com.vn/Restaurant_Review-g293925-d19647189-Reviews-Ussina_Aging_Beef_Bar-Ho_Chi_Minh_City.html,Food,"Ussina Aging Beef & Bar 720A Điện Biên Phủ, Phường 22, Quận Bình Thạnh, Thành Phố Hồ Chí Minh Tầng 77, Toà nhà Vincom Landmark 81, Thành phố Hồ Chí Minh 700000 Việt Nam",
La Casa Del Habano Ho Chi Minh,"74b Hai Ba Trung Street, Thành phố Hồ Chí Minh Việt Nam","107,761,461","1,067,055,219",https://media-cdn.tripadvisor.com/media/photo-p/21/eb/8e/d6/level-3-terazza-cubana.jpg,"Bữa trưa, Bữa tối, Bữa nửa buổi, Đêm muộn, Đồ uống",#613 trên 3.735 nhà hàng ở Thành phố Hồ Chí Minh,https://www.tripadvisor.com.vn/Restaurant_Review-g293925-d23849401-Reviews-La_Casa_Del_Habano_Ho_Chi_Minh-Ho_Chi_Minh_City.html,Food,"La Casa Del Habano Ho Chi Minh 74b Hai Ba Trung Street, Thành phố Hồ Chí Minh Việt Nam",https://maps.app.goo.gl/T2nie3cQNaMWUZuE9
The Refinery,"74 Hai Ba Trung, District 1, Thành phố Hồ Chí Minh Q1 Việt Nam","107,780,081","1,067,038,501",https://media-cdn.tripadvisor.com/media/photo-s/05/da/43/1e/the-refinery.jpg,ENGLISH BELOW Trải nghiệm cực kỳ không tốt trong và sau khi dùng bữa tại nhà hàng. Khi thanh toán tôi có sử dụng thẻ để thanh toán vì đang có chương trình ưu đãi nhưng nhân viên nhà hàng đã từ chối vì nói...Thêm,#164 trên 3.735 nhà hàng ở Thành phố Hồ Chí Minh,https://www.tripadvisor.com.vn/Restaurant_Review-g293925-d1008341-Reviews-The_Refinery-Ho_Chi_Minh_City.html,Food,"The Refinery 74 Hai Ba Trung, District 1, Thành phố Hồ Chí Minh Q1 Việt Nam",https://maps.app.goo.gl/vvPPMAueXNW45phe8
Ministry of Men,"17 Lê Duẩn Bến Nghé Sofitel Saigon Plaza, Thành phố Hồ Chí Minh 710545 Việt Nam","10,781,971","106,693,081",https://media-cdn.tripadvisor.com/media/photo-s/29/25/86/db/prime-minister-s-chamber.jpg,"Không khí. Không gian. Đồ uống. Âm nhạc. Tất cả đều vượt sự mong đợi. Thật sự mà nói, tôi không momg muốn Barbaard trở thành địa điểm tụ họp nổi tiếng và đông đúc, bởi thiên đường này cần được bảo tồn.Thêm",#165 trên 3.735 nhà hàng ở Thành phố Hồ Chí Minh,https://www.tripadvisor.com.vn/Restaurant_Review-g293925-d15201933-Reviews-Ministry_of_Men-Ho_Chi_Minh_City.html,Food,"Ministry of Men 17 Lê Duẩn Bến Nghé Sofitel Saigon Plaza, Thành phố Hồ Chí Minh 710545 Việt Nam",
Nhu Lan,"50-64-68 Ham Nghi St. Dist.1, Thành phố Hồ Chí Minh 70000 Việt Nam","10,781,971","106,693,081",https://media-cdn.tripadvisor.com/media/photo-p/16/5c/7d/ee/caption.jpg,"Giá có hơi cao nhưng xứng đáng. Đến các diệp lễ như trung thu thì xếp hàng mỏi cổ nha. Bánh trung thu ở đây ăn hợp khẩu vị. Nhân viên thì bình thường, k đáng nói.",#166 trên 3.735 nhà hàng ở Thành phố Hồ Chí Minh,https://www.tripadvisor.com.vn/Restaurant_Review-g293925-d1637790-Reviews-Nhu_Lan-Ho_Chi_Minh_City.html,Food,"Nhu Lan 50-64-68 Ham Nghi St. Dist.1, Thành phố Hồ Chí Minh 70000 Việt Nam",
Bánh Mì Hồng Hoa,"62 Nguyễn Văn Tráng, P .Bến Thành,Quận 1, Thành phố Hồ Chí Minh 70000 Việt Nam","107,708,195","1,066,917,312",https://media-cdn.tripadvisor.com/media/photo-p/12/cc/92/d5/bbq-pork-banh-mi.jpg,"Hiện nay có quá nhiều thương hiệu bánh mì, là món ""Cơm tay cầm"" thân quen, ưa thích của người Việt trong thế giới ẩm thực, thương hiệu bánh mì Hồng Hoa số 62 đường Nguyễn Văn Tráng, Q. 1 (TpHCM) cũng được đánh giá...Thêm",#167 trên 3.735 nhà hàng ở Thành phố Hồ Chí Minh,https://www.tripadvisor.com.vn/Restaurant_Review-g293925-d8274376-Reviews-Banh_Mi_Hong_Hoa-Ho_Chi_Minh_City.html,Food,"Bánh Mì Hồng Hoa 62 Nguyễn Văn Tráng, P .Bến Thành,Quận 1, Thành phố Hồ Chí Minh 70000 Việt Nam",
Bông Súng Vegetarian Food - Coffee,"4 Bà Huyện Thanh Quan Phường 6, Quận 3, Thành phố Hồ Chí Minh 70000 Việt Nam","107,823,183","1,066,806,273",https://media-cdn.tripadvisor.com/media/photo-s/29/a8/94/8f/nha-hang-chay-bong-sung.jpg,Quán chuyên đồ chay. Kêu món khá nhanh dù là ngày mùng 1. Quán giá không rẻ. Nhưng nước chấm phải dùng chung.yêu cầu cấp thêm dĩa mới đưa. Kêu trà đá 7 ly đem 3 ly kêu hết ly. Chờ từ đầu buổi đến...Thêm,#168 trên 3.735 nhà hàng ở Thành phố Hồ Chí Minh,https://www.tripadvisor.com.vn/Restaurant_Review-g293925-d8429348-Reviews-Bong_Sung_Vegetarian_Food_Coffee-Ho_Chi_Minh_City.html,Food,"Bông Súng Vegetarian Food - Coffee 4 Bà Huyện Thanh Quan Phường 6, Quận 3, Thành phố Hồ Chí Minh 70000 Việt Nam",https://maps.app.goo.gl/4gm65RmGZAg85WTA9
5ku Station,"29 Thai Van Lung Ben Nghe Ward, Dist. 1, Thành phố Hồ Chí Minh 70000 Việt Nam","1,076,821","106,694,521",https://media-cdn.tripadvisor.com/media/photo-s/17/27/df/13/5ku-station.jpg,Nhân viên bao lầy bao thoải mái. Tốt để có những cuộc nhậu say sưa cùng chúng bạn :))) Good place to drink cheap beers and food. Really recommand!!,#169 trên 3.735 nhà hàng ở Thành phố Hồ Chí Minh,https://www.tripadvisor.com.vn/Restaurant_Review-g293925-d4227858-Reviews-5ku_Station-Ho_Chi_Minh_City.html,Food,"5ku Station 29 Thai Van Lung Ben Nghe Ward, Dist. 1, Thành phố Hồ Chí Minh 70000 Việt Nam",
Quán Bụi Bistro & Lounge,"224 Đ. Lê Thánh Tôn, Thành phố Hồ Chí Minh 70000 Việt Nam","107,818,116","1,067,057,344",https://media-cdn.tripadvisor.com/media/photo-s/23/f6/1f/d7/quan-b-i.jpg,"Đây là một chi nhánh mới của Quán Bụi , nên mình quyết định cùng gia đình tới đây dùng bữa thì khá là bất ngờ vì đồ ăn khá là ngon, hợp vì với gia đình mình và nhân viên phục vụ cũng rất...Thêm",#171 trên 3.735 nhà hàng ở Thành phố Hồ Chí Minh,https://www.tripadvisor.com.vn/Restaurant_Review-g293925-d8614066-Reviews-Quan_B_i_Bistro_Lounge-Ho_Chi_Minh_City.html,Food,"Quán Bụi Bistro & Lounge 224 Đ. Lê Thánh Tôn, Thành phố Hồ Chí Minh 70000 Việt Nam",https://maps.app.goo.gl/DkYJbEn1MCHqDsN2A
Square One,"2 Lam Son Square, District 1 Park Hyatt Saigon, Thành phố Hồ Chí Minh 70000 Việt Nam","1,077,753,435","10,670,341,626,501,400",https://media-cdn.tripadvisor.com/media/photo-s/12/5f/19/95/square-one-cellar-room.jpg,"Nhà hàng sang trọng, lịch sự và ấm cúng. Món ăn ngon chuẩn quốc tế, có nhiều không gian phù hợp các nhóm. Phục vụ nhanh và thân thiện",#173 trên 3.735 nhà hàng ở Thành phố Hồ Chí Minh,https://www.tripadvisor.com.vn/Restaurant_Review-g293925-d1308585-Reviews-Square_One-Ho_Chi_Minh_City.html,Food,"Square One 2 Lam Son Square, District 1 Park Hyatt Saigon, Thành phố Hồ Chí Minh 70000 Việt Nam",https://maps.app.goo.gl/kVbp5zGnHHbhR1n86
Nhà hàng Mandarine,"11a Ngô Văn Năm Bến Nghé, Quận 1, Thành phố Hồ Chí Minh 700000 Việt Nam","107,810,609","1,067,062,097",https://media-cdn.tripadvisor.com/media/photo-s/26/d2/b3/91/mandarine.jpg,"Nhà hàng có nhiều món ăn ngon lạ miệng, món chay cũng rất tuyệt, nói chung là WOW. Không gian nhà hàng ấm áp, phục vụ nhiệt tình.Rượu vang ở đây kết hợp món ăn trên cả tuyệt vời. Cả nhóm sẽ quay lại",#174 trên 3.735 nhà hàng ở Thành phố Hồ Chí Minh,https://www.tripadvisor.com.vn/Restaurant_Review-g293925-d1898419-Reviews-Mandarine_Restaurant-Ho_Chi_Minh_City.html,Food,"Nhà hàng Mandarine 11a Ngô Văn Năm Bến Nghé, Quận 1, Thành phố Hồ Chí Minh 700000 Việt Nam",https://maps.app.goo.gl/DdAGAUEr5Uk96VYY9
Malt,"46-48 Mac Thi Buoi District 1, Thành phố Hồ Chí Minh 70000 Việt Nam","10,775,427","1,067,048,401",https://media-cdn.tripadvisor.com/media/photo-s/0a/a7/73/0b/getlstd-property-photo.jpg,"Burger vegetarian có nhiều cheese các loại, có rau rocket, nhân burger ngon chắc là của beyond meat thì phải (ngon như thịt thật). Rất chất lượng, hoàn toàn xứng đáng với giá tiền!",#172 trên 3.735 nhà hàng ở Thành phố Hồ Chí Minh,https://www.tripadvisor.com.vn/Restaurant_Review-g293925-d10110486-Reviews-Malt-Ho_Chi_Minh_City.html,Food,"Malt 46-48 Mac Thi Buoi District 1, Thành phố Hồ Chí Minh 70000 Việt Nam",https://maps.app.goo.gl/4xmJWBnsFysKkuA48
HOME Saigon - HOME Vietnamese Restaurant,"216/4 Điện Biên Phủ, Quận 3, Thành phố Hồ Chí Minh 700000 Việt Nam","107,984,442","1,067,051,673",https://media-cdn.tripadvisor.com/media/photo-s/28/fd/86/12/home-saigon-home-vietnamese.jpg,"Món ăn ngon, hấp dẫn và đa dạng, nhân viên nhiệt tình, take care khách tốt, không gian ấm cúng. Một nơi đáng để ghé qua khi ghé HCM",#170 trên 3.735 nhà hàng ở Thành phố Hồ Chí Minh,https://www.tripadvisor.com.vn/Restaurant_Review-g293925-d25547299-Reviews-HOME_Saigon_HOME_Vietnamese_Restaurant-Ho_Chi_Minh_City.html,Food,"HOME Saigon - HOME Vietnamese Restaurant 216/4 Điện Biên Phủ, Quận 3, Thành phố Hồ Chí Minh 700000 Việt Nam",
Quán Nông Trại Khoai,"89 Phạm Viết Chánh Phường 19, Quận Bình Thạnh, Thành phố Hồ Chí Minh 700000 Việt Nam","107,901,978","1,067,107,017",https://media-cdn.tripadvisor.com/media/photo-s/0f/1c/45/b9/photo2jpg.jpg,"Ghé thăm quán khi vào chơi Sài Gòn. Mình ấn tượng về đồ ăn ngon và không gian đáng yêu, bắt mắt. Đến đây bạn sẽ tìm thấy cảm giác thư giãn, thân thiện. Một điểm đến thú vị.",#175 trên 3.735 nhà hàng ở Thành phố Hồ Chí Minh,https://www.tripadvisor.com.vn/Restaurant_Review-g293925-d10821311-Reviews-Nong_Trai_Khoai-Ho_Chi_Minh_City.html,Food,"Quán Nông Trại Khoai 89 Phạm Viết Chánh Phường 19, Quận Bình Thạnh, Thành phố Hồ Chí Minh 700000 Việt Nam",https://maps.app.goo.gl/P19fD3ffhG7hsEBC8
Chay Garden - Vegetarian Restaurant & Coffee,"52 Võ Văn Tần Phường 6, Quận 3, Thành phố Hồ Chí Minh 700000 Việt Nam","107,692,249","1,066,834,859",https://media-cdn.tripadvisor.com/media/photo-s/17/0e/48/9d/chay-garden-vegetarian.jpg,"Món ăn ngon, độc đáo, hợp khẩu vị, nêm nếm vừa ăn, đầy đặn, đồ uống ngon. Không gian ăn sạch sẽ thoáng mát rộng rãi",#176 trên 3.735 nhà hàng ở Thành phố Hồ Chí Minh,https://www.tripadvisor.com.vn/Restaurant_Review-g293925-d15618103-Reviews-Chay_Garden_Vegetarian_Restaurant_Coffee-Ho_Chi_Minh_City.html,Food,"Chay Garden - Vegetarian Restaurant & Coffee 52 Võ Văn Tần Phường 6, Quận 3, Thành phố Hồ Chí Minh 700000 Việt Nam",
Gringo Tacos y Cantina,"28 Mê Linh Ward 19 Binh Thanh District, Thành phố Hồ Chí Minh 700000 Việt Nam",,,https://media-cdn.tripadvisor.com/media/photo-s/25/44/88/ff/our-outdoor-dining-area.jpg,Gringo Taco y Cantina rất ngon! Chúng tôi đến đầu tiên cho bữa tối và gọi món tacos và bơ thực vật đông lạnh và chúng tôi cần quay lại vào ngày hôm sau để ăn trưa vì nó rất ngon. Chắc chắn dừng lại...Thêm,#177 trên 3.735 nhà hàng ở Thành phố Hồ Chí Minh,https://www.tripadvisor.com.vn/Restaurant_Review-g293925-d12331281-Reviews-Gringo_Tacos_y_Cantina-Ho_Chi_Minh_City.html,Food,"Gringo Tacos y Cantina 28 Mê Linh Ward 19 Binh Thanh District, Thành phố Hồ Chí Minh 700000 Việt Nam",https://maps.app.goo.gl/wMEVqyrwZX9E69GN9
SH Garden,"98 Nguyen Hue St District 1, Thành phố Hồ Chí Minh 70000 Việt Nam","10,781,971","106,693,081",https://media-cdn.tripadvisor.com/media/photo-s/06/f7/ea/a0/sh-garden.jpg,Nhà hàng view đẹp. Nhân viên khá thân thiện . Món việt Nam thuần túy phù hợp cho nhóm đi ăn chơi tại khu trung tâm sg ... Có thể quay lại sau một thời gian.,#178 trên 3.735 nhà hàng ở Thành phố Hồ Chí Minh,https://www.tripadvisor.com.vn/Restaurant_Review-g293925-d3589149-Reviews-SH_Garden-Ho_Chi_Minh_City.html,Food,"SH Garden 98 Nguyen Hue St District 1, Thành phố Hồ Chí Minh 70000 Việt Nam",https://maps.app.goo.gl/VtnGijm7twQBtEGM9
Pizza & Bia,"24/4 Phạm Ngọc Thạch Phường Võ Thị Sáu, Quận 3, Thành phố Hồ Chí Minh 700000 Việt Nam","107,821,448","1,066,964,447",https://media-cdn.tripadvisor.com/media/photo-s/29/ba/13/d9/4-pham-ngoc-thach-st.jpg,"Nhân viên phục vụ lễ phép dễ thương , bánh ăn rất ngon hợp khẩu vị và đa dạng , lần sau sẽ quay lại tiếp",#179 trên 3.735 nhà hàng ở Thành phố Hồ Chí Minh,https://www.tripadvisor.com.vn/Restaurant_Review-g293925-d12452923-Reviews-Pizza_Bia-Ho_Chi_Minh_City.html,Food,"Pizza & Bia 24/4 Phạm Ngọc Thạch Phường Võ Thị Sáu, Quận 3, Thành phố Hồ Chí Minh 700000 Việt Nam",https://maps.app.goo.gl/qz6Wy1Ly4WkoZYNs7
Sushi Hokkaido Sachi,"40-42 Đông Du, P. Bến Nghé, Q.1 L5 - 17, 65 Le Loi,Ben Nghe Ward, District 1, Thành phố Hồ Chí Minh 70000 Việt Nam","107,736,479","1,067,009,196",https://media-cdn.tripadvisor.com/media/photo-s/07/84/c4/e0/sushi-hokkaido-sachi.jpg,"Kiu tính tiền bạn nữ mặc áo kimono màu xanh dương đến hỏi r dạ dạ đi luôn, lơ luôn mới ghê chứ. Ngồi 10 phút ko ai tới tính tiền. Đến lúc đúng bạn đó đi qua, mình hỏi gọi ai mới tính tiền...Thêm",#180 trên 3.735 nhà hàng ở Thành phố Hồ Chí Minh,https://www.tripadvisor.com.vn/Restaurant_Review-g293925-d6501886-Reviews-Sushi_Hokkaido_Sachi-Ho_Chi_Minh_City.html,Food,"Sushi Hokkaido Sachi 40-42 Đông Du, P. Bến Nghé, Q.1 L5 - 17, 65 Le Loi,Ben Nghe Ward, District 1, Thành phố Hồ Chí Minh 70000 Việt Nam",
Banh Mi Hoa Ma,"53 Cao Thang, phuong 3, Thành phố Hồ Chí Minh 70000 Việt Nam","107,702,786","1,066,818,364",https://media-cdn.tripadvisor.com/media/photo-s/13/e5/88/0d/img-20180722-085113-largejpg.jpg,"Vị trí: Nằm ngay ngã 3 với 1 con hẻm tại 53 Cao Thắng. Quán nhỏ nên chạy xe chậm để dễ thấy. Để xe máy trong hẻm, có người giữ, giữ FREE. --------------------- Không gian: Bên trong và bên ngoài. Bên trong nhỏ ko...Thêm",#181 trên 3.735 nhà hàng ở Thành phố Hồ Chí Minh,https://www.tripadvisor.com.vn/Restaurant_Review-g293925-d8603404-Reviews-Banh_Mi_Hoa_Ma-Ho_Chi_Minh_City.html,Food,"Banh Mi Hoa Ma 53 Cao Thang, phuong 3, Thành phố Hồ Chí Minh 70000 Việt Nam",https://maps.app.goo.gl/TDXi2YYvjX3wHPHYA
Beirut - Mediterranean Kitchen & Lounge,"21 Ngô Đức Kế Phường Bến Nghé, Quận 1, Thành phố Hồ Chí Minh 700000 Việt Nam","10,777,353","106,698,089",https://media-cdn.tripadvisor.com/media/photo-s/15/24/63/14/beirut-saigon-authentic.jpg,"Mỗi lần tôi phải ăn ở đó, thực sự là một trong những món ngon nhất, tôi gần như đã thử hầu hết thực đơn ở đó, tôi rất khuyến khích",#182 trên 3.735 nhà hàng ở Thành phố Hồ Chí Minh,https://www.tripadvisor.com.vn/Restaurant_Review-g293925-d2629212-Reviews-Beirut_Mediterranean_Kitchen_Lounge-Ho_Chi_Minh_City.html,Food,"Beirut - Mediterranean Kitchen & Lounge 21 Ngô Đức Kế Phường Bến Nghé, Quận 1, Thành phố Hồ Chí Minh 700000 Việt Nam",
The Organik House,"7F Nguyễn Thị Minh Khai Bến Nghé, Quận 1, Thành phố Hồ Chí Minh 700000 Việt Nam","107,875,452","1,067,027,718",https://media-cdn.tripadvisor.com/media/photo-s/17/bf/39/dc/photo1jpg.jpg,"Đã ở đây hai lần, cả hai lần xuất sắc.  - Bánh sandwich thuần chay ngon  - đã đi vào chủ nhật và có bữa ăn sáng đầy đủ, một đĩa lớn các món ăn thuần chay, ra khỏi thế giới này Craft cider là...Thêm",#183 trên 3.735 nhà hàng ở Thành phố Hồ Chí Minh,https://www.tripadvisor.com.vn/Restaurant_Review-g293925-d8776218-Reviews-The_Organik_House-Ho_Chi_Minh_City.html,Food,"The Organik House 7F Nguyễn Thị Minh Khai Bến Nghé, Quận 1, Thành phố Hồ Chí Minh 700000 Việt Nam",
Cà Phê Chất,"53/1 Lê Thị Hồng Gấm Phường Nguyễn Thái Bình, Quận 1, Thành phố Hồ Chí Minh 700000 Việt Nam","10,768,921","1,066,976,004",https://media-cdn.tripadvisor.com/media/photo-s/10/a9/90/5e/smoker-bbq-pork-with.jpg,Tuyệt vời tại thời điểm mình ghé qua ! Đúng là chất ! Từ không gian đến phong cách phục vụ! OK và tuyệt vời ông mặt trời!,#184 trên 3.735 nhà hàng ở Thành phố Hồ Chí Minh,https://www.tripadvisor.com.vn/Restaurant_Review-g293925-d8529965-Reviews-Chat_Coffee_Roasters_Bistro-Ho_Chi_Minh_City.html,Food,"Cà Phê Chất 53/1 Lê Thị Hồng Gấm Phường Nguyễn Thái Bình, Quận 1, Thành phố Hồ Chí Minh 700000 Việt Nam",
Bánh Xèo 46A,"46A Đinh Công Tráng Quận 1, Thành phố Hồ Chí Minh Việt Nam","10,777,353","106,698,089",https://media-cdn.tripadvisor.com/media/photo-p/16/65/1a/5b/caption.jpg,Thực sự thất vọng và bàng hoàng về văn hoá bán hàng của nhà hàng khi việc sử dụng mắm nêm của khách cũ cho khách mới lại được coi là điều đương nhiên. Thiết nghĩ nhà hàng nên treo thêm biển “ở đây dùng...Thêm,#185 trên 3.735 nhà hàng ở Thành phố Hồ Chí Minh,https://www.tripadvisor.com.vn/Restaurant_Review-g293925-d1122087-Reviews-Banh_Xeo_46A-Ho_Chi_Minh_City.html,Food,"Bánh Xèo 46A 46A Đinh Công Tráng Quận 1, Thành phố Hồ Chí Minh Việt Nam",https://maps.app.goo.gl/8CJFCM23L3opxKW7A
Quán cà phê Miyama,"65 Lê Lợi, P. Bến Nghé, Q.1 L3-01, Saigon Centre, Thành phố Hồ Chí Minh 700000 Việt Nam","107,801,495","1,067,032,527",https://media-cdn.tripadvisor.com/media/photo-s/1a/15/1d/6d/getlstd-property-photo.jpg,"quán rộng rất tuyệt khi được đi cùng ny, nhiều loại nước uống ,cà phê ,bạc xỉu còn nhiêu nhưng mình chưa kể hết ,cà phê ngon giá cả hợp lí ,còn có nhiều đồ ăn ngon nữa",#186 trên 3.735 nhà hàng ở Thành phố Hồ Chí Minh,https://www.tripadvisor.com.vn/Restaurant_Review-g293925-d10543099-Reviews-Miyama_Cafe-Ho_Chi_Minh_City.html,Food,"Quán cà phê Miyama 65 Lê Lợi, P. Bến Nghé, Q.1 L3-01, Saigon Centre, Thành phố Hồ Chí Minh 700000 Việt Nam",
TukTuk Thai Bistro 2,"38 Ly Tu Trong St. District 1, Thành phố Hồ Chí Minh 70000 Việt Nam","1,077,734","106,700,248",https://media-cdn.tripadvisor.com/media/photo-s/1d/1e/26/27/tuktuk-thai-bistro-2.jpg,"Nhân viên nhiệt tình, dễ thương. Đồ ăn ngon và ra món rất nhanh. Quán dễ tìm, nằm ở trung tâm thành phố. Chắc chắn sẽ quay lại!",#187 trên 3.735 nhà hàng ở Thành phố Hồ Chí Minh,https://www.tripadvisor.com.vn/Restaurant_Review-g293925-d8777693-Reviews-TukTuk_Thai_Bistro_2-Ho_Chi_Minh_City.html,Food,"TukTuk Thai Bistro 2 38 Ly Tu Trong St. District 1, Thành phố Hồ Chí Minh 70000 Việt Nam",https://maps.app.goo.gl/FixK36CxKA7VatoB8
Pizza LOGiC Ho Chi Minh City,"44 Lê Lợi Bến Nghé, Quận 1, Thành phố Hồ Chí Minh 7000 Việt Nam","107,740,844","1,067,005,221",https://media-cdn.tripadvisor.com/media/photo-s/10/b8/35/f4/margherita-pizza-with.jpg,"Đang có giảm giá nha mọi người. Bánh cỡ lớn thế này phù hợp cho 2 người ăn. Pizza ở đây được nướng bằng củi, nhìn lạ lạ nhưng mà vẫn đều màu và mùi vị thì ngon lắm ạh. Vừa mới mở cửa hàng...Thêm",#189 trên 3.735 nhà hàng ở Thành phố Hồ Chí Minh,https://www.tripadvisor.com.vn/Restaurant_Review-g293925-d11621621-Reviews-Pizza_LOGiC_Ho_Chi_Minh_City-Ho_Chi_Minh_City.html,Food,"Pizza LOGiC Ho Chi Minh City 44 Lê Lợi Bến Nghé, Quận 1, Thành phố Hồ Chí Minh 7000 Việt Nam",
Rico Taco,"97 Hai Bà Trưng Bến Nghé, Quận 1, Thành phố Hồ Chí Minh 700000 Việt Nam","107,773,123","1,067,041,552",https://media-cdn.tripadvisor.com/media/photo-s/22/b8/a4/e7/general-space.jpg,"Mình từng đi ăn đồ mễ ở Rico Taco và một quán đồ mễ khác ở quận 1 nhưng mình vẫn thấy thích Rico Taco hơn. Không gian rộng, decor đẹp. Nếu ai muốn thử đồ mexico thì hãy chuẩn bị trước tinh thật là...Thêm",#190 trên 3.735 nhà hàng ở Thành phố Hồ Chí Minh,https://www.tripadvisor.com.vn/Restaurant_Review-g293925-d2734409-Reviews-Rico_Taco-Ho_Chi_Minh_City.html,Food,"Rico Taco 97 Hai Bà Trưng Bến Nghé, Quận 1, Thành phố Hồ Chí Minh 700000 Việt Nam",https://maps.app.goo.gl/hvuq4mqn132852xAA
Ẩm Thực RIVIA,"18 Đ. Nguyễn Cư Trinh Phường Phạm Ngũ Lão, Quận 1, Thành phố Hồ Chí Minh 700000 Việt Nam","107,630,751","1,066,863,012",https://media-cdn.tripadvisor.com/media/photo-s/28/b0/6d/6a/rivia.jpg,"Good!!! Let's try with Vietnam Seafood.. We had dinner here..Staff good.. Beef ok..💯💯💯. Mực, cơn chiên, sườn...",#192 trên 3.735 nhà hàng ở Thành phố Hồ Chí Minh,https://www.tripadvisor.com.vn/Restaurant_Review-g293925-d13205196-Reviews-M_Th_c_RIVIA-Ho_Chi_Minh_City.html,Food,"Ẩm Thực RIVIA 18 Đ. Nguyễn Cư Trinh Phường Phạm Ngũ Lão, Quận 1, Thành phố Hồ Chí Minh 700000 Việt Nam",https://maps.app.goo.gl/HJrJGNatdhX1ookY6
Opera,"2 Lam Son Square, District 1 Park Hyatt Saigon, Thành phố Hồ Chí Minh Việt Nam","1,077,753,435","10,670,341,626,501,400",https://media-cdn.tripadvisor.com/media/photo-s/11/1f/5d/bd/surrounding-a-huge-show.jpg,Đồ ăn ở nhà hàng Ý Opera cảm thấy bình thường . Nhà hàng sang trọng nhưng không có Cold Tower khi khách vào ăn . Lúc bưng món soup và Pizza nhân viên phục vụ không biết giới thiệu thành phần món ăn ....Thêm,#188 trên 3.735 nhà hàng ở Thành phố Hồ Chí Minh,https://www.tripadvisor.com.vn/Restaurant_Review-g293925-d1480506-Reviews-Opera-Ho_Chi_Minh_City.html,Food,"Opera 2 Lam Son Square, District 1 Park Hyatt Saigon, Thành phố Hồ Chí Minh Việt Nam",
Chef Thien French Bistro,"158 Pasteur Phường Bến Nghé, Quận 1, Thành phố Hồ Chí Minh 700000 Việt Nam","107,800,898","1,066,963,442",https://media-cdn.tripadvisor.com/media/photo-s/19/27/f1/78/pan-fried-foie-gras-with.jpg,"Chúng tôi đến ăn nhiều lần tại đây. Món ăn ngon, trình bày đẹp mắt, nhà hàng sạch sẻ, giá cả phù hợp, nhân viên thân thiện và chuyên nghiệp.",#193 trên 3.735 nhà hàng ở Thành phố Hồ Chí Minh,https://www.tripadvisor.com.vn/Restaurant_Review-g293925-d15326762-Reviews-Chef_Thien_French_Bistro-Ho_Chi_Minh_City.html,Food,"Chef Thien French Bistro 158 Pasteur Phường Bến Nghé, Quận 1, Thành phố Hồ Chí Minh 700000 Việt Nam",https://maps.app.goo.gl/VipD3pYvYGek361C9
Hellas - Traditional Greek Cuisine,"113B Hồ Tùng Mậu, Thành phố Hồ Chí Minh 700000 Việt Nam","107,733,666","1,067,030,664",https://media-cdn.tripadvisor.com/media/photo-s/10/e4/c4/1e/great-souvlaki-dishes.jpg,Món ăn cực ngon. Phục vụ rất thân thiện Do không gian hơi nhỏ. Khách muốn ăn cần đặt chỗ trước. Buổi tối có thể đậu xe hơi trước cửa.,#194 trên 3.735 nhà hàng ở Thành phố Hồ Chí Minh,https://www.tripadvisor.com.vn/Restaurant_Review-g293925-d12902095-Reviews-Hellas_Traditional_Greek_Cuisine-Ho_Chi_Minh_City.html,Food,"Hellas - Traditional Greek Cuisine 113B Hồ Tùng Mậu, Thành phố Hồ Chí Minh 700000 Việt Nam",https://maps.app.goo.gl/vvT4mvc7B2EGNmQu9
Saigon 118 Rooftop Bar,"118 Pasteur Ben Nghe Ward, Thành phố Hồ Chí Minh 77000 Việt Nam","107,772,614","1,066,994,319",https://media-cdn.tripadvisor.com/media/photo-s/28/b7/5a/db/caption.jpg,"View đẹp, cocktail và đồ ăn ngon, Gìn Tonic nhiều sự lựa chọn và giá mềm, nhân viên cũng rất nhiệt tình.",#195 trên 3.735 nhà hàng ở Thành phố Hồ Chí Minh,https://www.tripadvisor.com.vn/Restaurant_Review-g293925-d25417881-Reviews-SAIGON_118_ROOFTOP_BAR-Ho_Chi_Minh_City.html,Food,"Saigon 118 Rooftop Bar 118 Pasteur Ben Nghe Ward, Thành phố Hồ Chí Minh 77000 Việt Nam",
Vicolo1,"232 Bùi Viện Phường Phạm Ngũ Lão, Quận 1, Thành phố Hồ Chí Minh 700000 Việt Nam","107,667,355","1,066,924,554",https://media-cdn.tripadvisor.com/media/photo-p/1b/01/4f/98/hcmc-1st-pizza-al-taglio.jpg,"Pizza theo miếng, đúng là độc lạ, không ở đâu có, lại ngon nữa. Bia cũng rẻ, 15k chai Saigon bia. Không gian quán lại rất thoải mái.",#196 trên 3.735 nhà hàng ở Thành phố Hồ Chí Minh,https://www.tripadvisor.com.vn/Restaurant_Review-g293925-d8853334-Reviews-Vicolo1-Ho_Chi_Minh_City.html,Food,"Vicolo1 232 Bùi Viện Phường Phạm Ngũ Lão, Quận 1, Thành phố Hồ Chí Minh 700000 Việt Nam",
Nhà Hàng Lubu,"97b Thảo Điền, Phường Thảo Điền Quận 2, Thành phố Hồ Chí Minh 70000 Việt Nam","10,781,971","106,693,081",https://media-cdn.tripadvisor.com/media/photo-p/13/42/5c/ee/toast-with-hummus-beetroot.jpg,Điều đầu tiên là nhà hàng rất đẹp. Chúng tôi đến đây với vài người bạn. Đồ ăn rất ngon và không gian làm ta cảm thấy ấm ápThêm,#197 trên 3.735 nhà hàng ở Thành phố Hồ Chí Minh,https://www.tripadvisor.com.vn/Restaurant_Review-g293925-d5602770-Reviews-Lubu_Restaurant-Ho_Chi_Minh_City.html,Food,"Nhà Hàng Lubu 97b Thảo Điền, Phường Thảo Điền Quận 2, Thành phố Hồ Chí Minh 70000 Việt Nam",https://maps.app.goo.gl/bCKTtZQozExeZXQB7
Nhà Hàng Chay Phương Mai,"86F Võ Thị Sáu Phường Tân Định, Quận 1, Thành phố Hồ Chí Minh 700000 Việt Nam","107,783,841","1,066,826,105",https://media-cdn.tripadvisor.com/media/photo-s/10/83/b7/35/phuong-mai-chay-quan.jpg,"Đồ ăn rất ngon, mấy bạn phục vụ dễ thương, ngồi chờ lấy món mà tưởng như ở rừng, tiếng thác nước chảy quyện cùng tiếng chim hót.",#198 trên 3.735 nhà hàng ở Thành phố Hồ Chí Minh,https://www.tripadvisor.com.vn/Restaurant_Review-g293925-d4037428-Reviews-Phuong_Mai_Vegetarian_Restaurant-Ho_Chi_Minh_City.html,Food,"Nhà Hàng Chay Phương Mai 86F Võ Thị Sáu Phường Tân Định, Quận 1, Thành phố Hồ Chí Minh 700000 Việt Nam",https://maps.app.goo.gl/3MxBtFjaxkw4tGS47
Rice Terrace Restaurant – Authentic Vietnamese Cuisine,"43 Co Giang street Chez Mimosa Corner , district 1, Thành phố Hồ Chí Minh 700000 Việt Nam","10,781,971","106,693,081",https://media-cdn.tripadvisor.com/media/photo-s/14/2e/3f/cd/romantic-panorama-view.jpg,Nơi bạn có thể thưởng thức các món ăn đặc trưng 3 miền Việt Nam và ngắm khung cảnh tuyệt vời của Sài Gon về đêm!,#200 trên 3.735 nhà hàng ở Thành phố Hồ Chí Minh,https://www.tripadvisor.com.vn/Restaurant_Review-g293925-d13275946-Reviews-Rice_Terrace_Restaurant_Authentic_Vietnamese_Cuisine-Ho_Chi_Minh_City.html,Food,"Rice Terrace Restaurant – Authentic Vietnamese Cuisine 43 Co Giang street Chez Mimosa Corner , district 1, Thành phố Hồ Chí Minh 700000 Việt Nam",
Dong Pho,"57 Ho Xuan Huong District 3, Thành phố Hồ Chí Minh 70000 Việt Nam","107,764,625","1,066,875,429",https://media-cdn.tripadvisor.com/media/photo-s/0e/fd/32/69/photo1jpg.jpg,"Hôm nay mình có lại đây dùng kem và chè tại nhà hàng này Về nhân viên :(ở khu vực món chè) thiếu trách nhiệm,không chuyên nghiệp,mình đứng đợi gần 10p KHÔNG một nhân viên nào lại nhận oder của mình mặc dù tất cả...Thêm",#201 trên 3.735 nhà hàng ở Thành phố Hồ Chí Minh,https://www.tripadvisor.com.vn/Restaurant_Review-g293925-d3330826-Reviews-Dong_Pho-Ho_Chi_Minh_City.html,Food,"Dong Pho 57 Ho Xuan Huong District 3, Thành phố Hồ Chí Minh 70000 Việt Nam",https://maps.app.goo.gl/skFNbo9AscjUYY8h6
Yu Chu,"Corner of Hai Ba Trung St & Le Duan Blvd, Ben Nghe Ward, District 1 Intercontinental Saigon, 1st Floor, Thành phố Hồ Chí Minh 70000 Việt Nam","10,781,971","106,693,081",https://media-cdn.tripadvisor.com/media/photo-s/29/73/b3/7f/new-all-you-can-eat-menu.jpg,"Một nhà hàng Hoa 5 sao ở SG mà mình thích nhất, từ đồ ăn đến nhân viên phục vụ không có gì để chê, không gian yên tĩnh còn có phòng riêng rất thoải mái cho gia đìnhThêm",#202 trên 3.735 nhà hàng ở Thành phố Hồ Chí Minh,https://www.tripadvisor.com.vn/Restaurant_Review-g293925-d3640337-Reviews-Yu_Chu-Ho_Chi_Minh_City.html,Food,"Yu Chu Corner of Hai Ba Trung St & Le Duan Blvd, Ben Nghe Ward, District 1 Intercontinental Saigon, 1st Floor, Thành phố Hồ Chí Minh 70000 Việt Nam",
Ngon Restaurant,"195 Nguyen Van Huong District 2, Thành phố Hồ Chí Minh 7000 Việt Nam","108,083,364","1,067,332,077",https://media-cdn.tripadvisor.com/media/photo-s/15/f9/85/a0/20190105-140541-largejpg.jpg,"Món đa dạng, vị ổn, ăn được, giá hơi cao, không gian đẹp, phù hợp cho khách du lịch và đoàn khách, nhưng để nhớ tới món ăn thì ... có vẻ chưa.",#199 trên 3.735 nhà hàng ở Thành phố Hồ Chí Minh,https://www.tripadvisor.com.vn/Restaurant_Review-g293925-d1577234-Reviews-Ngon_Restaurant-Ho_Chi_Minh_City.html,Food,"Ngon Restaurant 195 Nguyen Van Huong District 2, Thành phố Hồ Chí Minh 7000 Việt Nam",
SHOKU,"22 Ngo Van Nam Bến Nghé, Quận 1, Thành phố Hồ Chí Minh 70000 Việt Nam","107,813,671","106,705,959",https://media-cdn.tripadvisor.com/media/photo-s/2a/37/ef/82/caption.jpg,"Đã ghé quán và cảm thấy rất thích quán. Đồ ăn cũng rất ngon, hợp với khẩu vị của mình. Hai bạn nhân viên Nhung và Khang rất dễ thương. Phục vụ tận tình, mình rất thích điều này. Và sẽ ghé lại quán sớm",#191 trên 3.735 nhà hàng ở Thành phố Hồ Chí Minh,https://www.tripadvisor.com.vn/Restaurant_Review-g293925-d25449348-Reviews-SHOKU-Ho_Chi_Minh_City.html,Food,"SHOKU 22 Ngo Van Nam Bến Nghé, Quận 1, Thành phố Hồ Chí Minh 70000 Việt Nam",https://maps.app.goo.gl/9vkQPVQzYw9bKVtH9
Liquid Sky Bar,"8-15 Tôn Đức Thắng, Quận 1 Renaissance Riverside Hotel Saigon, Thành phố Hồ Chí Minh 70000 Việt Nam","1,077,428,745","1,067,062,394,804,440",https://media-cdn.tripadvisor.com/media/photo-s/29/9d/1a/c2/view.jpg,"Rất hài lòng với hai bạn nhân viên Sơn và Vân. Đã rất thân thiện, nhiệt tình, lễ độ và tính ý nhanh nhạy nắm bắt được điều làm khách hàng vui lòng. Sẽ quay lại đây để tận hưởng khung gian đẹp, thư giãn...Thêm",#203 trên 3.735 nhà hàng ở Thành phố Hồ Chí Minh,https://www.tripadvisor.com.vn/Restaurant_Review-g293925-d8685793-Reviews-Liquid_Sky_Bar-Ho_Chi_Minh_City.html,Food,"Liquid Sky Bar 8-15 Tôn Đức Thắng, Quận 1 Renaissance Riverside Hotel Saigon, Thành phố Hồ Chí Minh 70000 Việt Nam",https://maps.app.goo.gl/axFVZGJXt21rMQP49
MZ Restaurant,"56 Bui Thi Xuan Ben Thanh Ward, Thành phố Hồ Chí Minh 70000 Việt Nam","107,727,178","1,066,911,514",https://media-cdn.tripadvisor.com/media/photo-s/05/cc/d1/1e/mz-coffee-restaurant.jpg,"Mặc dù thực phẩm không tệ chính xác, nhưng nó khá nhạt nhẽo. Bia tươi có vị như nước và bít tết rất dai. Quá đắt và có một triệu lựa chọn thực phẩm tốt hơn ở TP HCM.",#204 trên 3.735 nhà hàng ở Thành phố Hồ Chí Minh,https://www.tripadvisor.com.vn/Restaurant_Review-g293925-d1929659-Reviews-MZ_Restaurant-Ho_Chi_Minh_City.html,Food,"MZ Restaurant 56 Bui Thi Xuan Ben Thanh Ward, Thành phố Hồ Chí Minh 70000 Việt Nam",
2G Hub,"159 Nguyễn Du Phường Bến Thành, Quận 1, Thành phố Hồ Chí Minh 700000 Việt Nam","107,741,413","1,066,952,278",https://media-cdn.tripadvisor.com/media/photo-s/11/f7/ae/94/2g-hub-nguyen-du.jpg,"Lâu rồi không dùng món bánh mì gà nên rủ chị bạn trong công ty order Grab giao qua. Bánh mì gà vẫn ngon như ngày nào, mình rất thích cái sốt trong bánh mì gà, gà giòn, đậm vị. Yaua cam uống đẹp da.",#206 trên 3.735 nhà hàng ở Thành phố Hồ Chí Minh,https://www.tripadvisor.com.vn/Restaurant_Review-g293925-d13442735-Reviews-2G_Hub-Ho_Chi_Minh_City.html,Food,"2G Hub 159 Nguyễn Du Phường Bến Thành, Quận 1, Thành phố Hồ Chí Minh 700000 Việt Nam",
THE LITTLE DOOR,"62 Truong Quyen Ward Vo Thi Sau , District 3, Thành phố Hồ Chí Minh 700000 Việt Nam","10,781,971","106,693,081",https://media-cdn.tripadvisor.com/media/photo-s/28/78/4c/a0/get-ready-for-a-delicious.jpg,"Không gian đẹp, sang, giá tốt.. rất thích hợp những buổi hẹn hò. Lần đầu đến quán, rất ấn tượng, ngồi gần bàn khách tèo chuyện bằng tiếng Pháp nghe rất thích.",#207 trên 3.735 nhà hàng ở Thành phố Hồ Chí Minh,https://www.tripadvisor.com.vn/Restaurant_Review-g293925-d15190124-Reviews-The_Little_Door-Ho_Chi_Minh_City.html,Food,"THE LITTLE DOOR 62 Truong Quyen Ward Vo Thi Sau , District 3, Thành phố Hồ Chí Minh 700000 Việt Nam",https://maps.app.goo.gl/1jDdAF6RUa4njf5G9
Barbecue Garden Restaurant,"96B Le Thanh Ton Phường Bến Thành, Quận 1, Thành phố Hồ Chí Minh 700000 Việt Nam","107,714,292","1,066,949,809",https://media-cdn.tripadvisor.com/media/photo-p/1c/56/1e/46/combo.jpg,Nhà hàng để chạy trốn. Quảng cáo sai khi so sánh thực đơn và hình ảnh của các món ăn được cung cấp trên vỉa hè hoặc tại bàn và những gì thực sự được phục vụ cho bạn. Các phần ăn cực kỳ nhỏ:...Thêm,#208 trên 3.735 nhà hàng ở Thành phố Hồ Chí Minh,https://www.tripadvisor.com.vn/Restaurant_Review-g293925-d1136051-Reviews-Barbecue_Garden_Restaurant-Ho_Chi_Minh_City.html,Food,"Barbecue Garden Restaurant 96B Le Thanh Ton Phường Bến Thành, Quận 1, Thành phố Hồ Chí Minh 700000 Việt Nam",
Oriental Pearl Restaurant,"720A Điện Biên Phủ Tầng 66, Vinpearl Landmark 81, Autograph Collection, Thành phố Hồ Chí Minh 700000 Việt Nam","1,079,483,345","10,672,172,913,787,200",https://media-cdn.tripadvisor.com/media/photo-s/29/78/30/4e/section-a-of-oriental.jpg,Lần đầu trải nghiệm và hưởng thức vị phở bò thật tuyệt vời xứng đáng với giá hiện tại. Em xin gửi lời cảm ơn đến chị QUINCY và các anh chị nhân viên khác đã rất nhiệt tình đón tiếp và hỗ trợ gia...Thêm,#205 trên 3.735 nhà hàng ở Thành phố Hồ Chí Minh,https://www.tripadvisor.com.vn/Restaurant_Review-g293925-d25220822-Reviews-Oriental_Pearl_Restaurant-Ho_Chi_Minh_City.html,Food,"Oriental Pearl Restaurant 720A Điện Biên Phủ Tầng 66, Vinpearl Landmark 81, Autograph Collection, Thành phố Hồ Chí Minh 700000 Việt Nam",https://maps.app.goo.gl/cg3nRJLc6hfZHdjV9
Tenku - Japanese Modern Kaiseki & Bar,"720A Điện Biên Phủ Tòa Nhà Landmark 81, Thành phố Hồ Chí Minh Việt Nam","1,079,483,345","10,672,172,913,787,200",https://media-cdn.tripadvisor.com/media/photo-p/29/53/1b/c5/ngay-gi-a-long-sai-gon.jpg,"Hết sức hài lòng. Không gian đẹp, ngắm hoàng hôn đúng chuẩn. Khá đáng yêu cho một bữa tối lãng mạn. Nằm ở tầng 67 view cao tầng ngắm xuống thành phố về đêm là trải nghiệm tuyệt vời",#2.196 trên 3.735 nhà hàng ở Thành phố Hồ Chí Minh,https://www.tripadvisor.com.vn/Restaurant_Review-g293925-d25439973-Reviews-Tenku_Japanese_Modern_Kaiseki_Bar-Ho_Chi_Minh_City.html,Food,"Tenku - Japanese Modern Kaiseki & Bar 720A Điện Biên Phủ Tòa Nhà Landmark 81, Thành phố Hồ Chí Minh Việt Nam",https://maps.app.goo.gl/tj1eG51Y4Ro1HwHF6
Wrap & Roll,"111 Nguyễn Huệ, Q.1 Ben Nghe Ward, District 1, HCMC, Thành phố Hồ Chí Minh 70000 Việt Nam","10,771,964","106,706,195",https://media-cdn.tripadvisor.com/media/photo-s/08/d4/8a/96/wrap-roll.jpg,"Thư giãn, như không đông đúc, ngon như tự làm, vừa đúng cỡ bữa ăn, giá cả phải chăng, sạc cho di động, WiFi. Khá sạch sẽ. Bạn cần gì nữa?",#211 trên 3.735 nhà hàng ở Thành phố Hồ Chí Minh,https://www.tripadvisor.com.vn/Restaurant_Review-g293925-d1210619-Reviews-Wrap_Roll-Ho_Chi_Minh_City.html,Food,"Wrap & Roll 111 Nguyễn Huệ, Q.1 Ben Nghe Ward, District 1, HCMC, Thành phố Hồ Chí Minh 70000 Việt Nam",
"Hum, Garden & Restaurant","32 đường số 10 Phường Thảo Điền, Quận 2, Thành phố Hồ Chí Minh Việt Nam","108,044,305","1,067,459,147",https://media-cdn.tripadvisor.com/media/photo-s/23/8f/bc/da/hum-garden.jpg,"Chiều hôm nay mình và team bận chạy deadline nên đến quán để dùng cafe và họp team, về phần không gian bày trí và không khí ở Hum đều thật sự không thể chê vào đâu được. Đặc biệt là tụi mình rất ấn...Thêm",#212 trên 3.735 nhà hàng ở Thành phố Hồ Chí Minh,https://www.tripadvisor.com.vn/Restaurant_Review-g293925-d12711227-Reviews-Hum_Garden_Restaurant-Ho_Chi_Minh_City.html,Food,"Hum, Garden & Restaurant 32 đường số 10 Phường Thảo Điền, Quận 2, Thành phố Hồ Chí Minh Việt Nam",https://maps.app.goo.gl/bfXfdADNwZ7cwXu76
Mekong Merchant,"23 Thao Dien District 2, Thành phố Hồ Chí Minh Việt Nam","108,078,927","1,067,250,008",https://media-cdn.tripadvisor.com/media/photo-p/10/41/0a/c0/photo2jpg.jpg,"quán không quá lớn nhưng có nhiều khu khác nhau, có phòng ăn riêng, không gian quán rất đẹp, trang trí ấm cúng, bàn ngoài trời thoáng đãng, đồ ăn ngon, nhưng nêm ít muối, cocktail hơi nhạt vị rượu, nhân viên thân thiện, nhã...Thêm",#213 trên 3.735 nhà hàng ở Thành phố Hồ Chí Minh,https://www.tripadvisor.com.vn/Restaurant_Review-g293925-d2168691-Reviews-Mekong_Merchant-Ho_Chi_Minh_City.html,Food,"Mekong Merchant 23 Thao Dien District 2, Thành phố Hồ Chí Minh Việt Nam",
OMG!,"15-17-19 Nguyễn An Ninh, Quận 1, Thành phố Hồ Chí Minh 70000 Việt Nam","107,715,056","1,066,964,406",https://media-cdn.tripadvisor.com/media/photo-s/15/4d/d9/77/omg.jpg,Biết quán đã khá lâu nhưng hôm nay mới có dịp ghé thử . View trên cao nên cũng tạm ổn . Nhạc thì Mở nhạc youtube quá dở không phù hợp với không khí quán bar . Đồ uống bình thường mình order 2...Thêm,#214 trên 3.735 nhà hàng ở Thành phố Hồ Chí Minh,https://www.tripadvisor.com.vn/Restaurant_Review-g293925-d6103947-Reviews-OMG-Ho_Chi_Minh_City.html,Food,"OMG! 15-17-19 Nguyễn An Ninh, Quận 1, Thành phố Hồ Chí Minh 70000 Việt Nam",
Le Jardin,"31 D Thai Van Lung Dong Khoi Area, Thành phố Hồ Chí Minh Việt Nam","10,781,971","106,693,081",https://media-cdn.tripadvisor.com/media/photo-s/0f/8a/d3/ae/photo0jpg.jpg,"mình đến ăn 2 lần đều cảm thấy hài lòng. vì học tiếng pháp ở idecaf nên mình biết quán này luôn, rất nhiều khách nước ngoài ăn, thường xuyên kín bàn và fai đặt trước. Ngồi ở ngoài vườn rất êm dịu và sang...Thêm",#215 trên 3.735 nhà hàng ở Thành phố Hồ Chí Minh,https://www.tripadvisor.com.vn/Restaurant_Review-g293925-d1122187-Reviews-Le_Jardin-Ho_Chi_Minh_City.html,Food,"Le Jardin 31 D Thai Van Lung Dong Khoi Area, Thành phố Hồ Chí Minh Việt Nam",
Kasen,"101 Lê Thị Riêng Phường Bến Thành, Quận 1, TP. Hồ Chí Minh, Thành phố Hồ Chí Minh 700000 Việt Nam","107,712,008","1,066,908,271",https://media-cdn.tripadvisor.com/media/photo-s/1b/89/64/00/sashimi-omakase.jpg,"Mình đã đặt mua set sushi box của nhà hàng. Đồ ăn ngon, vừa miệng, phù hợp với bữa trưa và tặng quà sinh nhật! Đơn hàng của mình còn được freeship. Chắc chắn sẽ mua lần 2.",#216 trên 3.735 nhà hàng ở Thành phố Hồ Chí Minh,https://www.tripadvisor.com.vn/Restaurant_Review-g293925-d13873560-Reviews-Kasen_Omakase-Ho_Chi_Minh_City.html,Food,"Kasen 101 Lê Thị Riêng Phường Bến Thành, Quận 1, TP. Hồ Chí Minh, Thành phố Hồ Chí Minh 700000 Việt Nam",https://maps.app.goo.gl/TqiBYvAfMafPHin47
Cafe Anh,Thành phố Hồ Chí Minh Việt Nam,"107,763,897","1,067,011,391",https://media-cdn.tripadvisor.com/media/photo-s/07/05/a5/f6/tres-belle-decoration.jpg,"Quan nằm trên lầu, đi vào hẻm nhỏ, nhưng rất thú vị. Từ ban công nhìn ra chợ Bên thành thấy sự tấp nập, tuy nhiên bên trong quán lại rất yên tĩnh và lãng mạn. Đồ uống phong phú, ngon và giá phải chăng.",#217 trên 3.735 nhà hàng ở Thành phố Hồ Chí Minh,https://www.tripadvisor.com.vn/Restaurant_Review-g293925-d4441873-Reviews-Cafe_Anh-Ho_Chi_Minh_City.html,Food,Cafe Anh Thành phố Hồ Chí Minh Việt Nam,
ANH TUKK,"74/7 Hai Ba Trung Street, District 1, Thành phố Hồ Chí Minh 700000 Việt Nam","107,916,153","1,066,872,091",https://media-cdn.tripadvisor.com/media/photo-s/1b/eb/b9/e8/external-space.jpg,"Pad Thái và Soup Tomyum là 2 món chắc chắn bạn không nên bỏ qua, ngoài ra các món khác cũng đều chuẩn vị Thái và rất vừa miệng. Service tốt. Thêm một điểm cộng là quán có không gian rất đẹp. Đây chắc chắn...Thêm",#218 trên 3.735 nhà hàng ở Thành phố Hồ Chí Minh,https://www.tripadvisor.com.vn/Restaurant_Review-g293925-d9597140-Reviews-ANH_TUKK-Ho_Chi_Minh_City.html,Food,"ANH TUKK 74/7 Hai Ba Trung Street, District 1, Thành phố Hồ Chí Minh 700000 Việt Nam",https://maps.app.goo.gl/v7WwU9WJUnaWecyc7
Hoi An Sense - Central Vietnamese Cuisine,"12 Phan Kế Bính Tầng thượng, Thành phố Hồ Chí Minh 700000 Việt Nam","10,781,971","106,693,081",https://media-cdn.tripadvisor.com/media/photo-s/0b/8d/7d/87/hoi-an-restaurant.jpg,"Đồ ăn ngon, phục vụ hơi lâu xíu. Nhà hàng ở chỗ hơi khó bắt taxi. Nhưng món thì ngon, mỗi tối có mấy chị đẹp lên múa và chơi nhạc cụ dân tộc rất hay!Thêm",#219 trên 3.735 nhà hàng ở Thành phố Hồ Chí Minh,https://www.tripadvisor.com.vn/Restaurant_Review-g293925-d810797-Reviews-Hoi_An_Sense_Central_Vietnamese_Cuisine-Ho_Chi_Minh_City.html,Food,"Hoi An Sense - Central Vietnamese Cuisine 12 Phan Kế Bính Tầng thượng, Thành phố Hồ Chí Minh 700000 Việt Nam",https://maps.app.goo.gl/PEgCNdZ7gnGaC1q28
SH Garden,"26 Dong Khoi, Thành phố Hồ Chí Minh Việt Nam","107,760,265","1,067,031,172",https://media-cdn.tripadvisor.com/media/photo-p/15/eb/76/c2/photo6jpg.jpg,Nhà hàng ở tầng một này có một sự rung cảm tuyệt vời và thức ăn ngon. Nó là một nơi hoàn hảo để nạp năng lượng và hạ nhiệt. Có một làn gió đáng yêu thổi qua những cánh cửa mở rộng và nơi...Thêm,#220 trên 3.735 nhà hàng ở Thành phố Hồ Chí Minh,https://www.tripadvisor.com.vn/Restaurant_Review-g293925-d13089903-Reviews-SH_Garden-Ho_Chi_Minh_City.html,Food,"SH Garden 26 Dong Khoi, Thành phố Hồ Chí Minh Việt Nam",https://maps.app.goo.gl/VtnGijm7twQBtEGM9
Nhà hàng cà phê MORICO,"30 Lê Lợi P. Bến Nghé, Q.1, Thành phố Hồ Chí Minh 70000 Việt Nam","107,761,655","1,067,025,188",https://media-cdn.tripadvisor.com/media/photo-p/1b/4a/14/93/photo5jpg.jpg,Muốn ăn món Nhật là mình cứ nhớ đến chỗ này. Giá hơi cao nhưng chất lượng tương xứng. Có cả món mặn và ngọt. Mà mình thấy món ngọt vẫn là thế mạnh hơn. Matcha và houjicha ngon lắm nên thử nha. Nhân viên...Thêm,#221 trên 3.735 nhà hàng ở Thành phố Hồ Chí Minh,https://www.tripadvisor.com.vn/Restaurant_Review-g293925-d3589029-Reviews-MORICO_Modern_Japanese_Restaurant_Cafe-Ho_Chi_Minh_City.html,Food,"Nhà hàng cà phê MORICO 30 Lê Lợi P. Bến Nghé, Q.1, Thành phố Hồ Chí Minh 70000 Việt Nam",https://maps.app.goo.gl/J1YUxA4KFqb9B9BR7
MAD House,"6/1/2 Nguyễn Ư Dĩ, Quận 2, Thành phố Hồ Chí Minh 70000 Việt Nam","10,805,094","106,662,283",https://media-cdn.tripadvisor.com/media/photo-s/0d/d8/f6/ec/photo0jpg.jpg,"Quán được nằm trong khu biệt thự yên tĩnh. Tìm đường vào quán hơi khó một tí, nhưng bù lại đồ ăn rất tuyệt, đặc biệt món steak.",#222 trên 3.735 nhà hàng ở Thành phố Hồ Chí Minh,https://www.tripadvisor.com.vn/Restaurant_Review-g293925-d7776991-Reviews-MAD_House-Ho_Chi_Minh_City.html,Food,"MAD House 6/1/2 Nguyễn Ư Dĩ, Quận 2, Thành phố Hồ Chí Minh 70000 Việt Nam",https://maps.app.goo.gl/FvT9kyp6obkNBHim7
nhà hàng Ấn Độ,"23 Đ. Tôn Đức Thắng Thành phố Hồ Chí Minh, Thành phố Hồ Chí Minh 700000 Việt Nam","10,781,971","106,693,081",https://media-cdn.tripadvisor.com/media/photo-s/28/68/7a/bf/makhan-bhog-indian-vegetarian.jpg,"Bữa trưa, Bữa tối, Bữa nửa buổi, Đồ uống",#210 trên 3.735 nhà hàng ở Thành phố Hồ Chí Minh,https://www.tripadvisor.com.vn/Restaurant_Review-g293925-d25245976-Reviews-Makhan_Bhog_Indian_Vegetarian_Vegan_Restaurant-Ho_Chi_Minh_City.html,Food,"nhà hàng Ấn Độ 23 Đ. Tôn Đức Thắng Thành phố Hồ Chí Minh, Thành phố Hồ Chí Minh 700000 Việt Nam",
Som Tum Thai - Saigon Centre,"65 Lê Lợi L5-18, Saigon Centre, Thành phố Hồ Chí Minh 70000 Việt Nam","107,736,479","1,067,009,196",https://media-cdn.tripadvisor.com/media/photo-s/19/84/3f/bf/som-tum-thai.jpg,Đồ ăn ngon. Nhân viên phục vụ nhiệt tình chu đáo. Nói chung rất là hài lòng với dịch vụ và đồ ăn. Đồ ăn rất xuất sắc luôn và không gian sạch sẽ.,#223 trên 3.735 nhà hàng ở Thành phố Hồ Chí Minh,https://www.tripadvisor.com.vn/Restaurant_Review-g293925-d18970750-Reviews-Som_Tum_Thai_Saigon_Centre-Ho_Chi_Minh_City.html,Food,"Som Tum Thai - Saigon Centre 65 Lê Lợi L5-18, Saigon Centre, Thành phố Hồ Chí Minh 70000 Việt Nam",https://maps.app.goo.gl/wPfRWLStxX48Bijt5
Steak Deli Steakontherock & Cafe,"6/1 Cách Mạng Tháng 8 Phường Bến Thành, Quận 1, Thành phố Hồ Chí Minh 700000 Việt Nam","107,731,679","1,066,901,876",https://media-cdn.tripadvisor.com/media/photo-s/12/96/17/e2/steak-deli-restaurant.jpg,"Đọc nhiều đánh giá tốt về nơi này về đá nóng ăn kèm với bít tết. Đến khoảng 8 giờ tối với một nhà hàng trống 70%, nhận ra lý do tại sao sau trải nghiệm bữa tối của tôi. Để bắt đầu, chúng tôi...Thêm",#224 trên 3.735 nhà hàng ở Thành phố Hồ Chí Minh,https://www.tripadvisor.com.vn/Restaurant_Review-g293925-d4552180-Reviews-Steak_Deli_Steakontherock_Cafe-Ho_Chi_Minh_City.html,Food,"Steak Deli Steakontherock & Cafe 6/1 Cách Mạng Tháng 8 Phường Bến Thành, Quận 1, Thành phố Hồ Chí Minh 700000 Việt Nam",
Quan Nem Restaurant,"15E Nguyễn Thị Minh Khai, Thành phố Hồ Chí Minh 70000 Việt Nam","107,736,933","1,066,894,014",https://media-cdn.tripadvisor.com/media/photo-s/07/48/13/02/caption.jpg,"Món ăn khá ok nhưng mình đến đây 2 lần liên tiếp đều thối tiền lộn hết, không cho khách hàng giữ hóa đơn tính tiền, rất không chuyên nghiệp về vấn đề thanh toán...mình đã thấy rất nhiều lần nhưng nhà hàng vẫn không...Thêm",#225 trên 3.735 nhà hàng ở Thành phố Hồ Chí Minh,https://www.tripadvisor.com.vn/Restaurant_Review-g293925-d6503569-Reviews-Quan_Nem_Restaurant-Ho_Chi_Minh_City.html,Food,"Quan Nem Restaurant 15E Nguyễn Thị Minh Khai, Thành phố Hồ Chí Minh 70000 Việt Nam",https://maps.app.goo.gl/PZMrpsM1EQq5vqT5A
ROS Yacht Club,"10B Tôn Đức Thắng Bến Bạch Đằng, Bến Nghé, Quận 1, Thành phố Hồ Chí Minh 700000 Việt Nam","10,781,971","106,693,081",https://media-cdn.tripadvisor.com/media/photo-s/19/ee/89/35/logo.jpg,"Nhà hàng viêu đẹp nhân viên phụ vụ tốt đồ ăn trang trí đẹp mà ngon tôi rất hài lòng ,hẹn lần sau có party sẽ quay lại, thanks you",#209 trên 3.735 nhà hàng ở Thành phố Hồ Chí Minh,https://www.tripadvisor.com.vn/Restaurant_Review-g293925-d18898225-Reviews-ROS_Yacht_Club-Ho_Chi_Minh_City.html,Food,"ROS Yacht Club 10B Tôn Đức Thắng Bến Bạch Đằng, Bến Nghé, Quận 1, Thành phố Hồ Chí Minh 700000 Việt Nam",https://maps.app.goo.gl/8PEyDjGMAXKcoL6A6
Nhà hàng Tippy's,"99 Đường Số 45, Thành phố Hồ Chí Minh 700000 Việt Nam","107,332,016","1,066,273,885",https://media-cdn.tripadvisor.com/media/photo-s/1a/05/ca/2c/quesadillas.jpg,"Rất khó để tìm được nhà hàng bán đồ ăn Mexico ngon đúng vị ở VN, nhưng tippy mexican food đúng là rất ngon, đặc biệt là món fish tacos <3 Vị trí ngay trung tâm rất dễ tìm, sẽ quay lại nếu có dịp",#227 trên 3.735 nhà hàng ở Thành phố Hồ Chí Minh,https://www.tripadvisor.com.vn/Restaurant_Review-g293925-d9859422-Reviews-Tippy_s_Mexican_Food_Saigon-Ho_Chi_Minh_City.html,Food,"Nhà hàng Tippy's 99 Đường Số 45, Thành phố Hồ Chí Minh 700000 Việt Nam",https://maps.app.goo.gl/vtdigHo63xrEySnm7
