Title,Address,Lat,Lng,Img_URL,Description,Rank_of_province,Link,Type,PlaceName,GoogleMapsURL
5 Senses,"Nikko Hotel, Ground Floor Valet Parking Available, Thành phố Hồ Chí Minh Việt Nam","210,333",105.85,https://media-cdn.tripadvisor.com/media/photo-s/27/a3/6e/3e/shrimps.jpg,"Mình đã có những trải nghiệm thú vị tại nhà hàng 5Senses , đồ ăn khá ngon và trình bày rất ấn tượng .Bạn nhân viên Quỳnh rất nhiệt tình và thân thiện. Bạn Quốc đã biểu diễn khá tốt màn múa teppan. Mình mong...Thêm",#365 trên 3.735 nhà hàng ở Thành phố Hồ Chí Minh,https://www.tripadvisor.com.vn/Restaurant_Review-g293925-d25209955-Reviews-5_Senses-Ho_Chi_Minh_City.html,Food,"5 Senses Nikko Hotel, Ground Floor Valet Parking Available, Thành phố Hồ Chí Minh Việt Nam",
Kabin,"8-15 Ton Duc Thang Street, District 1 Renaissance Riverside Hotel Saigon, Thành phố Hồ Chí Minh 70000 Việt Nam","1,077,428,745","1,067,062,394,804,440",https://media-cdn.tripadvisor.com/media/photo-f/0f/2e/86/48/the-elegant-restaurant.jpg,"Đồ ăn siêu siêu ngon mình ăn lần này lần 9,10 rồi ạaa nvien thì siêu nhiệt tình nha mn nhất là chị Phụng và chị Tú nice cực",#1 trên 3.735 nhà hàng ở Thành phố Hồ Chí Minh,https://www.tripadvisor.com.vn/Restaurant_Review-g293925-d3858605-Reviews-Kabin-Ho_Chi_Minh_City.html,Food,"Kabin 8-15 Ton Duc Thang Street, District 1 Renaissance Riverside Hotel Saigon, Thành phố Hồ Chí Minh 70000 Việt Nam",https://maps.app.goo.gl/nZg2WZ4pUczzrtZU9
Latest Recipe,"3C Đ. Tôn Đức Thắng Le Méridien Saigon, Mezzanine Floor, Thành phố Hồ Chí Minh 70000 Việt Nam","10,781,971","106,693,081",https://media-cdn.tripadvisor.com/media/photo-f/29/93/99/df/a-new-chic-sunday-brunch.jpg,Nhân viên Eddy Khanh phục vụ rất chu đáo và tư vấn món ăn cho khách rất nhiệt tình. Nhà hàng có món ăn rất ngon,#2 trên 3.735 nhà hàng ở Thành phố Hồ Chí Minh,https://www.tripadvisor.com.vn/Restaurant_Review-g293925-d8537757-Reviews-Latest_Recipe-Ho_Chi_Minh_City.html,Food,"Latest Recipe 3C Đ. Tôn Đức Thắng Le Méridien Saigon, Mezzanine Floor, Thành phố Hồ Chí Minh 70000 Việt Nam",https://maps.app.goo.gl/W6xX1Xr5q77bpcgL9
The Lounge - Sheraton Saigon Hotel & Towers,"80 Đông Du, Bến Nghé, Quận 1 Sheraton Saigon Hotel & Towers, Thành phố Hồ Chí Minh 70000 Việt Nam","107,761,032","1,067,047,032",https://media-cdn.tripadvisor.com/media/photo-s/19/39/15/75/the-lounge.jpg,Không gian yên tĩnh trang trí dễ thương hài hòa. Phục vụ nhẹ nhàng ân cần chu đáo có tính bao quát tốt. Thức ăn hợp khẩu vị trang trí bắt mắt hài hòaThêm,#3 trên 3.735 nhà hàng ở Thành phố Hồ Chí Minh,https://www.tripadvisor.com.vn/Restaurant_Review-g293925-d7057524-Reviews-The_Lounge-Ho_Chi_Minh_City.html,Food,"The Lounge - Sheraton Saigon Hotel & Towers 80 Đông Du, Bến Nghé, Quận 1 Sheraton Saigon Hotel & Towers, Thành phố Hồ Chí Minh 70000 Việt Nam",https://maps.app.goo.gl/vj6aPKKZxQgAYDQu6
Reflections Restaurant,"19-23 Công Trường Lam Sơn Tầng 3, Quận 1, Thành phố Hồ Chí Minh 848 Việt Nam","10,777,353","106,698,089",https://media-cdn.tripadvisor.com/media/photo-s/27/89/42/bc/fine-dining-in-saigon.jpg,"Món ngon, nhân viên tốt, nhiệt tình. Bạn phục vụ rất dễ thương. Không gian sang trọng ấm cúng, nhạc hayThêm",#4 trên 3.735 nhà hàng ở Thành phố Hồ Chí Minh,https://www.tripadvisor.com.vn/Restaurant_Review-g293925-d3354073-Reviews-Reflections_Restaurant-Ho_Chi_Minh_City.html,Food,"Reflections Restaurant 19-23 Công Trường Lam Sơn Tầng 3, Quận 1, Thành phố Hồ Chí Minh 848 Việt Nam",
Poke Saigon Ly Tu Trong,"42 bis Ly Tu Trong First Floor, Thành phố Hồ Chí Minh 70000 Việt Nam","10,772,787","1,066,954,284",https://media-cdn.tripadvisor.com/media/photo-s/12/4e/6b/96/our-salmon-poke-bowl.jpg,"Đồ ăn tươi ngon sạch sẽ, nhiểu lựa chọn không thoáng mát,nhân viên thân thiện chắc chắn sẽ quay lại lần nữa🥰",#5 trên 3.735 nhà hàng ở Thành phố Hồ Chí Minh,https://www.tripadvisor.com.vn/Restaurant_Review-g293925-d13307422-Reviews-Poke_Saigon_Ly_Tu_Trong-Ho_Chi_Minh_City.html,Food,"Poke Saigon Ly Tu Trong 42 bis Ly Tu Trong First Floor, Thành phố Hồ Chí Minh 70000 Việt Nam",https://maps.app.goo.gl/SfSpJNpDosZKPWfo7
Pasteur Street Brewing Company,"221 Hoàng Sa phường Tân Định, quận 1, Thành phố Hồ Chí Minh Việt Nam","107,953,938","1,066,911,526",https://media-cdn.tripadvisor.com/media/photo-s/26/60/7f/be/pasteur-street-hoang.jpg,"Kiểu Mỹ, Nhà hàng bán bia, Thịt nướng, Quán rượu, Kiểu Việt, Bản địa",,https://www.tripadvisor.com.vn/Restaurant_Review-g293925-d24998733-Reviews-Pasteur_Street_Brewing_Company-Ho_Chi_Minh_City.html,Food,"Pasteur Street Brewing Company 221 Hoàng Sa phường Tân Định, quận 1, Thành phố Hồ Chí Minh Việt Nam",https://maps.app.goo.gl/WSpeifgJjotwjLWv5
Cafe de l’Opera,"19-23 Công Trường Lam Sơn Caravelle Hotel, Quận 1, Thành phố Hồ Chí Minh 700000 Việt Nam","10,779,234","106,699,214",https://media-cdn.tripadvisor.com/media/photo-s/29/7c/cf/59/cafe-de-l-opera.jpg,"Thái độ phục vụ tốt, rất hài lòng, nhân viên dễ thương lắm. Đồ uống hợp khẩu vị mình, đồ ăn cũng ngon nữa 🥰Thêm",#6 trên 3.735 nhà hàng ở Thành phố Hồ Chí Minh,https://www.tripadvisor.com.vn/Restaurant_Review-g293925-d6601040-Reviews-Cafe_de_l_Opera-Ho_Chi_Minh_City.html,Food,"Cafe de l’Opera 19-23 Công Trường Lam Sơn Caravelle Hotel, Quận 1, Thành phố Hồ Chí Minh 700000 Việt Nam",
Việt Kitchen,"8-15 Tôn Đức Thắng Khách Sạn Renaissance Riverside Saigon, Quận 1, Thành phố Hồ Chí Minh 700000 Việt Nam","107,789,121","1,066,492,197",https://media-cdn.tripadvisor.com/media/photo-f/16/95/61/d9/dinner-seafood-buffet.jpg,"Đồ ăn ngon, đa dạng, cảnh đẹp, trang trí sang trọng, các bạn nhân viên phục vụ nhiệt tình, dễ thương, giá cả phù hợp.Thêm",#7 trên 3.735 nhà hàng ở Thành phố Hồ Chí Minh,https://www.tripadvisor.com.vn/Restaurant_Review-g293925-d11953280-Reviews-Viet_Kitchen-Ho_Chi_Minh_City.html,Food,"Việt Kitchen 8-15 Tôn Đức Thắng Khách Sạn Renaissance Riverside Saigon, Quận 1, Thành phố Hồ Chí Minh 700000 Việt Nam",https://maps.app.goo.gl/AvnMe2wUf8x2V2xc8
Nhà Hàng Saigon Café,"80 Đông Du, Phường Bến Nghé, Quận 1 Sheraton Saigon Hotel & Towers, Thành phố Hồ Chí Minh 70000 Việt Nam","107,761,032","1,067,047,032",https://media-cdn.tripadvisor.com/media/photo-s/19/38/f4/04/saigon-cafe.jpg,"Ngon tuyệt , nhân viên nhiệt tình dễ thương ! Muốn đến đây ăn hoài vì thực phẩm phong phú tươi ngon.Thêm",#9 trên 3.735 nhà hàng ở Thành phố Hồ Chí Minh,https://www.tripadvisor.com.vn/Restaurant_Review-g293925-d1742388-Reviews-Saigon_Cafe_Seafood_Buffet_Restaurant-Ho_Chi_Minh_City.html,Food,"Nhà Hàng Saigon Café 80 Đông Du, Phường Bến Nghé, Quận 1 Sheraton Saigon Hotel & Towers, Thành phố Hồ Chí Minh 70000 Việt Nam",https://maps.app.goo.gl/NnMC1jJw1UH4wvDF9
Twilight Sky Bar & Cloud Nine Restaurant,"180-188 Ly Tu Trong, Thành phố Hồ Chí Minh 700000 Việt Nam","10,772,787","1,066,954,284",https://media-cdn.tripadvisor.com/media/photo-s/29/66/36/cc/overview-twilight-cloud.jpg,"Đồ uống ngon, city view đẹp và phục vụ nhiệt tình từ Trúc Bùi. Nhờ có bạn mà trải nghiệm trên skybar thật thyệt vời. Mình sẽ quay lại",#8 trên 3.735 nhà hàng ở Thành phố Hồ Chí Minh,https://www.tripadvisor.com.vn/Restaurant_Review-g293925-d15046046-Reviews-Twilight_Sky_Bar_Cloud_Nine_Restaurant-Ho_Chi_Minh_City.html,Food,"Twilight Sky Bar & Cloud Nine Restaurant 180-188 Ly Tu Trong, Thành phố Hồ Chí Minh 700000 Việt Nam",
Banana Mama Rooftop & Kitchen,"102 Cống Quỳnh Quận 1, Thành phố Hồ Chí Minh 700000 Việt Nam","107,650,428","1,066,912,251",https://media-cdn.tripadvisor.com/media/photo-p/29/8f/33/6b/sunset-at-banana-mama.jpg,"Nhân viên vui vẻ , đồ uống ngonnn , view buổi chiều tuyệt đẹp nhá , mọi người có rảnh ghé đến quán thử nhé",#10 trên 3.735 nhà hàng ở Thành phố Hồ Chí Minh,https://www.tripadvisor.com.vn/Restaurant_Review-g293925-d17662928-Reviews-Banana_Mama_Rooftop_Kitchen-Ho_Chi_Minh_City.html,Food,"Banana Mama Rooftop & Kitchen 102 Cống Quỳnh Quận 1, Thành phố Hồ Chí Minh 700000 Việt Nam",https://maps.app.goo.gl/RafJovHFzQzPYni96
Moira Bar & Eatery,"204b/14 Nguyễn Văn Hưởng Thảo Điền, Quận 2, Thành phố Hồ Chí Minh 700000 Việt Nam","10,791,891","10,675,975",https://media-cdn.tripadvisor.com/media/photo-s/29/eb/44/e2/our-table.jpg,"Moira. Nên ghé qua khi ghé qua Thảo Điền Không gian quán thoáng mát, nhạc thì chill chill dễ nghe, khá hợp cho mấy bạn thích yên tĩnh, hôm đó đi 1 mình khá là thoải mái. Này mà đi hẹn hò là tuyệt vời...Thêm",#452 trên 3.735 nhà hàng ở Thành phố Hồ Chí Minh,https://www.tripadvisor.com.vn/Restaurant_Review-g293925-d26249851-Reviews-Moira_Bar_Eatery-Ho_Chi_Minh_City.html,Food,"Moira Bar & Eatery 204b/14 Nguyễn Văn Hưởng Thảo Điền, Quận 2, Thành phố Hồ Chí Minh 700000 Việt Nam",
Quán Poke Saigon - ĐÓNG CỬA,"42/25 Nguyễn Huệ Tầng 2, Thành phố Hồ Chí Minh Việt Nam","10,781,971","106,693,081",https://media-cdn.tripadvisor.com/media/photo-s/0e/63/2b/de/ahi-tuna-poke-and-fresh.jpg,"Mình và một người bạn có ghé quán ăn trưa. Món ăn ngon, tuyệt vời. Nhân việt phục vụ nhiệt tình lắm. Có nhiều options cho mọi người lựa chọn (salad, cơm sushi, cơm gạo lức). Rất đáng thử nhé mọi người",,https://www.tripadvisor.com.vn/Restaurant_Review-g293925-d12130500-Reviews-Poke_Saigon-Ho_Chi_Minh_City.html,Food,"Quán Poke Saigon - ĐÓNG CỬA 42/25 Nguyễn Huệ Tầng 2, Thành phố Hồ Chí Minh Việt Nam",
Buffet NINETEEN,"Ground Floor - 19 Lam Son Square, Dis 1 Caravelle Saigon, Thành phố Hồ Chí Minh 848 Việt Nam","19,813,442,350,000,000","10,577,055,205,435,100",https://media-cdn.tripadvisor.com/media/photo-s/27/59/40/33/nineteen-restaurant-buffet.jpg,"Phuc vu rất tốt, thức ăn dạo này ngon , hai sản tươi , chung tôi sẽ quay lại vào tuần tới , chung toi se gia hạn thẻ thành viên tiếpThêm",#11 trên 3.735 nhà hàng ở Thành phố Hồ Chí Minh,https://www.tripadvisor.com.vn/Restaurant_Review-g293925-d3400060-Reviews-Buffet_NINETEEN-Ho_Chi_Minh_City.html,Food,"Buffet NINETEEN Ground Floor - 19 Lam Son Square, Dis 1 Caravelle Saigon, Thành phố Hồ Chí Minh 848 Việt Nam",
Lưu Bar,"108 Phạm Viết Chánh Bình Thạnh, Thành phố Hồ Chí Minh 700000 Việt Nam","107,901,978","1,067,107,017",https://media-cdn.tripadvisor.com/media/photo-s/1d/1b/d5/b2/lu-u-bar-saigon-108-pham.jpg,"Nhân viên quá là dễ thương luôn. Rượu ngon, nhạc hay. Không có gì để chê hết, mọi người ghé quán chơi nhé.",#12 trên 3.735 nhà hàng ở Thành phố Hồ Chí Minh,https://www.tripadvisor.com.vn/Restaurant_Review-g293925-d19259771-Reviews-Luu_Bar-Ho_Chi_Minh_City.html,Food,"Lưu Bar 108 Phạm Viết Chánh Bình Thạnh, Thành phố Hồ Chí Minh 700000 Việt Nam",https://maps.app.goo.gl/4fhscyiyn7FvnSTM6
Làng Rau Sạch Củ Chi,"107 Tran Van Cham ,Phuoc Vinh An ,Cu Chi, Thành phố Hồ Chí Minh 84 Việt Nam","109,784,737","1,065,182,234",https://media-cdn.tripadvisor.com/media/photo-s/15/98/9a/54/great-varieties-of-food.jpg,Cảm ơn bạn đã chia sẻ cách trồng và sử dụng cây của bạn! Tôi đã học được một cái gì đó mới và nấm rất ngon!,#13 trên 3.735 nhà hàng ở Thành phố Hồ Chí Minh,https://www.tripadvisor.com.vn/Restaurant_Review-g293925-d4891113-Reviews-HCM_Villages_Restaurant-Ho_Chi_Minh_City.html,Food,"Làng Rau Sạch Củ Chi 107 Tran Van Cham ,Phuoc Vinh An ,Cu Chi, Thành phố Hồ Chí Minh 84 Việt Nam",
The Monkey Gallery DINING,"91 Mạc Thị Bưởi Lầu 3, Bến Nghé, Quận 1, Thành phố Hồ Chí Minh Việt Nam","107,801,495","1,067,032,527",https://media-cdn.tripadvisor.com/media/photo-s/28/2c/ce/99/season-of-the-heart.jpg,"Mình đã rất ấn tượng với những món ăn và đồ uống mình order tại nhà hàng, đồ ăn ngon rất hợp khẩu vị với mình, đồ uống mang màu sắc riêng, không gian quán tạo cho mình cảm giác thoải mái, mình đã ngồi...Thêm",#260 trên 3.735 nhà hàng ở Thành phố Hồ Chí Minh,https://www.tripadvisor.com.vn/Restaurant_Review-g293925-d18927790-Reviews-The_Monkey_Gallery_DINING-Ho_Chi_Minh_City.html,Food,"The Monkey Gallery DINING 91 Mạc Thị Bưởi Lầu 3, Bến Nghé, Quận 1, Thành phố Hồ Chí Minh Việt Nam",https://maps.app.goo.gl/2kVGw6AM2MudA4Je8
Nhà hàng Vua Cua,"30 Vũ Huy Tấn Phường 3, Thành phố Hồ Chí Minh 700000 Việt Nam","107,959,925","1,066,919,635",https://media-cdn.tripadvisor.com/media/photo-s/10/f3/ed/24/khong-gian-quan.jpg,"Uki ngon tuỵt đẹp, khi bồ dỗi thì dẫn đi ăn vua cua thì hết dỗi ngay , nhân viên phục vụ xinh xắn , ai cũng đúng gu mình",#21 trên 3.735 nhà hàng ở Thành phố Hồ Chí Minh,https://www.tripadvisor.com.vn/Restaurant_Review-g293925-d10758063-Reviews-King_Of_Crab-Ho_Chi_Minh_City.html,Food,"Nhà hàng Vua Cua 30 Vũ Huy Tấn Phường 3, Thành phố Hồ Chí Minh 700000 Việt Nam",https://maps.app.goo.gl/prmimc9XKLs9XDbdA
Home Saigon Restaurant,"185/28 Phạm Ngũ Lão Phường Phạm Ngũ Lão, Quận 1, Thành phố Hồ Chí Minh 700000 Việt Nam","107,683,511","1,066,924,109",https://media-cdn.tripadvisor.com/media/photo-p/1a/4a/9b/ed/logo-of-home-saigon-restaurant.jpg,"Khách vãng lai ghé ăn vào lúc giờ cao điểm.Phục vụ chạy bàn tới tấp.Thức ăn đa dạng ngon thực sự hấp dẫn.Không khí ấm cúng. Một nơi đáng để đến. Đánh giá 5 sao, phục vụ tốt Bill",#14 trên 3.735 nhà hàng ở Thành phố Hồ Chí Minh,https://www.tripadvisor.com.vn/Restaurant_Review-g293925-d19682185-Reviews-Home_Saigon_Restaurant-Ho_Chi_Minh_City.html,Food,"Home Saigon Restaurant 185/28 Phạm Ngũ Lão Phường Phạm Ngũ Lão, Quận 1, Thành phố Hồ Chí Minh 700000 Việt Nam",https://maps.app.goo.gl/ShpwQxSZyNaEi3ry5
Le Corto,"5D Nguyen Sieu Street, Thành phố Hồ Chí Minh = Việt Nam","107,777,314","1,067,045,057",https://media-cdn.tripadvisor.com/media/photo-s/14/e8/30/1e/truffle-soup-vge-from.jpg,"Phụ vụ thân thiện nhiệt tình dễ thương Nhân Phu đồ ăn cũng ngon, lần đầu tiên đến với nhà hàng. Thank you",#15 trên 3.735 nhà hàng ở Thành phố Hồ Chí Minh,https://www.tripadvisor.com.vn/Restaurant_Review-g293925-d9705561-Reviews-Le_Corto-Ho_Chi_Minh_City.html,Food,"Le Corto 5D Nguyen Sieu Street, Thành phố Hồ Chí Minh = Việt Nam",https://maps.app.goo.gl/vuwX1bvEpHL1aXMNA
Kebaby,"112 Pham Viet Chanh, Phuong 19, Binh Thanh, Thành phố Hồ Chí Minh 00000 Việt Nam","107,901,978","1,067,107,017",https://media-cdn.tripadvisor.com/media/photo-s/1b/a4/9d/1b/kebaby-doner.jpg,Mình tìm được quán kebab ngon nhức nách. Mình order phần dirty doner khá là bự. Thịt ướp rất thấm vị và nước sốt đỉnh của chóp. Mình đi theo 1 nhóm bạn và rất ưng ý với menu ở đây. Chất lượng phục vụ...Thêm,#16 trên 3.735 nhà hàng ở Thành phố Hồ Chí Minh,https://www.tripadvisor.com.vn/Restaurant_Review-g293925-d21167878-Reviews-Kebaby-Ho_Chi_Minh_City.html,Food,"Kebaby 112 Pham Viet Chanh, Phuong 19, Binh Thanh, Thành phố Hồ Chí Minh 00000 Việt Nam",https://maps.app.goo.gl/NP24RWFu4veyEqig6
The Indian House (Kitchen and Bar),"2nd Floor, 42 Nguyen Hue District 1, Thành phố Hồ Chí Minh 700000 Việt Nam","107,741,332","10,670,421,155,480,700",https://media-cdn.tripadvisor.com/media/photo-s/26/d5/55/84/the-indian-house-2nd.jpg,"Bữa sáng, Bữa trưa, Bữa tối, Bữa nửa buổi, Đêm muộn, Đồ uống",#17 trên 3.735 nhà hàng ở Thành phố Hồ Chí Minh,https://www.tripadvisor.com.vn/Restaurant_Review-g293925-d25132683-Reviews-The_Indian_House_Kitchen_and_Bar-Ho_Chi_Minh_City.html,Food,"The Indian House (Kitchen and Bar) 2nd Floor, 42 Nguyen Hue District 1, Thành phố Hồ Chí Minh 700000 Việt Nam",
BROS BBQ,"47 Nguyễn Thị Diệu, Phường 6, Quận 3, Thành phố Hồ Chí Minh 700902 Việt Nam","10,781,971","106,693,081",https://media-cdn.tripadvisor.com/media/photo-s/1c/32/f8/ff/bros-bbq.jpg,"Đồ ăn ngon, Như Bình phục vụ tốt, chu đáo. Không gian chill, đèn nhạc trang trí đẹp. Các món bò ngon và được nướng đúng",#678 trên 3.735 nhà hàng ở Thành phố Hồ Chí Minh,https://www.tripadvisor.com.vn/Restaurant_Review-g293925-d21338165-Reviews-BROS_BBQ-Ho_Chi_Minh_City.html,Food,"BROS BBQ 47 Nguyễn Thị Diệu, Phường 6, Quận 3, Thành phố Hồ Chí Minh 700902 Việt Nam",https://maps.app.goo.gl/iJsXk5gNoKCainiHA
Signature Restaurant,"Sheraton Saigon Hotel 88 Dong Khoi Street, District 1, Thành phố Hồ Chí Minh 700000 Việt Nam","10,775,848","106,703,994,708,063",https://media-cdn.tripadvisor.com/media/photo-s/19/42/ea/e6/level-23-signature-restaurant.jpg,"Thức ăn ngon và nhân viên phúc vụ nhiệt tình, chu đáo. Không gian nhà hàng tạo cảm giác ấm cúng và thoải mái.Thêm",#18 trên 3.735 nhà hàng ở Thành phố Hồ Chí Minh,https://www.tripadvisor.com.vn/Restaurant_Review-g293925-d1382250-Reviews-Signature_Restaurant-Ho_Chi_Minh_City.html,Food,"Signature Restaurant Sheraton Saigon Hotel 88 Dong Khoi Street, District 1, Thành phố Hồ Chí Minh 700000 Việt Nam",https://maps.app.goo.gl/7WnauiYgC1NQxtvG8
B3 Steakhouse & Craft Beer,"14 Nguyễn Huệ, Bến Nghé, Quận 1 Level 1, Thành phố Hồ Chí Minh Việt Nam","107,739,136","10,670,476,852,032,400",https://media-cdn.tripadvisor.com/media/photo-p/25/0a/f0/00/outdoor.jpg,"Lâu chỉ ăn món Việt, làm một tour đổi gió, lần này là steak :D Đồ ngon, thị mềm nhưng ngon và nguyên vị nên rất ngon. Ăn là cảm nhận được thịt được lựa tốt. Cách chế biến cũng ngon, dễ ăn. Một bữa...Thêm",#19 trên 3.735 nhà hàng ở Thành phố Hồ Chí Minh,https://www.tripadvisor.com.vn/Restaurant_Review-g293925-d10317597-Reviews-B3_Steakhouse_Craft_Beer-Ho_Chi_Minh_City.html,Food,"B3 Steakhouse & Craft Beer 14 Nguyễn Huệ, Bến Nghé, Quận 1 Level 1, Thành phố Hồ Chí Minh Việt Nam",https://maps.app.goo.gl/7JF6bSbEJiXeHDqd7
Hum - Healthy Veggies Delights,"32 - 34 Võ Văn Tần Phường 6, Quận 3, Thành phố Hồ Chí Minh 70000 Việt Nam","10,781,467","1,066,948,334",https://media-cdn.tripadvisor.com/media/photo-s/23/8f/bc/21/hum-cafe.jpg,"Mình có ấn tượng rất tốt với Hum Thảo Điền nên hôm nay quyết định trải nghiệm Hum Võ Văn Tần để có cái nhìn khách quan hơn. Thì, theo cá nhân mình, không gian ở Võ Văn Tần là một trải nghiệm rất khác...Thêm",#22 trên 3.735 nhà hàng ở Thành phố Hồ Chí Minh,https://www.tripadvisor.com.vn/Restaurant_Review-g293925-d3682545-Reviews-Hum_Healthy_Veggies_Delights-Ho_Chi_Minh_City.html,Food,"Hum - Healthy Veggies Delights 32 - 34 Võ Văn Tần Phường 6, Quận 3, Thành phố Hồ Chí Minh 70000 Việt Nam",
Baba's Kitchen,"274 Bùi Viện Phạm Ngũ Lão, Quận 1, Thành phố Hồ Chí Minh 700000 Việt Nam","107,667,355","1,066,924,554",https://media-cdn.tripadvisor.com/media/photo-s/17/b8/dd/c1/baba-s-kitchen.jpg,"Đồ ăn ngon, mùi vị đặc trưng ấn độ, nhiều món để lựa chọn. Phục vụ nhiêtn tình chu đáo. Mọi người ghé thăm để thưởng thức",#20 trên 3.735 nhà hàng ở Thành phố Hồ Chí Minh,https://www.tripadvisor.com.vn/Restaurant_Review-g293925-d2254119-Reviews-Baba_s_Kitchen-Ho_Chi_Minh_City.html,Food,"Baba's Kitchen 274 Bùi Viện Phạm Ngũ Lão, Quận 1, Thành phố Hồ Chí Minh 700000 Việt Nam",https://maps.app.goo.gl/jDuq7hDDXqoZticP7
The Posh Duck Kitchen,"Lô 9 Đường số 7 Quận 7, Tân Thuận Đông, Thành phố Hồ Chí Minh 700000 Việt Nam",10.75,"1,067,325",https://media-cdn.tripadvisor.com/media/photo-p/1c/40/a7/6c/reserve-your-table-this.jpg,"Một không gian hoàn toàn khác biệt, đáng để thử và đổi gió. Menu rất đa dạng và phong phú. Mình có dùng thử set lunch, giá rất hợp lý, ăn siêu no luôn. Đồ ăn tươi và ngon lắm, rất đáng đông tiền. Không...Thêm",#23 trên 3.735 nhà hàng ở Thành phố Hồ Chí Minh,https://www.tripadvisor.com.vn/Restaurant_Review-g293925-d12969004-Reviews-The_Posh_Duck_Kitchen-Ho_Chi_Minh_City.html,Food,"The Posh Duck Kitchen Lô 9 Đường số 7 Quận 7, Tân Thuận Đông, Thành phố Hồ Chí Minh 700000 Việt Nam",https://maps.app.goo.gl/85G46dnusJb9aQmS6
Bếp Mẹ ỉn,"136/9 Đường Lê Thánh Tôn Phường Bến Thành, Quận 1, Thành phố Hồ Chí Minh 700000 Việt Nam","107,738,278","1,066,980,609",https://media-cdn.tripadvisor.com/media/photo-s/29/db/99/dc/come-in-and-join-us-or.jpg,Hồi hôm bữa mình muốn ăn món Việt nên ghé vào hẻm để thưởng thức. Vì Nam Giao hết chỗ nên mình đã có trải nghiệm thử dịch vụ của Mẹ Ỉn. Nói chung là đồ ăn không được ngon lắm so với giá tiền....Thêm,#41 trên 3.735 nhà hàng ở Thành phố Hồ Chí Minh,https://www.tripadvisor.com.vn/Restaurant_Review-g293925-d10721705-Reviews-B_p_M_n-Ho_Chi_Minh_City.html,Food,"Bếp Mẹ ỉn 136/9 Đường Lê Thánh Tôn Phường Bến Thành, Quận 1, Thành phố Hồ Chí Minh 700000 Việt Nam",https://maps.app.goo.gl/ZqPLaaz2ptgiLMUU9
Nhà hàng Ấn Độ Natraj,"41 Bùi Thị Xuân, P. Bến Thành, Q.1 District 1, Thành phố Hồ Chí Minh 700000 Việt Nam","107,974,482","1,066,631,128",https://media-cdn.tripadvisor.com/media/photo-s/12/22/a2/6d/natraj-welcomes-you-to.jpg,"Gia đình đã ăn và ghé lại do thức ăn ngon và dễ lựa chọn. Nhất là món cà ri cừu ăn với bánh nan bơ tỏi, món rau củ cũng ngon và dễ ăn. Phù hợp với người Việt nam ănThêm",#24 trên 3.735 nhà hàng ở Thành phố Hồ Chí Minh,https://www.tripadvisor.com.vn/Restaurant_Review-g293925-d10060971-Reviews-Natraj_Indian_Cuisine_Restaurant-Ho_Chi_Minh_City.html,Food,"Nhà hàng Ấn Độ Natraj 41 Bùi Thị Xuân, P. Bến Thành, Q.1 District 1, Thành phố Hồ Chí Minh 700000 Việt Nam",https://maps.app.goo.gl/bH9Qeawtrrqyo3Zt7
Sushi Sun,"46 Nguyễn Cư Trinh Quận 1, Thành phố Hồ Chí Minh 70000 Việt Nam","107,630,751","1,066,863,012",https://media-cdn.tripadvisor.com/media/photo-p/1a/f3/5b/8c/photo0jpg.jpg,"Nhân viên nhiệt tình, quán đẹp ấm cúng, đồ ăn ngon nhé. Nhân viên nhiệt tình thân thiện, dễ thương !!",#25 trên 3.735 nhà hàng ở Thành phố Hồ Chí Minh,https://www.tripadvisor.com.vn/Restaurant_Review-g293925-d7793689-Reviews-Sushi_Sun-Ho_Chi_Minh_City.html,Food,"Sushi Sun 46 Nguyễn Cư Trinh Quận 1, Thành phố Hồ Chí Minh 70000 Việt Nam",https://maps.app.goo.gl/wLgKaqkMTELcZVCo6
B3 Wine Bar & Grill,"94 Xuân Thủy, Thảo Điền, Thành phố Hồ Chí Minh Việt Nam","108,032,546","1,067,319,954",https://media-cdn.tripadvisor.com/media/photo-o/22/e3/f9/5e/logo.jpg,"Đồ ăn làm rất ngon, steak ngon và vị đượm. Rượu nhập khầu cũng miễn chê. Không gian lãng mạn, sang trọng. Nhân viên tại đây rất thân thiện và nhiệt tình, giúp bạn có một trải nghiệm tuyệt vời.",#27 trên 3.735 nhà hàng ở Thành phố Hồ Chí Minh,https://www.tripadvisor.com.vn/Restaurant_Review-g293925-d23956041-Reviews-B3_Wine_Bar_Grill-Ho_Chi_Minh_City.html,Food,"B3 Wine Bar & Grill 94 Xuân Thủy, Thảo Điền, Thành phố Hồ Chí Minh Việt Nam",https://maps.app.goo.gl/MNfCUNwMCiZsr8918
Nhà Hàng Noir.,"178-180D Hai Bà Trưng Phường Đa Kao, Quận 1, Thành phố Hồ Chí Minh 700000 Việt Nam","10,781,971","106,693,081",https://media-cdn.tripadvisor.com/media/photo-p/1b/54/43/34/photo0jpg.jpg,Không gian quán bên ngoài khá tĩnh lặng. Phòng chờ đc trang trí rất ấm áp. Các bạn phục vụ rất nhanh nhẹn nhiệt tình. Bọn mình chon set menu west tổng cộng 11 món. Mỗi món là một chút đồ ăn nên bạn sẽ...Thêm,#26 trên 3.735 nhà hàng ở Thành phố Hồ Chí Minh,https://www.tripadvisor.com.vn/Restaurant_Review-g293925-d7157553-Reviews-Noir_Dining_In_The_Dark-Ho_Chi_Minh_City.html,Food,"Nhà Hàng Noir. 178-180D Hai Bà Trưng Phường Đa Kao, Quận 1, Thành phố Hồ Chí Minh 700000 Việt Nam",https://maps.app.goo.gl/cEPtmjr4Tkhke4xH9
Moo Beef Steak - Prime,"35-37 Ngô Đức Kế Phường Bến Nghé, Quận 1, Thành phố Hồ Chí Minh 700000 Việt Nam","10,777,353","106,698,089",https://media-cdn.tripadvisor.com/media/photo-s/19/66/b7/3f/beef-rossini.jpg,"Phù hợp gia đình và cặp đôi, không gian lãng mạn ấm cúng, ăn nhiều lần nhân viên thân thiện lịvh sự",#28 trên 3.735 nhà hàng ở Thành phố Hồ Chí Minh,https://www.tripadvisor.com.vn/Restaurant_Review-g293925-d12699961-Reviews-Moo_Beef_Steak_Prime-Ho_Chi_Minh_City.html,Food,"Moo Beef Steak - Prime 35-37 Ngô Đức Kế Phường Bến Nghé, Quận 1, Thành phố Hồ Chí Minh 700000 Việt Nam",https://maps.app.goo.gl/5CGFVoYZvYcT9Jh18
Elgin,"27 Mạc Đĩnh Chi, Đakao Quận 1, Thành phố Hồ Chí Minh Việt Nam","107,848,935","1,066,992,746",https://media-cdn.tripadvisor.com/media/photo-s/26/2c/31/44/kitchen-bar.jpg,"Đặt chỗ, Chỗ ngồi, Có bãi đỗ xe, Bãi đỗ xe tập trung miễn phí, Phục vụ đồ uống có cồn, Rượu và bia, Chấp nhận thẻ American Express, Chấp nhận thẻ Mastercard, Chấp nhận thẻ Visa, Thanh toán điện tử, Wifi miễn phí, Chấp nhận thẻ Discover, Chấp nhận thẻ tín dụng, Dịch vụ bàn, Nhà hàng không hút thuốc",#499 trên 3.735 nhà hàng ở Thành phố Hồ Chí Minh,https://www.tripadvisor.com.vn/Restaurant_Review-g293925-d24190498-Reviews-Elgin-Ho_Chi_Minh_City.html,Food,"Elgin 27 Mạc Đĩnh Chi, Đakao Quận 1, Thành phố Hồ Chí Minh Việt Nam",https://maps.app.goo.gl/DnJVw6S6Nr1dizAh9
Amigo Café,"104 Đ. Nguyễn Công Trứ Phường Nguyễn Thái Bình, Quận 1, Thành phố Hồ Chí Minh 712222 Việt Nam","107,672,511","1,066,997,734",https://media-cdn.tripadvisor.com/media/photo-s/29/4d/5f/95/latte-with-gold-24k.jpg,"Thật tuyệt vời cho ly cà phê, nhân viên nhiệt tình, thân thiện, thức uống phù hợp, nhưng cần có thêm nhiều món nữa",#1 trên 679 quán cà phê & trà ở Thành phố Hồ Chí Minh,https://www.tripadvisor.com.vn/Restaurant_Review-g293925-d20199402-Reviews-Amigo_Cafe-Ho_Chi_Minh_City.html,Food,"Amigo Café 104 Đ. Nguyễn Công Trứ Phường Nguyễn Thái Bình, Quận 1, Thành phố Hồ Chí Minh 712222 Việt Nam",https://maps.app.goo.gl/vo3YytT4geE2MJiw7
Banh Mi,"10 Lê Thị Riêng Ben Thanh Ward , District 1, Thành phố Hồ Chí Minh 700000 Việt Nam","107,712,008","1,066,908,271",https://media-cdn.tripadvisor.com/media/photo-s/28/35/57/ce/banh-mi-ngon.jpg,Bánh mì tuyệt vời với không gian nhỏ sạch đẹp và yên tĩnh ‘ tôi đã từng ăn rất nhiều loại bánh mì và nơi đây là ngon nhất tôi từng có Rất khuyến khích,#1 trên 63 tiệm bánh ở Thành phố Hồ Chí Minh,https://www.tripadvisor.com.vn/Restaurant_Review-g293925-d12731224-Reviews-Charm_Bakery-Ho_Chi_Minh_City.html,Food,"Banh Mi 10 Lê Thị Riêng Ben Thanh Ward , District 1, Thành phố Hồ Chí Minh 700000 Việt Nam",https://maps.app.goo.gl/ZsHakzqAPzjF2pmo6
Belgo Belgian Craft Beer Brewery - Ton That Thiep,"29 - 31 Ton That Thiep Street, Thành phố Hồ Chí Minh Việt Nam","10,773,196","1,067,020,888",https://media-cdn.tripadvisor.com/media/photo-s/29/3d/96/95/bar-corner.jpg,"Một nhà hàng đẹp nằm giữa trung tâm quận 1, không gian rộng rãi và khá đẹp, sang trọng. Giá cả đồ ăn hợp lý khi khẩu phần mỗi món khá nhiều, vị cũng rất ngon, hấp dẫn. Nhân viên take care khách hàng khá...Thêm",#465 trên 3.735 nhà hàng ở Thành phố Hồ Chí Minh,https://www.tripadvisor.com.vn/Restaurant_Review-g293925-d25794916-Reviews-Belgo_Belgian_Craft_Beer_Brewery_Ton_That_Thiep-Ho_Chi_Minh_City.html,Food,"Belgo Belgian Craft Beer Brewery - Ton That Thiep 29 - 31 Ton That Thiep Street, Thành phố Hồ Chí Minh Việt Nam",https://maps.app.goo.gl/S6u7TAZonkSLf18a9
Secret Garden 131 Calmette,"131 Calmette Phường Nguyễn Thái Bình, Quận 1, Thành phố Hồ Chí Minh 700000 Việt Nam","107,684,792","1,066,987,993",https://media-cdn.tripadvisor.com/media/photo-s/18/2c/e8/61/getlstd-property-photo.jpg,"Đồ ăn ngon, nhiều món để lựa, cả 3 miền đều có những món ngon ở đây. Không gian rộng và đẹp. Nhân viên ra món nhanh. Giá cả cũng rất hợp lý. Chắc chắn sẽ quay lại.",#31 trên 3.735 nhà hàng ở Thành phố Hồ Chí Minh,https://www.tripadvisor.com.vn/Restaurant_Review-g293925-d17704147-Reviews-Secret_Garden_131_Calmette-Ho_Chi_Minh_City.html,Food,"Secret Garden 131 Calmette 131 Calmette Phường Nguyễn Thái Bình, Quận 1, Thành phố Hồ Chí Minh 700000 Việt Nam",https://maps.app.goo.gl/H3kQeMN6qQwqM7u88
Dalcheeni HCMC,"2A Ngô Văn Năm Bến Nghé, Quận 1, Thành phố Hồ Chí Minh 710000 Việt Nam","107,813,671","106,705,959",https://media-cdn.tripadvisor.com/media/photo-s/1c/ad/ec/91/dalcheeni-hcm-2a-ngo.jpg,"Quán ăn ngon, không gian đẹp, quản lý nhiệt tình, vị trí dễ tìm. Nhà hàng ấm cúng, thích hợp đi ăn cùng bạn bè, gia đình",#33 trên 3.735 nhà hàng ở Thành phố Hồ Chí Minh,https://www.tripadvisor.com.vn/Restaurant_Review-g293925-d21272060-Reviews-Dalcheeni_HCMC-Ho_Chi_Minh_City.html,Food,"Dalcheeni HCMC 2A Ngô Văn Năm Bến Nghé, Quận 1, Thành phố Hồ Chí Minh 710000 Việt Nam",https://maps.app.goo.gl/2KSJdojbxwP9kLpN9
"Shamballa Vegetarian, Restaurant & Tea House","17-19 Trịnh Văn Cấn Phường Cầu Ông Lãnh, Quận 1, Thành phố Hồ Chí Minh 700000 Việt Nam","107,672,615","1,066,963,863",https://media-cdn.tripadvisor.com/media/photo-s/21/cd/f3/34/delicious-dishes.jpg,Ngày đầu năm mình và gia đình ghé qua Shamballa sau 1 ngày đi viếng thăm họ hàng. Shamballa là địa điểm quen thuộc của mình và gia đình mỗi Tết đến Xuân về. Tết nhà hàng trang trí rất đẹp và có thêm nhiều...Thêm,#30 trên 3.735 nhà hàng ở Thành phố Hồ Chí Minh,https://www.tripadvisor.com.vn/Restaurant_Review-g293925-d17122565-Reviews-Shamballa_Vegetarian_Restaurant_Tea_House-Ho_Chi_Minh_City.html,Food,"Shamballa Vegetarian, Restaurant & Tea House 17-19 Trịnh Văn Cấn Phường Cầu Ông Lãnh, Quận 1, Thành phố Hồ Chí Minh 700000 Việt Nam",https://maps.app.goo.gl/u6LDg2zgtZZGdQ3a9
Italiani's Pizza,"17 Hàn Thuyên, Thành phố Hồ Chí Minh Việt Nam","108,466,438","106,769,276",https://media-cdn.tripadvisor.com/media/photo-s/1a/f0/74/2c/meal-at-italiani-s.jpg,"Quán view công viên đường Hàn Thuyên, có chỗ đổ ô tô, chủ quán nice, mì Ý và Pizza rất ngon đúng chất Ý, free kem cho trẻ con Gia đình chủ nhật ra đây rất tuyệt",#29 trên 3.735 nhà hàng ở Thành phố Hồ Chí Minh,https://www.tripadvisor.com.vn/Restaurant_Review-g293925-d12926285-Reviews-Italiani_s_Pizza-Ho_Chi_Minh_City.html,Food,"Italiani's Pizza 17 Hàn Thuyên, Thành phố Hồ Chí Minh Việt Nam",https://maps.app.goo.gl/eZSGYkvUZ29FY5E97
Nắng Vietnamese Fusion Food,Thành phố Hồ Chí Minh 700000 Việt Nam,"10,781,971","106,693,081",https://media-cdn.tripadvisor.com/media/photo-s/1a/87/13/a5/vietnamese-cuisine.jpg,"Không gian quán thoải mái, nhân viên nhiệt tình chu đáo, món ăn ngon đa dạng hợp khẩu vị tuyệt vời ^^",#32 trên 3.735 nhà hàng ở Thành phố Hồ Chí Minh,https://www.tripadvisor.com.vn/Restaurant_Review-g293925-d16850048-Reviews-Hello_SaiGon_Vietnamese_Fusion_Food-Ho_Chi_Minh_City.html,Food,Nắng Vietnamese Fusion Food Thành phố Hồ Chí Minh 700000 Việt Nam,
BIG PIG Bar - BBQ - Beer,"84 Ngô Đức Kế Bến Nghé, Quận 1, Thành phố Hồ Chí Minh 700000 Việt Nam","10,772,319","106,704,366",https://media-cdn.tripadvisor.com/media/photo-s/27/9d/ec/36/bbq-good-to-share.jpg,"Giao hàng, Cửa hàng bán thức ăn mang về, Đặt chỗ, Ăn tối phòng riêng, Chỗ ngồi, Tivi, Phục vụ đồ uống có cồn, Quầy bar đầy đủ, Rượu và bia, Chấp nhận thẻ Mastercard, Chấp nhận thẻ Visa, Wifi miễn phí, Chấp nhận thẻ tín dụng, Dịch vụ bàn",#150 trên 3.735 nhà hàng ở Thành phố Hồ Chí Minh,https://www.tripadvisor.com.vn/Restaurant_Review-g293925-d25226949-Reviews-BIG_PIG_Bar_BBQ_Beer_84_Ngo_Duc_Ke_District_1-Ho_Chi_Minh_City.html,Food,"BIG PIG Bar - BBQ - Beer 84 Ngô Đức Kế Bến Nghé, Quận 1, Thành phố Hồ Chí Minh 700000 Việt Nam",https://maps.app.goo.gl/DmWVcCmZ9S5AiN8i6
Benaras Indian Bistro,"21B Đ. Tôn Đức Thắng Bến Nghé, Quận 1, Thành phố Hồ Chí Minh 70000 Việt Nam","107,821,258","1,067,067,234",https://media-cdn.tripadvisor.com/media/photo-s/28/4a/6a/83/new-benaras-bistro-21b.jpg,"Đây là một trãi nghiệm mới trong ẫm thực , tôi thích những món ăn Ấn , không gian ở đây ấm áp , phục vụ tốt , món ăn đa dạng .Thêm",#34 trên 3.735 nhà hàng ở Thành phố Hồ Chí Minh,https://www.tripadvisor.com.vn/Restaurant_Review-g293925-d14134956-Reviews-Benaras_Indian_Bistro-Ho_Chi_Minh_City.html,Food,"Benaras Indian Bistro 21B Đ. Tôn Đức Thắng Bến Nghé, Quận 1, Thành phố Hồ Chí Minh 70000 Việt Nam",https://maps.app.goo.gl/3QumFrM79EdmKbyN7
Marcel Gourmet Burger - Calmette,"115 Calmette Phường Nguyễn Thái Bình, Quận 1, Thành phố Hồ Chí Minh 700000 Việt Nam","107,684,792","1,066,987,993",https://media-cdn.tripadvisor.com/media/photo-s/23/00/44/40/marcel-gourmet-burger.jpg,chưa tìm đc 1 quán burger nào độc đáo và ngon thế này trong sài gòn. đồ ăn ngon và giá tiền cx phù hợp. khuyên mọi người nên thử combo le bamboovừa tiết kiệm vừa ngon và gọi nước lemonade maison để dễ tiêu...Thêm,#35 trên 3.735 nhà hàng ở Thành phố Hồ Chí Minh,https://www.tripadvisor.com.vn/Restaurant_Review-g293925-d12910177-Reviews-Marcel_Gourmet_Burger_Calmette-Ho_Chi_Minh_City.html,Food,"Marcel Gourmet Burger - Calmette 115 Calmette Phường Nguyễn Thái Bình, Quận 1, Thành phố Hồ Chí Minh 700000 Việt Nam",https://maps.app.goo.gl/xzRB2YV5EhgQXDqd6
Black Vinegar,"76 Le Lai 1st Floor, Thành phố Hồ Chí Minh 700000 Việt Nam","1,077,080,575","106,694,519,093,358",https://media-cdn.tripadvisor.com/media/photo-s/23/82/69/45/black-vinegar-cantonese.jpg,"Đây là lần đầu tiên tôi đến nhà hàng này. Đồ ăn ở đây rất là ngon, đậm hương vị trung hoa. Món Bánh củ năng áp chảo rất là tuyệt vời. Nhân viên rất nhiệt tình hỗ trợ, đặc biệt cảm ơn Ms Trúc,...Thêm",#36 trên 3.735 nhà hàng ở Thành phố Hồ Chí Minh,https://www.tripadvisor.com.vn/Restaurant_Review-g293925-d24066494-Reviews-Black_Vinegar-Ho_Chi_Minh_City.html,Food,"Black Vinegar 76 Le Lai 1st Floor, Thành phố Hồ Chí Minh 700000 Việt Nam",https://maps.app.goo.gl/a8y4KdSshk4GUv9j6
Cyclo Resto,"131 Nguyễn Du Phường Bến Thành, Quận , Thành phố, Thành phố Hồ Chí Minh 70000 Việt Nam","107,741,413","1,066,952,278",https://media-cdn.tripadvisor.com/media/photo-s/04/a7/62/83/cyclo-resto-company-limited.jpg,"Chúng tôi ghé quán ăn Việt truyền thống Cyclo Resto vào một buổi xế trưa ngày thường, trời đang mưa rả rích, vậy mà cũng có từng nhóm thực khách nước ngoài khoác áo mưa vào dùng bữa hay ngồi uống những ly nước ngọt,...Thêm",#37 trên 3.735 nhà hàng ở Thành phố Hồ Chí Minh,https://www.tripadvisor.com.vn/Restaurant_Review-g293925-d3983330-Reviews-Cyclo_Resto-Ho_Chi_Minh_City.html,Food,"Cyclo Resto 131 Nguyễn Du Phường Bến Thành, Quận , Thành phố, Thành phố Hồ Chí Minh 70000 Việt Nam",
Shanti Indian Cuisine,"279 Pham Ngu Lao Phường Phạm Ngũ Lão, Quận 1, Thành phố Hồ Chí Minh 700000 Việt Nam","107,683,511","1,066,924,109",https://media-cdn.tripadvisor.com/media/photo-s/1a/61/96/5f/img-20191224-183120-largejpg.jpg,"Đồ ăn ngon lắm các bạn! Nhân viên phục vụ lịch sự tận tình và lịch sự. Tôi đã dùng món Mutton Korma( dê nấu cà ri) và Veg Hot&Sour soup( súp chua cay) , châppati tawa( bánh chappati). Ngon lắm! Sẽ quay lại nữa!",#39 trên 3.735 nhà hàng ở Thành phố Hồ Chí Minh,https://www.tripadvisor.com.vn/Restaurant_Review-g293925-d15239535-Reviews-Shanti_Indian_Cuisine-Ho_Chi_Minh_City.html,Food,"Shanti Indian Cuisine 279 Pham Ngu Lao Phường Phạm Ngũ Lão, Quận 1, Thành phố Hồ Chí Minh 700000 Việt Nam",https://maps.app.goo.gl/4Ga1NUweTJaSHyaL6
La Poissonnerie,"51 Hai Bà Trưng - Bến Nghé, Thành phố Hồ Chí Minh 70000 Việt Nam","107,810,392","1,067,001,212",https://media-cdn.tripadvisor.com/media/photo-p/28/fb/e9/89/seafood-specialist-bringing.jpg,"Bữa trưa, Bữa tối, Bữa nửa buổi, Đồ uống",#786 trên 3.735 nhà hàng ở Thành phố Hồ Chí Minh,https://www.tripadvisor.com.vn/Restaurant_Review-g293925-d21298418-Reviews-La_Poissonnerie-Ho_Chi_Minh_City.html,Food,"La Poissonnerie 51 Hai Bà Trưng - Bến Nghé, Thành phố Hồ Chí Minh 70000 Việt Nam",https://maps.app.goo.gl/SzLiD81YQK3MeHNV9
Moo Beef Steak 109 Ly Tu Trong,"109 Lý Tự Trọng Phường Bến Thành, Quận 1, Thành phố Hồ Chí Minh 700000 Việt Nam","10,772,787","1,066,954,284",https://media-cdn.tripadvisor.com/media/photo-s/26/a6/fe/62/kick-off-the-new-week.jpg,"Món gan ngỗng ngon xức xắc , Ribeye cũng ngon quá đỗi , còn 1 suất cheese & cold cut nữa . Vì mình đói con mắt nên gọi phần Ribeye 300gr để rồi no cứng bụng luôn . Các bạn nhân viên phục vụ...Thêm",#38 trên 3.735 nhà hàng ở Thành phố Hồ Chí Minh,https://www.tripadvisor.com.vn/Restaurant_Review-g293925-d18206918-Reviews-Moo_Beef_Steak_109_Ly_Tu_Trong-Ho_Chi_Minh_City.html,Food,"Moo Beef Steak 109 Ly Tu Trong 109 Lý Tự Trọng Phường Bến Thành, Quận 1, Thành phố Hồ Chí Minh 700000 Việt Nam",https://maps.app.goo.gl/6H3Jsfnmd4iirtJQ9
Lai Restaurant,"92-94 Nam Kỳ Khởi Nghĩa Tầng 28 Sedona Suites, 28th Floor, Ward, Bến Nghé, Quận 1, Thành phố Hồ Chí Minh 70000 Việt Nam","10,826,714","106,762,325",https://media-cdn.tripadvisor.com/media/photo-s/15/c3/27/68/lai.jpg,"Phục vụ tốt đồ ăn ngon, ko gian đẹp thích hợp để đi ăn cùng gia đình. Có violin cuối tuần cho mọi người vừa ăn vừa thưởng thức hihi",#40 trên 3.735 nhà hàng ở Thành phố Hồ Chí Minh,https://www.tripadvisor.com.vn/Restaurant_Review-g293925-d15000626-Reviews-Lai_Restaurant-Ho_Chi_Minh_City.html,Food,"Lai Restaurant 92-94 Nam Kỳ Khởi Nghĩa Tầng 28 Sedona Suites, 28th Floor, Ward, Bến Nghé, Quận 1, Thành phố Hồ Chí Minh 70000 Việt Nam",https://maps.app.goo.gl/Rzp2uzDHUWCX2XmP8
"Hum Vegetarian, Lounge & Restaurant","34 Võ Văn Tần Phường 6, Quận 3, Thành phố Hồ Chí Minh 700000 Việt Nam","107,692,249","1,066,834,859",https://media-cdn.tripadvisor.com/media/photo-p/29/72/91/5b/hum-lounge.jpg,"Mình đánh giá 4* vì không gian đẹp, menu có nhiều món khá lạ tuy nhiên ko phải thuần chay vì dùng hành tỏi, trứng.... Nhân viên phục vụ lịch sự nhưng ko thân thiện, phải chờ hơi lâu khi khách đông. Giá đồ ăn...Thêm",#43 trên 3.735 nhà hàng ở Thành phố Hồ Chí Minh,https://www.tripadvisor.com.vn/Restaurant_Review-g293925-d5601881-Reviews-Hum_Lounge_Restaurant-Ho_Chi_Minh_City.html,Food,"Hum Vegetarian, Lounge & Restaurant 34 Võ Văn Tần Phường 6, Quận 3, Thành phố Hồ Chí Minh 700000 Việt Nam",https://maps.app.goo.gl/oX8TEtCq7UL14uVh6
Café Marcel,"28 Ngô Quang Huy, Thành phố Hồ Chí Minh 700000 Việt Nam","108,043,292","106,733,941",https://media-cdn.tripadvisor.com/media/photo-s/17/4b/c9/a4/cafe-marcel.jpg,"Món tráng miệng khá lạ mắt , và ngon Nhân viên tư vấn nhiệt tình giúp khách chọn được món ăn phù hợp Nhân viên tư vấn “Thảo”",#45 trên 3.735 nhà hàng ở Thành phố Hồ Chí Minh,https://www.tripadvisor.com.vn/Restaurant_Review-g293925-d17115288-Reviews-Cafe_Marcel-Ho_Chi_Minh_City.html,Food,"Café Marcel 28 Ngô Quang Huy, Thành phố Hồ Chí Minh 700000 Việt Nam",https://maps.app.goo.gl/hbsK3mJp9i6UTAkQ9
Vo Roof,"113 Tôn Thất Đạm Bến Nghé, Quận 1, Thành phố Hồ Chí Minh 700000 Việt Nam","107,734,873","1,067,023,364",https://media-cdn.tripadvisor.com/media/photo-s/29/14/f6/7f/caption.jpg,"Khá ấn tượng với với quán. View đẹp, đồ uống ngon. Decor cũng rất ấn tượng. Chỉ có mỗi điều là đồ mắc quá :D Cho 4 sao thôi, giá mềm hơn chút thì cho luôn 5 sao.",#42 trên 3.735 nhà hàng ở Thành phố Hồ Chí Minh,https://www.tripadvisor.com.vn/Restaurant_Review-g293925-d14956206-Reviews-Vo_Roof-Ho_Chi_Minh_City.html,Food,"Vo Roof 113 Tôn Thất Đạm Bến Nghé, Quận 1, Thành phố Hồ Chí Minh 700000 Việt Nam",https://maps.app.goo.gl/Cytpjcai6XW2a2qG9
P'ti Saigon,"52 Ngô Quang Huy Thảo Điền, Quận 2, Thành phố Hồ Chí Minh 700000 Việt Nam","108,043,292","106,733,941",https://media-cdn.tripadvisor.com/media/photo-s/29/66/84/09/celebration.jpg,"Không gian vừa ấm cúng vừa sang trọng, đồ ăn ngon, menu đa dạng các món, phục vụ chu đáo. Sẽ quay lại lần sau.Thêm",#44 trên 3.735 nhà hàng ở Thành phố Hồ Chí Minh,https://www.tripadvisor.com.vn/Restaurant_Review-g293925-d19354552-Reviews-P_ti_Saigon-Ho_Chi_Minh_City.html,Food,"P'ti Saigon 52 Ngô Quang Huy Thảo Điền, Quận 2, Thành phố Hồ Chí Minh 700000 Việt Nam",https://maps.app.goo.gl/KDeuDnSpLovUcNAm8
Towa - Japanese Cuisine & Lounge,"94 Đ. Nam Kỳ Khởi Nghĩa Tầng 28, Sedona Suites, Quận 1, Thành phố Hồ Chí Minh 700000 Việt Nam","107,914,427","1,066,824,927",https://media-cdn.tripadvisor.com/media/photo-s/16/16/b2/65/the-only-japanese-restaurant.jpg,"-Tôi đã đến và trải nghiệm nhà hàng towa japanese nằm ở tầng 28 của sài gòn center, tôi khá hài lòng về thiết kế của nhà hàng. View nhà hàng rất đẹp,nhân viên thân thiện nhiệt tình, bếp mở sạch sẽ và rất chuyên...Thêm",#46 trên 3.735 nhà hàng ở Thành phố Hồ Chí Minh,https://www.tripadvisor.com.vn/Restaurant_Review-g293925-d15000545-Reviews-Towa_Japanese_Cuisine_Lounge-Ho_Chi_Minh_City.html,Food,"Towa - Japanese Cuisine & Lounge 94 Đ. Nam Kỳ Khởi Nghĩa Tầng 28, Sedona Suites, Quận 1, Thành phố Hồ Chí Minh 700000 Việt Nam",https://maps.app.goo.gl/yr3wLkeTHyFsViFc6
"Parsley - Steak, Pasta and More","130 Nguyễn Trãi, Quận 1, Thành phố Hồ Chí Minh 700000 Việt Nam","107,696,483","1,066,907,927",https://media-cdn.tripadvisor.com/media/photo-s/1b/b4/45/ee/plate-of-steak.jpg,"Thức ăn ngon, trang trí đẹp. Nhân viên thân thiện. Rất khuyến khích tôi muốn khóc tôm và cá mekong. Cuốn sách tốt hơn trước.Thêm",#47 trên 3.735 nhà hàng ở Thành phố Hồ Chí Minh,https://www.tripadvisor.com.vn/Restaurant_Review-g293925-d18679854-Reviews-Parsley_Steak_Pasta_and_More-Ho_Chi_Minh_City.html,Food,"Parsley - Steak, Pasta and More 130 Nguyễn Trãi, Quận 1, Thành phố Hồ Chí Minh 700000 Việt Nam",https://maps.app.goo.gl/EjjCLXysTgUAq5xu7
Kin Đee - Thai Gastropub,"39A Đ. Cô Bắc Phường Cầu Ông Lãnh, Quận 1, Thành phố Hồ Chí Minh 700000 Việt Nam","107,655,728","1,066,956,061",https://media-cdn.tripadvisor.com/media/photo-s/27/a4/e9/09/downstairs-dining-area.jpg,"Quán sạch sẽ nhân viên nhiệt tình, dễ thương món ăn trình bày bắt mắt quán nên tăng máy lạnh mình thấy hơi nóng, món ăn khá ngon quán ở q1 nên cũng tiện, để ghé lại",#48 trên 3.735 nhà hàng ở Thành phố Hồ Chí Minh,https://www.tripadvisor.com.vn/Restaurant_Review-g293925-d19377816-Reviews-Kin_Dee_Thai_Gastropub-Ho_Chi_Minh_City.html,Food,"Kin Đee - Thai Gastropub 39A Đ. Cô Bắc Phường Cầu Ông Lãnh, Quận 1, Thành phố Hồ Chí Minh 700000 Việt Nam",https://maps.app.goo.gl/S2h9riHFLV622bka8
Chit Chat at the Café,"242 Tran Binh Trong Steet, District 5 Hotel Equatorial Ho Chi Minh City, Thành phố Hồ Chí Minh 70000 Việt Nam","10,781,971","106,693,081",https://media-cdn.tripadvisor.com/media/photo-s/1b/41/9c/86/logo.jpg,"Gia đình tôi đã có một bữa tối tuyệt vời. Hải sản tươi ngon, chế biến đơn giản nhưng đầy và tròn vị. Nhân viên cực kỳ chu đáo và nhanh nhẹn. Chắc chắn sẽ quay lại lần sau. See you all!Thêm",#49 trên 3.735 nhà hàng ở Thành phố Hồ Chí Minh,https://www.tripadvisor.com.vn/Restaurant_Review-g293925-d8127469-Reviews-Chit_Chat_at_the_Cafe-Ho_Chi_Minh_City.html,Food,"Chit Chat at the Café 242 Tran Binh Trong Steet, District 5 Hotel Equatorial Ho Chi Minh City, Thành phố Hồ Chí Minh 70000 Việt Nam",https://maps.app.goo.gl/BkhKvA44wjgKCv7M9
La Villa French Restaurant by Thierry Mounon,"14 Ngô Quang Huy P. Thảo Điền, Quận 2, Thành phố Hồ Chí Minh 0084 Việt Nam","108,043,292","106,733,941",https://media-cdn.tripadvisor.com/media/photo-s/07/f0/03/7d/la-villa-french-restaurant.jpg,Lần đầu ăn ở đây mình cảm thấy món ăn được bày trí rất đẹp Vị rất vừa miệng Không gian trong ngoài rất đẹp Phong cách phục vụ rất tận tình Chắc chắn sẽ quay lại,#50 trên 3.735 nhà hàng ở Thành phố Hồ Chí Minh,https://www.tripadvisor.com.vn/Restaurant_Review-g293925-d2034882-Reviews-La_Villa_French_Restaurant_by_Thierry_Mounon-Ho_Chi_Minh_City.html,Food,"La Villa French Restaurant by Thierry Mounon 14 Ngô Quang Huy P. Thảo Điền, Quận 2, Thành phố Hồ Chí Minh 0084 Việt Nam",https://maps.app.goo.gl/6bFmuzXggLuRwKcF6
Bún Chả 145,"145 Bùi Viện Phường Phạm Ngũ Lão, Q1, Thành phố Hồ Chí Minh 70000 Việt Nam","10,767,863","1,066,949,451",https://media-cdn.tripadvisor.com/media/photo-w/07/bd/7e/02/getlstd-property-photo.jpg,"Từ Bali đi về Hà Nội, Vào SG 1 tuần ghé được quán này 1 lần. Thấy quán hơi nhỏ nhưng bố trí cổ điển, Không gian quán khá ấm cúng. Đặt biệt đồ ăn rất vừa khẩu vị của mình, phục vụ tốt.",#51 trên 3.735 nhà hàng ở Thành phố Hồ Chí Minh,https://www.tripadvisor.com.vn/Restaurant_Review-g293925-d7844724-Reviews-Bun_Cha_145-Ho_Chi_Minh_City.html,Food,"Bún Chả 145 145 Bùi Viện Phường Phạm Ngũ Lão, Q1, Thành phố Hồ Chí Minh 70000 Việt Nam",https://maps.app.goo.gl/XHbnr69wk1JLwvsT7
Heart of Darkness Craft Brewery,"31D Lý Tự Trọng, Thành phố Hồ Chí Minh 70000 Việt Nam","107,797,138","1,067,028,996",https://media-cdn.tripadvisor.com/media/photo-s/19/75/d3/24/bewdiful-burgers.jpg,"Chúng tôi đã có 1 buổi tối tyệt vời, chúng tôi đã trải nghiệm những loại beer ngon và lạ, cám ơn Ngọc cô đã tận tình tư vấn và hỗ trợ. Thanks all.",#52 trên 3.735 nhà hàng ở Thành phố Hồ Chí Minh,https://www.tripadvisor.com.vn/Restaurant_Review-g293925-d11887076-Reviews-Heart_of_Darkness_Craft_Brewery-Ho_Chi_Minh_City.html,Food,"Heart of Darkness Craft Brewery 31D Lý Tự Trọng, Thành phố Hồ Chí Minh 70000 Việt Nam",https://maps.app.goo.gl/kZgexwRQnyEUCDyE8
Pizza 4P's Bến Thành,"160 Lê Thánh Tôn Quận 1, Lối vào từ 8 Thủ Khoa Huân, Thành phố Hồ Chí Minh 700000 Việt Nam",,,https://media-cdn.tripadvisor.com/media/photo-s/13/57/ee/ac/overview.jpg,phù hợp quá chừnggg luôn ạ. Lần sau đi ăn mình sẽ ghé vài tiếp ạ cảm ơn quán đã phục vụ rất tận tìnhThêm,#53 trên 3.735 nhà hàng ở Thành phố Hồ Chí Minh,https://www.tripadvisor.com.vn/Restaurant_Review-g293925-d10865662-Reviews-Pizza_4P_s_Ben_Thanh-Ho_Chi_Minh_City.html,Food,"Pizza 4P's Bến Thành 160 Lê Thánh Tôn Quận 1, Lối vào từ 8 Thủ Khoa Huân, Thành phố Hồ Chí Minh 700000 Việt Nam",
Tandoor,"39A-39B Ngô Đức Kế Bến Nghé, Quận 1, Thành phố Hồ Chí Minh 700000 Việt Nam","10,772,319","106,704,366",https://media-cdn.tripadvisor.com/media/photo-s/10/11/0e/61/interior.jpg,"Chúng tôi đã đi qua và tìm cách ăn. Vui mừng chúng tôi đã đi vào. Thức ăn rất ngon. Có một món khai vị gà để chia sẻ, sau đó là món cà ri tôm có độ nhẹ đến trung bình và gà tikka...Thêm",#126 trên 3.735 nhà hàng ở Thành phố Hồ Chí Minh,https://www.tripadvisor.com.vn/Restaurant_Review-g293925-d1122944-Reviews-Tandoor-Ho_Chi_Minh_City.html,Food,"Tandoor 39A-39B Ngô Đức Kế Bến Nghé, Quận 1, Thành phố Hồ Chí Minh 700000 Việt Nam",https://maps.app.goo.gl/yAC2un7Qb9ru4iwX6
Bloom Saigon Restaurant (Non-Profit Restaurant),"3/5 Hoàng Sa, Phường Đa Kao, Quận 1 Ward Dakao, Thành phố Hồ Chí Minh 70000 Việt Nam","107,888,957","1,066,830,113",https://media-cdn.tripadvisor.com/media/photo-s/19/34/39/25/set-menu-for-our-guests.jpg,"Đồ ăn ngon, giá cả phù hợp, không gian đẹp, ấm cúng. Mục đích từ thiện thật đáng trân trọng! Tôi thật sự rất ấn tượng...",#54 trên 3.735 nhà hàng ở Thành phố Hồ Chí Minh,https://www.tripadvisor.com.vn/Restaurant_Review-g293925-d7803798-Reviews-Bloom_Saigon_Restaurant_Non_Profit_Restaurant-Ho_Chi_Minh_City.html,Food,"Bloom Saigon Restaurant (Non-Profit Restaurant) 3/5 Hoàng Sa, Phường Đa Kao, Quận 1 Ward Dakao, Thành phố Hồ Chí Minh 70000 Việt Nam",
Pizza 4P's Le Thanh Ton,"8/15, Lê Thánh Tôn Quận 1, Thành phố Hồ Chí Minh Việt Nam","107,818,475","106,705,108",https://media-cdn.tripadvisor.com/media/photo-s/0f/85/26/7a/soy-garlic-beef.jpg,"Mọi thứ ổn cho tất cả mọi thứ, phục vụ nhiệt tình, đồ ăn ngon, món mì cua rất ngon pizza cũng rất vừa vị. Không gian ấm cúng. cám ơn Pizza 4PsThêm",#55 trên 3.735 nhà hàng ở Thành phố Hồ Chí Minh,https://www.tripadvisor.com.vn/Restaurant_Review-g293925-d2200413-Reviews-Pizza_4P_s_Le_Thanh_Ton-Ho_Chi_Minh_City.html,Food,"Pizza 4P's Le Thanh Ton 8/15, Lê Thánh Tôn Quận 1, Thành phố Hồ Chí Minh Việt Nam",
La Fiesta,"33 Đặng Thị Nhu Phường Nguyễn Thái Bình, Quận 1, Thành phố Hồ Chí Minh 700000 Việt Nam","107,691,924","1,066,972,256",https://media-cdn.tripadvisor.com/media/photo-s/16/45/fd/4c/photo4jpg.jpg,"Ông chủ ở nhà hàng rất dễ thương. Dù đã đến ăn đi ăn lại nhiều lần nhưng không bao giờ thất vọng. 1 phần ăn rất bự, 2 người ăn đã lưng lưng bụng rồi. Mình chưa bao giờ ăn hết một phần, đều...Thêm",#57 trên 3.735 nhà hàng ở Thành phố Hồ Chí Minh,https://www.tripadvisor.com.vn/Restaurant_Review-g293925-d7155150-Reviews-La_Fiesta-Ho_Chi_Minh_City.html,Food,"La Fiesta 33 Đặng Thị Nhu Phường Nguyễn Thái Bình, Quận 1, Thành phố Hồ Chí Minh 700000 Việt Nam",https://maps.app.goo.gl/oK1eoR5HqsG8QdJe8
Ruộng Pub & Hub,"33 Nguyễn Trung Trực Quận 1, Thành phố Hồ Chí Minh 700000 Việt Nam","107,749,562","1,066,979,121",https://media-cdn.tripadvisor.com/media/photo-s/18/03/0a/56/ruong-on-travel-magazine.jpg,"Quán thiết kế đẹp, rộng rãi, thoáng mát. Nhân viên thân thiện, lịch sự. Bia ngon, hương vị bia tươi lạ, dễ uống",#58 trên 3.735 nhà hàng ở Thành phố Hồ Chí Minh,https://www.tripadvisor.com.vn/Restaurant_Review-g293925-d13076757-Reviews-Ruong_Pub_Hub-Ho_Chi_Minh_City.html,Food,"Ruộng Pub & Hub 33 Nguyễn Trung Trực Quận 1, Thành phố Hồ Chí Minh 700000 Việt Nam",https://maps.app.goo.gl/2RuEn3QHArTB7c8W6
Chanh Bistro Rooftop Saigon,"215 Lý Tự Trọng Tầng thượng, Phường Bến Thành, Quận 1, Thành phố Hồ Chí Minh 700000 Việt Nam","10,781,971","106,693,081",https://media-cdn.tripadvisor.com/media/photo-s/15/6e/79/7e/dinner-spot.jpg,"Khong gian thoáng mát,rất đep,khung cảnh lãng mạn,thức ăn tuyệt vời Sự phục vụ chu đáo nhiệt tình của các bạn nhân viênThêm",#56 trên 3.735 nhà hàng ở Thành phố Hồ Chí Minh,https://www.tripadvisor.com.vn/Restaurant_Review-g293925-d8039278-Reviews-Chanh_Bistro_Rooftop_Saigon-Ho_Chi_Minh_City.html,Food,"Chanh Bistro Rooftop Saigon 215 Lý Tự Trọng Tầng thượng, Phường Bến Thành, Quận 1, Thành phố Hồ Chí Minh 700000 Việt Nam",https://maps.app.goo.gl/NuJmRvwx2MHk8Uqf7
Sei Dining Lounge,"13-15-17 Dong Khoi street, Ben Nghe, District 1, Thành phố Hồ Chí Minh 700000 Việt Nam","107,760,265","1,067,031,172",https://media-cdn.tripadvisor.com/media/photo-s/29/2f/e7/4b/saigon-eating-indulgence.jpg,"Không gian rất đẹp, ấm cúng, sang trọng. Cocktail ngon (happy hour nên mình được free không giới hạn 😁). Thức ăn ngon, tươi, trình bày đẹp. Thích nhất món bò sốt mắm nhĩ và các loại sashimi 🤤",#1.234 trên 3.735 nhà hàng ở Thành phố Hồ Chí Minh,https://www.tripadvisor.com.vn/Restaurant_Review-g293925-d25564789-Reviews-Sei_Dining_Lounge-Ho_Chi_Minh_City.html,Food,"Sei Dining Lounge 13-15-17 Dong Khoi street, Ben Nghe, District 1, Thành phố Hồ Chí Minh 700000 Việt Nam",https://maps.app.goo.gl/c7ZJrfxmQLBarMWE6
Rice Field - Homecooked Vietnamese Cuisine,"75 - 77 Hồ Tùng Mậu Level 1-2- Tầng Thượng, Bến Nghé, Quận 1, Thành phố Hồ Chí Minh 700000 Việt Nam","107,801,495","1,067,032,527",https://media-cdn.tripadvisor.com/media/photo-s/1a/98/f4/0d/rice-field-rooftop.jpg,"đồ ăn ngon ‘ canh tom hoi nhieu tieu , khong gian thoang mat sach se , nhan vien than thien dang yeu",#60 trên 3.735 nhà hàng ở Thành phố Hồ Chí Minh,https://www.tripadvisor.com.vn/Restaurant_Review-g293925-d13322323-Reviews-Rice_Field_Homecooked_Vietnamese_Cuisine-Ho_Chi_Minh_City.html,Food,"Rice Field - Homecooked Vietnamese Cuisine 75 - 77 Hồ Tùng Mậu Level 1-2- Tầng Thượng, Bến Nghé, Quận 1, Thành phố Hồ Chí Minh 700000 Việt Nam",https://maps.app.goo.gl/FRuVZ1Cs1i9DaEpr7
Nhà Hàng The Racha Room,"12-14 Mạc Thị Bưởi, Quận 1, Thành phố Hồ Chí Minh 70000 Việt Nam","10,775,427","1,067,048,401",https://media-cdn.tripadvisor.com/media/photo-s/06/f9/81/f1/the-racha-room.jpg,Xôi xoài ngonnn nhaa . Nước thì có nhân viên tư vấn loại phụ hợp với sở thích nèee Đồ ăn vặt nhâm nhi khá vừa miệng 10 điểm cho nhân viên nhiệt tình nè,#59 trên 3.735 nhà hàng ở Thành phố Hồ Chí Minh,https://www.tripadvisor.com.vn/Restaurant_Review-g293925-d7066029-Reviews-The_Racha_Room_Restaurant-Ho_Chi_Minh_City.html,Food,"Nhà Hàng The Racha Room 12-14 Mạc Thị Bưởi, Quận 1, Thành phố Hồ Chí Minh 70000 Việt Nam",https://maps.app.goo.gl/VFAFJKXofJ5F98QMA
Nhà Hàng Đèn Lồng,"130 Nguyễn Trãi Quận 1, Thành phố Hồ Chí Minh Việt Nam","107,696,483","1,066,907,927",https://media-cdn.tripadvisor.com/media/photo-s/11/33/87/d7/ingredients-and-a-finished.jpg,Món Huế ở đây ăn ngon quá. Mình đã ghé ăn vài lần và đợt tháng vừa rồi mình có ăn thử món Huế.Phải nói là ngon xuất sắc. Bánh ít ở đây làm rất đặc biệt. Ở Sài Gòn hiếm lắm có mấy chỗ...Thêm,#61 trên 3.735 nhà hàng ở Thành phố Hồ Chí Minh,https://www.tripadvisor.com.vn/Restaurant_Review-g293925-d11962759-Reviews-Den_Long_Home_Cooked_Vietnamese_Restaurant-Ho_Chi_Minh_City.html,Food,"Nhà Hàng Đèn Lồng 130 Nguyễn Trãi Quận 1, Thành phố Hồ Chí Minh Việt Nam",https://maps.app.goo.gl/KPoXRcfW345yxYf29
Quán 33 Đề Thám,"33 Đề Thám Phường Cầu Ông Lãnh, Quận 1, Thành phố Hồ Chí Minh 700000 Việt Nam","107,641,902","1,066,953,627",https://media-cdn.tripadvisor.com/media/photo-p/11/c2/22/ce/photo1jpg.jpg,"Đó giờ đi nhậu với đồng nghiệp toàn mấy quán sang sang. Mấy bữa trước được dẫn tới quán 1 lần. Thấy trên lầu đi hơi ngại, tánh thì thích ngồi ngoài đường nên thâyd cũng ngán. Nhưng mà lên yên vị rồi lại thấy...Thêm",#62 trên 3.735 nhà hàng ở Thành phố Hồ Chí Minh,https://www.tripadvisor.com.vn/Restaurant_Review-g293925-d10744326-Reviews-33_De_Tham_Restaurant-Ho_Chi_Minh_City.html,Food,"Quán 33 Đề Thám 33 Đề Thám Phường Cầu Ông Lãnh, Quận 1, Thành phố Hồ Chí Minh 700000 Việt Nam",https://maps.app.goo.gl/i5Gn7ToWbMd8nGH2A
Italiani's Pizza,"F5 Diamond Plaza 34 Le Duan, Ben Nghe, District 1, Thành phố Hồ Chí Minh 70000 Việt Nam","107,807,736","1,066,982,429",https://media-cdn.tripadvisor.com/media/photo-s/28/1c/3a/e2/soft-opening-new-branch.jpg,Không gian tuyệt vời thích hợp cho các buổi hẹn! Thức ăn tuyệt vời đúng vị. Phục vụ chất lượng thân thiện,#65 trên 3.735 nhà hàng ở Thành phố Hồ Chí Minh,https://www.tripadvisor.com.vn/Restaurant_Review-g293925-d8154556-Reviews-Italiani_s_Pizza-Ho_Chi_Minh_City.html,Food,"Italiani's Pizza F5 Diamond Plaza 34 Le Duan, Ben Nghe, District 1, Thành phố Hồ Chí Minh 70000 Việt Nam",https://maps.app.goo.gl/Edqh4vVAQ1dshzzA7
Banh Mi 37 Nguyen Trai,"37 Nguyen Trai, Thành phố Hồ Chí Minh 70000 Việt Nam","107,700,732","106,691,474",https://media-cdn.tripadvisor.com/media/photo-s/19/3c/51/54/inside-the-bread.jpg,"Thương hiệu ""Bánh mì 37 Nguyễn Trãi"" được thực khách mọi giới mến mộ, ưa chuộng từ lâu không phải là một nhà hàng, quán ăn sang trọng, lớn lao gì, mà chỉ là một xe bán bánh mì đẩy tay quen thuộc kinh doanh...Thêm",#64 trên 3.735 nhà hàng ở Thành phố Hồ Chí Minh,https://www.tripadvisor.com.vn/Restaurant_Review-g293925-d3720812-Reviews-Banh_Mi_37_Nguyen_Trai-Ho_Chi_Minh_City.html,Food,"Banh Mi 37 Nguyen Trai 37 Nguyen Trai, Thành phố Hồ Chí Minh 70000 Việt Nam",https://maps.app.goo.gl/AKiwkp2Uhk4Wum5B6
Pasteur Street Brewing Company,"144 Pasteur Xuống hẻm và lên cầu thang, Thành phố Hồ Chí Minh 700000 Việt Nam","10,781,971","106,693,081",https://media-cdn.tripadvisor.com/media/photo-s/19/61/75/b1/taps.jpg,"Hương vị bia tuyệt vời, với nhiều lựa chọn khác nhau. Không gian quán vui vẻ, thoáng đãng. Khách đô ng, tạo cảm giá vui nhộn. Nhạc hay, vừa phải, vẫn có thể nói chuyện và trao đổi công việc. Chắc chắn tôi sẽ mời...Thêm",#63 trên 3.735 nhà hàng ở Thành phố Hồ Chí Minh,https://www.tripadvisor.com.vn/Restaurant_Review-g293925-d7704159-Reviews-Pasteur_Street_Brewing_Company-Ho_Chi_Minh_City.html,Food,"Pasteur Street Brewing Company 144 Pasteur Xuống hẻm và lên cầu thang, Thành phố Hồ Chí Minh 700000 Việt Nam",
Mumtaz Indian Restaurant,"BEFORE 226 Bui Vien District 1, Thành phố Hồ Chí Minh 70000 Việt Nam","10,781,971","106,693,081",https://media-cdn.tripadvisor.com/media/photo-s/0f/fa/39/bf/new-face-lift-for-the.jpg,"Thức ăn ngon, phục vụ nhiệt tình. Giá tiền rất tốt, mùi vị thức ăn tuyệt.Trong lúc chờ món được phục vụ bánh.Nhà hàng còn có các món chay phục vụ rất ngon",#66 trên 3.735 nhà hàng ở Thành phố Hồ Chí Minh,https://www.tripadvisor.com.vn/Restaurant_Review-g293925-d1231779-Reviews-Mumtaz_Indian_Restaurant-Ho_Chi_Minh_City.html,Food,"Mumtaz Indian Restaurant BEFORE 226 Bui Vien District 1, Thành phố Hồ Chí Minh 70000 Việt Nam",
The Long @ Times Square,"22-36 Nguyen Hue Boulevard, Thành phố Hồ Chí Minh 70000 Việt Nam","107,737,618","106,704,673",https://media-cdn.tripadvisor.com/media/photo-s/25/d6/d2/c2/the-long-interior.jpg,"Nhà hàng có pizza siêu ngon, được nướng bằng lò củi nên giữ trọn hương vị rất đặc biệt. Mình gọi Pizza seafood có tôm, mực, trứng cá mọi thứ đều tươi và ngonn. View nhà hàng đẹp ngay cạnh phố đi bộ. Ms. Ngân...Thêm",#67 trên 3.735 nhà hàng ở Thành phố Hồ Chí Minh,https://www.tripadvisor.com.vn/Restaurant_Review-g293925-d7112920-Reviews-The_Long_Times_Square-Ho_Chi_Minh_City.html,Food,"The Long @ Times Square 22-36 Nguyen Hue Boulevard, Thành phố Hồ Chí Minh 70000 Việt Nam",https://maps.app.goo.gl/uMdQDTGLrBF6gfMA9
The Vintage Emporium,"95B Nguyen Van Thu Street, Thành phố Hồ Chí Minh 70000 Việt Nam","107,919,967","1,067,009,453",https://media-cdn.tripadvisor.com/media/photo-p/0b/ed/dd/37/the-vintage-emporium.jpg,Quán ngồi thoải mái. Trang trí chưa đẹp lắm nhưng thoáng. Lầu 2 không mở nhạc nên ngồi hơi buồn. Đồ uống vừa miệng. Nhân viên nhiệt tình.,#68 trên 3.735 nhà hàng ở Thành phố Hồ Chí Minh,https://www.tripadvisor.com.vn/Restaurant_Review-g293925-d6864663-Reviews-The_Vintage_Emporium_Da_Kao-Ho_Chi_Minh_City.html,Food,"The Vintage Emporium 95B Nguyen Van Thu Street, Thành phố Hồ Chí Minh 70000 Việt Nam",https://maps.app.goo.gl/mLYnJKzgCVVpFRmh9
SORAE,"36 Đ. Hồ Tùng Mậu Tầng 51, Bitexco Financial Tower, Phường Bến Nghé, Quận 1, Thành phố Hồ Chí Minh 700000 Việt Nam","108,386,056","1,067,147,298",https://media-cdn.tripadvisor.com/media/photo-p/28/5d/76/80/sorae-logo.jpg,"Nhà hàng Nhật, đồ ăn ngon, View đẹp, service tốt. Địa điểm thích hợp để ngắm hoàn hôn hoặc ngắm thành phố từ trên cao.",#69 trên 3.735 nhà hàng ở Thành phố Hồ Chí Minh,https://www.tripadvisor.com.vn/Restaurant_Review-g293925-d7152997-Reviews-SORAE-Ho_Chi_Minh_City.html,Food,"SORAE 36 Đ. Hồ Tùng Mậu Tầng 51, Bitexco Financial Tower, Phường Bến Nghé, Quận 1, Thành phố Hồ Chí Minh 700000 Việt Nam",
Mad Cow Wine & Grill,"District 1 Pullman Saigon Centre, Thành phố Hồ Chí Minh 700000 Việt Nam","1,076,431","10,669,175",https://media-cdn.tripadvisor.com/media/photo-s/29/66/02/0b/mad-about-wine-serious.jpg,Tôi đã có 1 trải nghiệm rất tốt tại nhà hàng Mad cow. Các bạn nhân viên rất nhiệt tình và vui vẻ hỗ trợ tôi tạo 1 chút bất ngờ trong ngày sinh nhật của bạn gái tôi.,#70 trên 3.735 nhà hàng ở Thành phố Hồ Chí Minh,https://www.tripadvisor.com.vn/Restaurant_Review-g293925-d12703262-Reviews-Mad_Cow_Wine_Grill-Ho_Chi_Minh_City.html,Food,"Mad Cow Wine & Grill District 1 Pullman Saigon Centre, Thành phố Hồ Chí Minh 700000 Việt Nam",https://maps.app.goo.gl/1MHygZFjBYdTdyHT6
Soul Ben Thanh Restaurant & Bar,"7 Thủ Khoa Huân Phường Bến Thành, Quận 1, Thành phố Hồ Chí Minh 700000 Việt Nam","107,731,967","1,066,975,865",https://media-cdn.tripadvisor.com/media/photo-s/19/36/37/53/welcome-to-soul-ben-thanh.jpg,"Đã đến và trải nghiệm món ăn rất ngon, hợp khẩu vị. Không gian thoáng, đẹp. Nhân viên phục vụ chu đáo. 10đ cho nhà hàng và sẽ ghé lại nhiều lần tiếp theoThêm",#71 trên 3.735 nhà hàng ở Thành phố Hồ Chí Minh,https://www.tripadvisor.com.vn/Restaurant_Review-g293925-d17623254-Reviews-Soul_Ben_Thanh_Restaurant_Bar-Ho_Chi_Minh_City.html,Food,"Soul Ben Thanh Restaurant & Bar 7 Thủ Khoa Huân Phường Bến Thành, Quận 1, Thành phố Hồ Chí Minh 700000 Việt Nam",https://maps.app.goo.gl/2U3r9PVrwgv5riGo7
Social Club Restaurant & Bar,"76-78 Nguyễn Thị Minh Khai, Q.3 Lầu 23-24, Khách sạn Hotel des Arts Saigon, Thành phố Hồ Chí Minh 70000 Việt Nam","122,374,795","1,091,893,619",https://media-cdn.tripadvisor.com/media/photo-s/12/4e/7f/ba/social-club-rooftop-bar.jpg,"Quán bar dj đánh khá hay. Bạn Thịnh Bartender pha nước rất ngon. Không gian đẹp, lãng mạn. Bạn Mai phục vụ nhiệt tình, dễ thương",#72 trên 3.735 nhà hàng ở Thành phố Hồ Chí Minh,https://www.tripadvisor.com.vn/Restaurant_Review-g293925-d8806032-Reviews-Social_Club_Restaurant_Bar-Ho_Chi_Minh_City.html,Food,"Social Club Restaurant & Bar 76-78 Nguyễn Thị Minh Khai, Q.3 Lầu 23-24, Khách sạn Hotel des Arts Saigon, Thành phố Hồ Chí Minh 70000 Việt Nam",https://maps.app.goo.gl/MX6FM6jR1ydpFHUu7
Nhà Hàng Trois Gourmands,"39 Trần Ngọc Diện Thảo Điền, Quận 2, Thành phố Hồ Chí Minh 70000 Việt Nam","10,781,971","106,693,081",https://media-cdn.tripadvisor.com/media/photo-s/01/d5/d5/85/trois-gourmands.jpg,"nha nam trong mot khu biet thu nho .cung de tim den nha hang cung thay dep .co ho boi va san vuon rong ,thuc an that la ngon dung la nha hang phap.",#73 trên 3.735 nhà hàng ở Thành phố Hồ Chí Minh,https://www.tripadvisor.com.vn/Restaurant_Review-g293925-d1832810-Reviews-Trois_Gourmands-Ho_Chi_Minh_City.html,Food,"Nhà Hàng Trois Gourmands 39 Trần Ngọc Diện Thảo Điền, Quận 2, Thành phố Hồ Chí Minh 70000 Việt Nam",https://maps.app.goo.gl/noBpFyM3UugiB6HC6
Nha Hang Asian Kitchen,"185/8 Pham Ngu Lao Phường Phạm Ngũ Lão, Quận 1, Thành phố Hồ Chí Minh 700000 Việt Nam","107,683,511","1,066,924,109",https://media-cdn.tripadvisor.com/media/photo-s/2a/17/8d/b9/nha-hang-asian-kitchen.jpg,Dịch vụ xuất sắc. Thực phẩm rất ngon và giá cả phải chăng. Nhân viên rất bắt buộc và thân thiện. Đến thăm hai lần trong kỳ nghỉ của chúng tôi tại ho chi Minh.,#74 trên 3.735 nhà hàng ở Thành phố Hồ Chí Minh,https://www.tripadvisor.com.vn/Restaurant_Review-g293925-d1122081-Reviews-Nha_Hang_Asian_Kitchen-Ho_Chi_Minh_City.html,Food,"Nha Hang Asian Kitchen 185/8 Pham Ngu Lao Phường Phạm Ngũ Lão, Quận 1, Thành phố Hồ Chí Minh 700000 Việt Nam",https://maps.app.goo.gl/pwzdnD4r51MZrrx18
La Crêperie - Pizza Pie Saigon,"16 Đường số 43 Thảo Điền, Quận 2, Thành phố Hồ Chí Minh 700000 Việt Nam","10,791,891","10,675,975",https://media-cdn.tripadvisor.com/media/photo-s/08/93/08/a5/crepe-with-mango-pear.jpg,"Hoàn thành là tốt nhất; phải đi với nước đá lạnh. Hoặc đã giao hàng sớm với MarketOi: D cảm ơn Rachel, Nina và nhóm!",#75 trên 3.735 nhà hàng ở Thành phố Hồ Chí Minh,https://www.tripadvisor.com.vn/Restaurant_Review-g293925-d2468834-Reviews-La_Creperie_Ho_Chi_Minh_City-Ho_Chi_Minh_City.html,Food,"La Crêperie - Pizza Pie Saigon 16 Đường số 43 Thảo Điền, Quận 2, Thành phố Hồ Chí Minh 700000 Việt Nam",https://maps.app.goo.gl/DewS5Uye9S334mX49
El Camino Taqueria - District 2,"88 Xuân Thủy Thảo Điền, Quận 2, Thành phố Hồ Chí Minh 700000 Việt Nam","108,036,997","1,067,344,561",https://media-cdn.tripadvisor.com/media/photo-s/1b/73/53/c8/el-camino-taqueria.jpg,"Thực đơn đa dạng , chắc chắn sẽ quay lại để thử hết các món còn lại 🤜🤛 quán nhỏ nhưng vibe rất ổn, phù hợp tụ tập bạn bè và gia đình.",#76 trên 3.735 nhà hàng ở Thành phố Hồ Chí Minh,https://www.tripadvisor.com.vn/Restaurant_Review-g293925-d14090367-Reviews-El_Camino_Taqueria_District_2-Ho_Chi_Minh_City.html,Food,"El Camino Taqueria - District 2 88 Xuân Thủy Thảo Điền, Quận 2, Thành phố Hồ Chí Minh 700000 Việt Nam",https://maps.app.goo.gl/B6y6C84m8QhmCePbA
Saffron - Flavours Of India,"147 Nguyen Thi Minh Khai, Pham Ngu Lao Ward, Dis 1, Thành phố Hồ Chí Minh Việt Nam","1,076,978","1,066,858,875",https://media-cdn.tripadvisor.com/media/photo-s/27/b4/0c/10/caption.jpg,"Món ăn ngon, không gian đẹp, nhân viên thân thiện. Nếu bạn muốn một món ăn mới lạ, đây là một lựa chọn nên thử",#77 trên 3.735 nhà hàng ở Thành phố Hồ Chí Minh,https://www.tripadvisor.com.vn/Restaurant_Review-g293925-d25147494-Reviews-Saffron_Flavours_Of_India-Ho_Chi_Minh_City.html,Food,"Saffron - Flavours Of India 147 Nguyen Thi Minh Khai, Pham Ngu Lao Ward, Dis 1, Thành phố Hồ Chí Minh Việt Nam",
The View Rooftop Bar,"195 Bùi Viện, Phạm Ngũ Lão, Quận 1 Tầng 9 Khách Sạn Đức Vương, Thành phố Hồ Chí Minh 700000 Việt Nam","107,668,465","1,066,885,993",https://media-cdn.tripadvisor.com/media/photo-s/1b/6d/d3/c2/the-view-rooftop-bar.jpg,"Không gian tốt, thoáng mát, đồ ăn rất ngon và Luân phục vụ rất tận tình, nếu bạn muốn tham quan một chỗ khác lạ ở bùi viện thì đây là nơi khá lý tưởng để bắt đầu, tôi sẽ còn quay lại. Cảm ơn...Thêm",#78 trên 3.735 nhà hàng ở Thành phố Hồ Chí Minh,https://www.tripadvisor.com.vn/Restaurant_Review-g293925-d5774553-Reviews-The_View_Rooftop_Bar-Ho_Chi_Minh_City.html,Food,"The View Rooftop Bar 195 Bùi Viện, Phạm Ngũ Lão, Quận 1 Tầng 9 Khách Sạn Đức Vương, Thành phố Hồ Chí Minh 700000 Việt Nam",https://maps.app.goo.gl/rjMzv4Q3zZwLEpkZ7
KOTO Saigon Restaurant & Cooking Classes,"19 Nguyễn Đình Chiểu Phường Đa Kao, Quận 1, Thành phố Hồ Chí Minh 700000 Việt Nam","10,789,148","1,067,002,985",https://media-cdn.tripadvisor.com/media/photo-s/09/f3/2f/8b/koto-kumho-a-training.jpg,"Tôi đã mang một nhóm 30+ đến nhà hàng của bạn cho bữa ăn định sẵn, đã ghé thăm nhà hàng khác của bạn vài năm trước. . . . Các món ăn là tuyệt vời, và ngon, dịch vụ xuất sắc, và giá trị...Thêm",#79 trên 3.735 nhà hàng ở Thành phố Hồ Chí Minh,https://www.tripadvisor.com.vn/Restaurant_Review-g293925-d2329869-Reviews-KOTO_Saigon_Restaurant_Cooking_Classes-Ho_Chi_Minh_City.html,Food,"KOTO Saigon Restaurant & Cooking Classes 19 Nguyễn Đình Chiểu Phường Đa Kao, Quận 1, Thành phố Hồ Chí Minh 700000 Việt Nam",
East West Brewing Co. - Saigon,"181-185 Lý Tự Trọng Quận 1, Thành phố Hồ Chí Minh Việt Nam","107,730,654","1,066,959,165",https://media-cdn.tripadvisor.com/media/photo-s/12/d7/ee/d0/east-west-brewing-co.jpg,"Không gian đẹp , thoải mái . Nhân viên thân thiện giới thiệu bia ngon . Tận tình chu đáo đặc biệt là bạn Nghĩa . Tất cả đều tuyệt vời . Tôi sẽ ghé lại lần sau .",#80 trên 3.735 nhà hàng ở Thành phố Hồ Chí Minh,https://www.tripadvisor.com.vn/Restaurant_Review-g293925-d12096239-Reviews-East_West_Brewing_Co_Saigon-Ho_Chi_Minh_City.html,Food,"East West Brewing Co. - Saigon 181-185 Lý Tự Trọng Quận 1, Thành phố Hồ Chí Minh Việt Nam",https://maps.app.goo.gl/1HU8wjABYkCcuge66
Oedo Alley - Japanese Food Village,"65 Lê Lợi L5-09, Trung Tâm Thương Mại Sài Gòn, Bến Nghé, Quận 1, Thành phố Hồ Chí Minh 700000 Việt Nam","10,777,353","106,698,089",https://media-cdn.tripadvisor.com/media/photo-s/0d/71/c9/61/getlstd-property-photo.jpg,"Đây có thể là nhà hàng có nhiều món Nhật đa dạng nhất mà mình từng biết. Món ăn ngon, giá cũng rất hợp lý",#81 trên 3.735 nhà hàng ở Thành phố Hồ Chí Minh,https://www.tripadvisor.com.vn/Restaurant_Review-g293925-d11750237-Reviews-Oedo_Alley_Japanese_Food_Village-Ho_Chi_Minh_City.html,Food,"Oedo Alley - Japanese Food Village 65 Lê Lợi L5-09, Trung Tâm Thương Mại Sài Gòn, Bến Nghé, Quận 1, Thành phố Hồ Chí Minh 700000 Việt Nam",
The Daun Restaurant,"48 Lê Lai Phường Bến Thành, Quận 1, Thành phố Hồ Chí Minh 700000 Việt Nam","107,711,793","1,066,966,591",https://media-cdn.tripadvisor.com/media/photo-s/15/2f/b2/f1/the-daun-restaurant.jpg,Phở đáng yêu và chả giò. Chủ nhà của chúng tôi rất tốt và nói tiếng Anh hoàn hảo. Tôi chắc chắn sẽ đề nghị,#82 trên 3.735 nhà hàng ở Thành phố Hồ Chí Minh,https://www.tripadvisor.com.vn/Restaurant_Review-g293925-d4232534-Reviews-The_Daun_Restaurant-Ho_Chi_Minh_City.html,Food,"The Daun Restaurant 48 Lê Lai Phường Bến Thành, Quận 1, Thành phố Hồ Chí Minh 700000 Việt Nam",https://maps.app.goo.gl/dGATe8U8LsMLLTLs8
Chuck's Burgers,"46 Phạm Viết Chánh Phường 19, Thành phố Hồ Chí Minh 70000 Việt Nam","10,790,156","1,067,105,063",https://media-cdn.tripadvisor.com/media/photo-s/0f/41/55/1a/photo0jpg.jpg,"Burger ngon nhất từng được ăn, vỏ bánh mềm mại, tươi. Bò tươi và ngọt, rất chất và đúng vị. Đáng để thử.",#83 trên 3.735 nhà hàng ở Thành phố Hồ Chí Minh,https://www.tripadvisor.com.vn/Restaurant_Review-g293925-d4731745-Reviews-Chuck_s_Burgers-Ho_Chi_Minh_City.html,Food,"Chuck's Burgers 46 Phạm Viết Chánh Phường 19, Thành phố Hồ Chí Minh 70000 Việt Nam",https://maps.app.goo.gl/suGYNHuSSzGQDZQh9
Mặn Mòi - Tao Đàn,"34 Vo Van Tan Phường 6, Quận 3, Thành phố Hồ Chí Minh 70000 Việt Nam","10,781,467","1,066,948,334",https://media-cdn.tripadvisor.com/media/photo-p/29/68/c2/70/m-n-moi.jpg,"Món ăn rất sáng tạo, ngon lắm Nhân viên siêu nhiệt tình, nhanh nhẹn, tư vấn khách rõ ráng Chắc chắn sẽ quay lạiThêm",#85 trên 3.735 nhà hàng ở Thành phố Hồ Chí Minh,https://www.tripadvisor.com.vn/Restaurant_Review-g293925-d8147173-Reviews-M_n_Moi_Tao_Dan-Ho_Chi_Minh_City.html,Food,"Mặn Mòi - Tao Đàn 34 Vo Van Tan Phường 6, Quận 3, Thành phố Hồ Chí Minh 70000 Việt Nam",
Octo Tapas Restobar,"75 Hồ Tùng Mậu Tầng 2, Thành phố Hồ Chí Minh 700000 Việt Nam","10,781,971","106,693,081",https://media-cdn.tripadvisor.com/media/photo-s/1b/ae/63/cf/octo-open-kitchen-bar.jpg,"Mỗi lần đến lại đuoc thưởng thức món mới từ bếp trưởng đến từ Tây Ban Nha, Albert! Chỉ có thể nói là trên cả tuyệt vời. Không gian thoáng, thoải mái, thích hợp cho cặp đôi, bàn bè hay cả các cuộc hẹn business....Thêm",#84 trên 3.735 nhà hàng ở Thành phố Hồ Chí Minh,https://www.tripadvisor.com.vn/Restaurant_Review-g293925-d14027845-Reviews-Octo_Tapas_Restobar-Ho_Chi_Minh_City.html,Food,"Octo Tapas Restobar 75 Hồ Tùng Mậu Tầng 2, Thành phố Hồ Chí Minh 700000 Việt Nam",https://maps.app.goo.gl/Bz2SWL4kKU9YZAcN8
Rbar,"8-15 Tôn Đức Thắng, Quận 1 Renaissance Riverside Hotel Saigon, Thành phố Hồ Chí Minh 700000 Việt Nam","1,077,428,745","1,067,062,394,804,440",https://media-cdn.tripadvisor.com/media/photo-s/1c/b2/50/4f/d-u-ng-du-c-pha-ch-va.jpg,"Trải nghiệm dịch vụ tại Rbar thật tuyệt vời. Đồ uống rất bắt mắt và ngon. Các nhân viên phục vụ rất tận tình và chu đáo. Cảm ơn Nhật, My, Châu đã nói chuyện và chia sẽ rất nhiều điều thú vị về rượu...Thêm",#87 trên 3.735 nhà hàng ở Thành phố Hồ Chí Minh,https://www.tripadvisor.com.vn/Restaurant_Review-g293925-d12362137-Reviews-Rbar-Ho_Chi_Minh_City.html,Food,"Rbar 8-15 Tôn Đức Thắng, Quận 1 Renaissance Riverside Hotel Saigon, Thành phố Hồ Chí Minh 700000 Việt Nam",https://maps.app.goo.gl/9xFmipvy3WoWDSii8
El Gaucho Argentinian Steakhouse - Hai Ba Trung,"74/1 Hai Bà Trưng Phường Bến Nghé, Quận 1, Thành phố Hồ Chí Minh 700000 Việt Nam","107,810,392","1,067,001,212",https://media-cdn.tripadvisor.com/media/photo-p/13/d1/fd/62/photo5jpg.jpg,Nhà hàng trang trí đẹp nhưng các bàn được bố trí quá gần nhau cộng thêm nhạc rất lớn nên khó trò chuyện. Tôi rất ấn tượng với nhân viên ở đây rất chuyên nghiệp và thân thiện. Họ thường xuyên thăm hỏi chúng tôi...Thêm,#86 trên 3.735 nhà hàng ở Thành phố Hồ Chí Minh,https://www.tripadvisor.com.vn/Restaurant_Review-g293925-d6650475-Reviews-El_Gaucho_Argentinian_Steakhouse_Hai_Ba_Trung-Ho_Chi_Minh_City.html,Food,"El Gaucho Argentinian Steakhouse - Hai Ba Trung 74/1 Hai Bà Trưng Phường Bến Nghé, Quận 1, Thành phố Hồ Chí Minh 700000 Việt Nam",https://maps.app.goo.gl/CGX6GBzgkgZqVg4A7
Nossa Steakhouse & Italian Cuisine,"36 Phạm Hồng Thái Phường Bến Thành, Quận 1, Thành phố Hồ Chí Minh 700000 Việt Nam","107,712,012","1,066,948,847",https://media-cdn.tripadvisor.com/media/photo-s/0d/cf/44/b7/outdoor-and-indoor-dining.jpg,"Thức ăn làm khá ổn, nhân viên chuyên nghiệp và không gian yên tĩnh. THích hợp hẹn hò hoặc thưởng thức món ăn cùng người quen.Thêm",#88 trên 3.735 nhà hàng ở Thành phố Hồ Chí Minh,https://www.tripadvisor.com.vn/Restaurant_Review-g293925-d6943007-Reviews-Nossa_Steakhouse_Italian_Cuisine-Ho_Chi_Minh_City.html,Food,"Nossa Steakhouse & Italian Cuisine 36 Phạm Hồng Thái Phường Bến Thành, Quận 1, Thành phố Hồ Chí Minh 700000 Việt Nam",https://maps.app.goo.gl/SipfsmGZHCiNgMkB9
Cocotte,"136/11 Lê Thánh Tôn Phường Bến Thành, Quận 1, Thành phố Hồ Chí Minh 700000 Việt Nam","107,738,501","1,066,980,978",https://media-cdn.tripadvisor.com/media/photo-s/27/1d/10/d6/signature-duck-magret.jpg,"Mình đã xem khá nhiều review về nhà hàng nên quyết định đến ăn thử. Mình gọi súp hành, pate, salad nicoise cá ngừ và ức vịt. Với kinh nghiệm của mình thì ức vịt có thể lựa chọn mức độ chín nhưng ở đây...Thêm",#139 trên 3.735 nhà hàng ở Thành phố Hồ Chí Minh,https://www.tripadvisor.com.vn/Restaurant_Review-g293925-d12180159-Reviews-Cocotte-Ho_Chi_Minh_City.html,Food,"Cocotte 136/11 Lê Thánh Tôn Phường Bến Thành, Quận 1, Thành phố Hồ Chí Minh 700000 Việt Nam",https://maps.app.goo.gl/5GLTn6nogeHhexhW6
Mít Rooftop Bistro,"7th floor, 35 Dong Khoi, Ben Nghe Ward, District 1, Thành phố Hồ Chí Minh Việt Nam","107,760,265","1,067,031,172",https://media-cdn.tripadvisor.com/media/photo-s/29/7d/62/83/caption.jpg,"Không gian đẹp và ấm cúng, thích hợp đi hẹn hò. Khẩu phần ăn hơi ít nhưng bày biện đẹp mắt và vị vừa miệng.",#90 trên 3.735 nhà hàng ở Thành phố Hồ Chí Minh,https://www.tripadvisor.com.vn/Restaurant_Review-g293925-d24832271-Reviews-Mit_Rooftop_Bistro-Ho_Chi_Minh_City.html,Food,"Mít Rooftop Bistro 7th floor, 35 Dong Khoi, Ben Nghe Ward, District 1, Thành phố Hồ Chí Minh Việt Nam",
Nhà Hàng Propaganda Bistro,"21 Hàn Thuyên, Quận 1, Thành phố Hồ Chí Minh 700000 Việt Nam","108,466,438","106,769,276",https://media-cdn.tripadvisor.com/media/photo-s/07/68/0b/64/propaganda-restaurant.jpg,"Nhà hàng rất đẹp. Có món gỏi cuốn gà nướng là ngon nhất. Bún bò Huế ăn cũng khá ổn, ngoài ra menu tráng miệng có món xôi xoài cũng rất đáng thử. Nhân viên lịch sự và dễ thương!!!",#89 trên 3.735 nhà hàng ở Thành phố Hồ Chí Minh,https://www.tripadvisor.com.vn/Restaurant_Review-g293925-d6360239-Reviews-Propaganda_Bistro-Ho_Chi_Minh_City.html,Food,"Nhà Hàng Propaganda Bistro 21 Hàn Thuyên, Quận 1, Thành phố Hồ Chí Minh 700000 Việt Nam",https://maps.app.goo.gl/dYgAkBMxzaV7oze8A
Xu Restaurant Lounge,"71-75 Hai Ba Trung Street, District 1 Near Hyatt, Caravelle, Sheraton & Intercontinental Hotels, Thành phố Hồ Chí Minh Việt Nam",,,https://media-cdn.tripadvisor.com/media/photo-s/12/ac/54/63/xu-saigon-dumplings.jpg,"Không gian ấm, nhạc đủ lớn để mn có thể nói chuyện với nhau. Món ăn trình bày đẹp mắt. Cảm ơn Xu đã cho mình bữa tối thật tuyệt vời. Mình sẽ quay lại 🙂Thêm",#91 trên 3.735 nhà hàng ở Thành phố Hồ Chí Minh,https://www.tripadvisor.com.vn/Restaurant_Review-g293925-d1123421-Reviews-Xu_Restaurant_Lounge-Ho_Chi_Minh_City.html,Food,"Xu Restaurant Lounge 71-75 Hai Ba Trung Street, District 1 Near Hyatt, Caravelle, Sheraton & Intercontinental Hotels, Thành phố Hồ Chí Minh Việt Nam",
Hoa Túc,"74/7 Hai Bà Trưng Quận 1, Thành phố Hồ Chí Minh 700000 Việt Nam","107,916,153","1,066,872,091",https://media-cdn.tripadvisor.com/media/photo-p/27/a9/35/40/logo.jpg,"Một tối thứ Hai nhẹ nhàng, dành thời gian thưởng thức những món ăn đặc sắc tại Hoa Túc trong khung cảnh dễ thương, lãng mạn, và không kém phần sang trọng",#92 trên 3.735 nhà hàng ở Thành phố Hồ Chí Minh,https://www.tripadvisor.com.vn/Restaurant_Review-g293925-d1569216-Reviews-Hoa_Tuc-Ho_Chi_Minh_City.html,Food,"Hoa Túc 74/7 Hai Bà Trưng Quận 1, Thành phố Hồ Chí Minh 700000 Việt Nam",https://maps.app.goo.gl/uMQgjiFy1AVbb4547
Soul Burger,"35 Vo Truong Toan Street Thao Dien Ward, Thành phố Hồ Chí Minh 70000 Việt Nam","10,781,971","106,693,081",https://media-cdn.tripadvisor.com/media/photo-s/16/09/68/04/the-little-richard.jpg,"1 quán burgers đúng chuẩn vị mỹ, kiểu mỹ. mình được biết các đầu bếp tại đây được học và chỉ dạy trực tiếp từ Anh chủ người Mỹ sống tại Chicago. đáng để ghé ăn và quay trở lại nhiều lần, vì nó quá...Thêm",#93 trên 3.735 nhà hàng ở Thành phố Hồ Chí Minh,https://www.tripadvisor.com.vn/Restaurant_Review-g293925-d7783233-Reviews-Soul_Burger-Ho_Chi_Minh_City.html,Food,"Soul Burger 35 Vo Truong Toan Street Thao Dien Ward, Thành phố Hồ Chí Minh 70000 Việt Nam",https://maps.app.goo.gl/8rMzcWCbviVdu9vd7
Une Journee a Paris,"17 Trần Quốc Toản Phường 8, Quận 3, Thành phố Hồ Chí Minh 700000 Việt Nam","107,865,895","1,066,877,914",https://media-cdn.tripadvisor.com/media/photo-s/13/5e/47/d9/a-wide-variety-of-products.jpg,"Tôi đến đó để ăn trưa và tôi có khá nhiều vấn đề. Trước hết, dịch vụ rất chậm, rất chậm khoảng 40 phút để có một chiếc bánh sandwich, sau đó chiếc bánh sandwich ấm áp (điều mà tôi không mong đợi là một...Thêm",#94 trên 3.735 nhà hàng ở Thành phố Hồ Chí Minh,https://www.tripadvisor.com.vn/Restaurant_Review-g293925-d1998310-Reviews-Une_Journee_a_Paris-Ho_Chi_Minh_City.html,Food,"Une Journee a Paris 17 Trần Quốc Toản Phường 8, Quận 3, Thành phố Hồ Chí Minh 700000 Việt Nam",https://maps.app.goo.gl/qKKQn1NWYvbxfvZr5
Nhà hàng Vietnam House,"93-95-97 Đồng Khởi Quận 1, Thành phố Hồ Chí Minh 700000 Việt Nam","107,760,265","1,067,031,172",https://media-cdn.tripadvisor.com/media/photo-s/23/26/00/d4/main-lobby.jpg,"Nhà hàng nhìn bên ngoài hơi cổ nhưng bên trong thì hiện đại hơn. Món ăn ngon, nhân viên nhiệt tình. Ăn từ tháng 6 giờ mới có time Khen mọi người.",#96 trên 3.735 nhà hàng ở Thành phố Hồ Chí Minh,https://www.tripadvisor.com.vn/Restaurant_Review-g293925-d1309266-Reviews-Vietnam_House_Restaurant-Ho_Chi_Minh_City.html,Food,"Nhà hàng Vietnam House 93-95-97 Đồng Khởi Quận 1, Thành phố Hồ Chí Minh 700000 Việt Nam",https://maps.app.goo.gl/UjEdJAapshDzn7mM9
Quan Ut Ut - Vo Van Kiet,"168 Vo Van Kiet Phuong Cau Ong Lanh, Q.1, Thành phố Hồ Chí Minh 70000 Việt Nam","107,520,214","1,066,775,576",https://media-cdn.tripadvisor.com/media/photo-s/1a/23/cd/ab/meat-sweats.jpg,"Không gian sạch sẽ, rộng, lên món nhanh, có bàn cho nhóm hội họp, rất ưng, món ăn nêm nếm củng rất đậm đà hợp vị chung mỗi người, rất đáng tiền",#97 trên 3.735 nhà hàng ở Thành phố Hồ Chí Minh,https://www.tripadvisor.com.vn/Restaurant_Review-g293925-d6478802-Reviews-Quan_Ut_Ut_Vo_Van_Kiet-Ho_Chi_Minh_City.html,Food,"Quan Ut Ut - Vo Van Kiet 168 Vo Van Kiet Phuong Cau Ong Lanh, Q.1, Thành phố Hồ Chí Minh 70000 Việt Nam",https://maps.app.goo.gl/GTprmaMwuJu7fiT17
Phở Hòa Pasteur,"260C Pasteur P. 8, Q. 3, Thành phố Hồ Chí Minh 70000 Việt Nam","107,868,014","106,689,046",https://media-cdn.tripadvisor.com/media/photo-p/12/8d/35/1e/photo1jpg.jpg,"Đã ăn ở đây nhiều lần và rất thích hương vị phở ở đây, có vị thanh ngọt. Quán sạch sẽ, nhân viên phục vụ nhanh chóng",#99 trên 3.735 nhà hàng ở Thành phố Hồ Chí Minh,https://www.tripadvisor.com.vn/Restaurant_Review-g293925-d1232846-Reviews-Pho_Hoa_Pasteur-Ho_Chi_Minh_City.html,Food,"Phở Hòa Pasteur 260C Pasteur P. 8, Q. 3, Thành phố Hồ Chí Minh 70000 Việt Nam",https://maps.app.goo.gl/YeFyCgS9dUQmarTG8
Pho Le,"415 Nguyễn Trãi, Thành phố Hồ Chí Minh 70000 Việt Nam","107,700,732","106,691,474",https://media-cdn.tripadvisor.com/media/photo-s/08/f9/cf/b6/pho-le.jpg,"Quán phở khá là ngon, nước dùng rất hợp khẩu vị. Mỗi bàn đều có gia vị và đặc biệt là nhiều rau để phục vụ. Giá cả cũng hợp lý.",#101 trên 3.735 nhà hàng ở Thành phố Hồ Chí Minh,https://www.tripadvisor.com.vn/Restaurant_Review-g293925-d3741121-Reviews-Pho_Le-Ho_Chi_Minh_City.html,Food,"Pho Le 415 Nguyễn Trãi, Thành phố Hồ Chí Minh 70000 Việt Nam",https://maps.app.goo.gl/iK71H7vdeMWpCzTPA
Madame Lam - Vietnamese Contemporary Cuisine,"Số 10 Trần Ngọc Diện, Thảo Điền, Thành phố Hồ Chí Minh 700000 Việt Nam","108,074,245","1,067,329,501",https://media-cdn.tripadvisor.com/media/photo-s/28/59/1a/09/madame-lam-vietnamese.jpg,"Món ăn ok, vị trí sang trọng yên tĩnh, giá phải chăng nhma bia hơi đắt, diện tích quán rộng, nói chung hợp lý",#131 trên 3.735 nhà hàng ở Thành phố Hồ Chí Minh,https://www.tripadvisor.com.vn/Restaurant_Review-g293925-d24053236-Reviews-Madame_Lam_Vietnamese_Contemporary_Cuisine-Ho_Chi_Minh_City.html,Food,"Madame Lam - Vietnamese Contemporary Cuisine Số 10 Trần Ngọc Diện, Thảo Điền, Thành phố Hồ Chí Minh 700000 Việt Nam",https://maps.app.goo.gl/Hj1yF3atjGjRP73BA
Anan Saigon,"89 Tôn Thất Đảm, Quận 1, Thành phố Hồ Chí Minh Việt Nam","107,720,596","106,702,874",https://media-cdn.tripadvisor.com/media/photo-s/0e/f7/a5/47/banh-xeo-tacos-huddle.jpg,"Bao nhiêu háo hức khám phá nhà hàng danh hiệu Asia's 50 Best Restaurants 2021 tan biến rất nhanh khi bạn nhân viên dẫn tôi lên rooftop nhóm 3 người vào ""chuồng gà "" phía sau ...menu khá chán và khó gọi món , nhân...Thêm",#100 trên 3.735 nhà hàng ở Thành phố Hồ Chí Minh,https://www.tripadvisor.com.vn/Restaurant_Review-g293925-d12134206-Reviews-Anan_Saigon-Ho_Chi_Minh_City.html,Food,"Anan Saigon 89 Tôn Thất Đảm, Quận 1, Thành phố Hồ Chí Minh Việt Nam",https://maps.app.goo.gl/edeM6d4G5FEsYhCx9
The Cloud,"720A Điện Biên Phủ Phường 22, Bình Thạnh, Vinpearl Landmark 81, Autograph Collection, Thành phố Hồ Chí Minh 700000 Việt Nam","1,079,483,345","10,672,172,913,787,200",https://media-cdn.tripadvisor.com/media/photo-s/29/b7/b0/ab/interior.jpg,Nhân viên vui vẻ thân thiện Bạn Thư và Trâm rất nhiệt tình phục vụ và hỗ trợ Nhân viên Long làm nước hợp vị,#102 trên 3.735 nhà hàng ở Thành phố Hồ Chí Minh,https://www.tripadvisor.com.vn/Restaurant_Review-g293925-d25219332-Reviews-The_Cloud-Ho_Chi_Minh_City.html,Food,"The Cloud 720A Điện Biên Phủ Phường 22, Bình Thạnh, Vinpearl Landmark 81, Autograph Collection, Thành phố Hồ Chí Minh 700000 Việt Nam",
Ciao Bella District 1,"11 Dong Du Street District 1, Thành phố Hồ Chí Minh Vietnam Việt Nam","107,762,605","1,067,049,669",https://media-cdn.tripadvisor.com/media/photo-s/08/86/44/1e/caption.jpg,Mình hay ghé nhà hàng này ăn trưa. Set lunch 3 món 250k nhưng phần ăn nhiều và đồ ăn nêm nếm khá ổn định. Đặc biệt tráng miệng thay đổi liên tục trong tuần nên có thể ăn nhiều lần trong tuần mà ko...Thêm,#103 trên 3.735 nhà hàng ở Thành phố Hồ Chí Minh,https://www.tripadvisor.com.vn/Restaurant_Review-g293925-d2351312-Reviews-Ciao_Bella_District_1-Ho_Chi_Minh_City.html,Food,"Ciao Bella District 1 11 Dong Du Street District 1, Thành phố Hồ Chí Minh Vietnam Việt Nam",https://maps.app.goo.gl/SUFhATPUwvrgBAEP6
The Olive Steakhouse,"151 Dong Khoi, Ben Nghe Ward, District 1 2nd Floor, Thành phố Hồ Chí Minh 700000 Việt Nam","107,757,138","1,067,032,584",https://media-cdn.tripadvisor.com/media/photo-s/1b/99/ed/57/ribeye-steak-with-potato.jpg,"Lâu lắm rồi mới được ra ngoài ăn ngon như vậy 😚 Không gian ở đây ấm cúng, khoảng cách bàn khá xa nhau nên không quá ồn ào thích hợp cho các cặp đôi hay đi vs gia đình 👨‍👩‍👧 Món mình thích nhất...Thêm",#104 trên 3.735 nhà hàng ở Thành phố Hồ Chí Minh,https://www.tripadvisor.com.vn/Restaurant_Review-g293925-d13399767-Reviews-The_Olive_Steakhouse-Ho_Chi_Minh_City.html,Food,"The Olive Steakhouse 151 Dong Khoi, Ben Nghe Ward, District 1 2nd Floor, Thành phố Hồ Chí Minh 700000 Việt Nam",
Nhà Hàng Dì Mai,"136-138 Lê Thị Hồng Gấm Quận 1, Thành phố Hồ Chí Minh 700000 Việt Nam","10,768,921","1,066,976,004",https://media-cdn.tripadvisor.com/media/photo-s/11/7b/d1/e5/looking-at-the-main-kitchen.jpg,"món cá chẽm gần đây mình vừa thử thì khá thích, cá thơm mền bên trong giòn bên ngoài, nước chấm làm vừa vị, các anh chị miền nam mình nghĩ sẽ rất thích món này và cũng là món nên thử đối với các...Thêm",#95 trên 3.735 nhà hàng ở Thành phố Hồ Chí Minh,https://www.tripadvisor.com.vn/Restaurant_Review-g293925-d11737543-Reviews-Di_Mai_Vietnamese_Restaurant_Ho_Chi_Minh-Ho_Chi_Minh_City.html,Food,"Nhà Hàng Dì Mai 136-138 Lê Thị Hồng Gấm Quận 1, Thành phố Hồ Chí Minh 700000 Việt Nam",https://maps.app.goo.gl/EmuLSVvAxRjsAwTw6
Hải Sản Hoàng Gia,"954 Nguyễn Văn Linh, Tân Phong, Quận 7 Giao với Bùi Bằng Đoàn, Thành phố Hồ Chí Minh 72900 Việt Nam","107,518,885","1,067,249,657",https://media-cdn.tripadvisor.com/media/photo-p/29/dd/c2/d0/king-crab-cua-hoang-d.jpg,"Không gian thoáng, giá cả hợp lý, hải sản tươi sống được chế biến vừa ăn thích hợp để tụ tập cuối tuần",#474 trên 3.735 nhà hàng ở Thành phố Hồ Chí Minh,https://www.tripadvisor.com.vn/Restaurant_Review-g293925-d26431965-Reviews-H_i_S_n_Hoang_Gia-Ho_Chi_Minh_City.html,Food,"Hải Sản Hoàng Gia 954 Nguyễn Văn Linh, Tân Phong, Quận 7 Giao với Bùi Bằng Đoàn, Thành phố Hồ Chí Minh 72900 Việt Nam",
My Banh Mi Saigon,"57 Nguyễn Du Bến Nghé, Quận 1, Thành phố Hồ Chí Minh 700000 Việt Nam","107,794,971","1,067,005,803",https://media-cdn.tripadvisor.com/media/photo-s/17/d7/b2/6b/photo0jpg.jpg,"Nhà hàng nằm ngay quận 1, rất tiện cho tôi và chồng đi bộ đến ăn. Chồng tôi ăn đồ ăn ở đây suốt 6 năm mà không bao giờ cảm thấy chán. Đặc biệt, chúng tối rất thích trò chuyện với bác quản lý...Thêm",#105 trên 3.735 nhà hàng ở Thành phố Hồ Chí Minh,https://www.tripadvisor.com.vn/Restaurant_Review-g293925-d7361488-Reviews-My_Banh_Mi_Saigon-Ho_Chi_Minh_City.html,Food,"My Banh Mi Saigon 57 Nguyễn Du Bến Nghé, Quận 1, Thành phố Hồ Chí Minh 700000 Việt Nam",https://maps.app.goo.gl/xgvbMJ5GpWXkmTsBA
La Cuisine,"52 Le Thanh Ton District 1, Thành phố Hồ Chí Minh Việt Nam","107,727,535","1,066,970,175",https://media-cdn.tripadvisor.com/media/photo-s/08/46/fd/53/la-cuisine.jpg,"Đây là lần đầu tiên tôi dùng món Pháp nên cũng không biết là ngon hay không ngon. Giá hơi cao, nhân viên cực kỳ nhiệt tình. Quán nhỏ, ấm cúng, phù hợp cho gia đình hoặc các cặp đôi.",#106 trên 3.735 nhà hàng ở Thành phố Hồ Chí Minh,https://www.tripadvisor.com.vn/Restaurant_Review-g293925-d1592499-Reviews-La_Cuisine-Ho_Chi_Minh_City.html,Food,"La Cuisine 52 Le Thanh Ton District 1, Thành phố Hồ Chí Minh Việt Nam",https://maps.app.goo.gl/kuhn6K8VBC1cbsao6
"Shamballa Vegetarian, Restaurant & Lounge - Sai Gon","31 Ly Tu Trong St, Thành phố Hồ Chí Minh Việt Nam","107,798,488","1,067,028,982",https://media-cdn.tripadvisor.com/media/photo-s/21/ca/cc/74/shamballa-in-tibetan.jpg,"Mình đến ăn ngày 01/08/2022 Âl, nhưng rất thất vọng về nhân viên của nhà hàng, thái độ không vui vẻ, không nở được 1 nụ cười, bạn nv oder rất khó chịu, đương nhiên điều đó làm mình không thoải mái, và sau đó...Thêm",#107 trên 3.735 nhà hàng ở Thành phố Hồ Chí Minh,https://www.tripadvisor.com.vn/Restaurant_Review-g293925-d21120489-Reviews-Shamballa_Vegetarian_Restaurant_Lounge_Sai_Gon-Ho_Chi_Minh_City.html,Food,"Shamballa Vegetarian, Restaurant & Lounge - Sai Gon 31 Ly Tu Trong St, Thành phố Hồ Chí Minh Việt Nam",https://maps.app.goo.gl/t5m1EUAnhdYXS5Xu8
Banh Mi Huynh Hoa,"26 le Thi Rieng P. Ben Thanh, Q.1, Thành phố Hồ Chí Minh 70000 Việt Nam","107,713,922","1,066,927,189",https://media-cdn.tripadvisor.com/media/photo-o/0f/e6/3d/b5/photo0jpg.jpg,"Đợi hơi lâu nhưng bánh mì ngon, đặc biệt là pate đỉnh đỉnh. Mình ăn nhiều lần rồi nay mới có dịp đánh giá. Mn ghé thăm Sài Gòn nên ăn thử 1 lần nà.",#108 trên 3.735 nhà hàng ở Thành phố Hồ Chí Minh,https://www.tripadvisor.com.vn/Restaurant_Review-g293925-d5484355-Reviews-Banh_Mi_Huynh_Hoa-Ho_Chi_Minh_City.html,Food,"Banh Mi Huynh Hoa 26 le Thi Rieng P. Ben Thanh, Q.1, Thành phố Hồ Chí Minh 70000 Việt Nam",
Cuc Gach Quan,"10 Dang Tat Ward Tan Dinh, District 1, Thành phố Hồ Chí Minh 70000 Việt Nam","107,929,997","1,066,889,296",https://media-cdn.tripadvisor.com/media/photo-s/0a/37/73/95/photo1jpg.jpg,"Đồ ăn cũng khá là oK, nhiều khach nhưng giá đồ ăn thực sự là đắt, không biết có phai vì đông khách mà tăng giá không.",#109 trên 3.735 nhà hàng ở Thành phố Hồ Chí Minh,https://www.tripadvisor.com.vn/Restaurant_Review-g293925-d1717810-Reviews-Cuc_Gach_Quan-Ho_Chi_Minh_City.html,Food,"Cuc Gach Quan 10 Dang Tat Ward Tan Dinh, District 1, Thành phố Hồ Chí Minh 70000 Việt Nam",https://maps.app.goo.gl/T1jxLSUVtLFs7Dcb9
Laang Restaurant,"22 Đặng Hữu Phổ Thảo Điền, Quận 2, Thành phố Hồ Chí Minh 700000 Việt Nam","10,803,392","1,067,362,138",https://media-cdn.tripadvisor.com/media/photo-s/18/82/2c/23/getlstd-property-photo.jpg,"Món ăn rất ngon, nhân viên thân thiện. Quán lên món cũng nhanh, giá thành hợp túi tiền với mọi người",#110 trên 3.735 nhà hàng ở Thành phố Hồ Chí Minh,https://www.tripadvisor.com.vn/Restaurant_Review-g293925-d17806822-Reviews-Laang_Restaurant-Ho_Chi_Minh_City.html,Food,"Laang Restaurant 22 Đặng Hữu Phổ Thảo Điền, Quận 2, Thành phố Hồ Chí Minh 700000 Việt Nam",
Kho Tàng Bia Bỉ Lagom Café,"87 Võ Thị Sáu Phường 6, Quận 3, Thành phố Hồ Chí Minh 700000 Việt Nam","107,783,841","1,066,826,105",https://media-cdn.tripadvisor.com/media/photo-p/1c/23/40/28/photo0jpg.jpg,"Lần đầu đến Lagom mà thật thoả mãn, sự thẩm mỹ đến từ mọi ngóc ngách trong trang trí, đa dạng về bia Bỉ và các bạn nhân viên rất lịch sự và thân thiện. Nếu ở ngoài ồn ào, náo nhiệt thì mình cảm...Thêm",#8 trên 679 quán cà phê & trà ở Thành phố Hồ Chí Minh,https://www.tripadvisor.com.vn/Restaurant_Review-g293925-d15530843-Reviews-Lagom_Cafe_Belgian_Beer_Coffee_Lounge-Ho_Chi_Minh_City.html,Food,"Kho Tàng Bia Bỉ Lagom Café 87 Võ Thị Sáu Phường 6, Quận 3, Thành phố Hồ Chí Minh 700000 Việt Nam",
Quán Bụi,"19 Ngo Van Nam Phường Bến Nghé, Quận 1, Thành phố Hồ Chí Minh 700000 Việt Nam","107,813,671","106,705,959",https://media-cdn.tripadvisor.com/media/photo-s/1b/b4/55/3c/9.jpg,"Không gian rộng rãi, có sân thượng thoáng mát, món ăn hợp khẩu vị, nhân viên nhiệt tình. Recomend cho các buổi họp mặt gia đình",#113 trên 3.735 nhà hàng ở Thành phố Hồ Chí Minh,https://www.tripadvisor.com.vn/Restaurant_Review-g293925-d4475963-Reviews-Quan_Bui_Original-Ho_Chi_Minh_City.html,Food,"Quán Bụi 19 Ngo Van Nam Phường Bến Nghé, Quận 1, Thành phố Hồ Chí Minh 700000 Việt Nam",https://maps.app.goo.gl/6g3w57gJiG4MfedF8
Lush Burger,"194 Lê Thánh Tôn Phường Bến Thành, Quận 1, Thành phố Hồ Chí Minh 700000 Việt Nam","107,714,292","1,066,949,809",https://media-cdn.tripadvisor.com/media/photo-p/14/cd/fb/d5/the-lush.jpg,Quan co nhieu món ngon de lúa chọn.do an rat vi.khong gian vieu dep .toi rat thích .muon được chia se toi các ban,#112 trên 3.735 nhà hàng ở Thành phố Hồ Chí Minh,https://www.tripadvisor.com.vn/Restaurant_Review-g293925-d15132835-Reviews-Lush_Burger-Ho_Chi_Minh_City.html,Food,"Lush Burger 194 Lê Thánh Tôn Phường Bến Thành, Quận 1, Thành phố Hồ Chí Minh 700000 Việt Nam",
Jaspas Restaurant,"33 Dong Khoi St, District 1, Ho Chi Minh City, Thành phố Hồ Chí Minh 70000 Việt Nam","107,736,594","1,067,054,779",https://media-cdn.tripadvisor.com/media/photo-s/0f/fd/2e/e0/nice-meal.jpg,Đến nơi này vài lần Lần nào cũng gọi món thịt vịt cuốn và uống 1 bình to Frozen Strawberry Margarita Nhân viên dễ thương. Lúc nào cũng cho thêm cá cơm anchovy yêu thích,#111 trên 3.735 nhà hàng ở Thành phố Hồ Chí Minh,https://www.tripadvisor.com.vn/Restaurant_Review-g293925-d1059078-Reviews-Jaspas_Restaurant-Ho_Chi_Minh_City.html,Food,"Jaspas Restaurant 33 Dong Khoi St, District 1, Ho Chi Minh City, Thành phố Hồ Chí Minh 70000 Việt Nam",
Truffle Restaurant,"208 Nguyễn Hữu Cảnh Tầng 73, Vincom Landmark 81, Vinhomes Central Park, Phường 22, Bình Thạnh, Thành phố Hồ Chí Minh 700000 Việt Nam","10,795,037","1,067,194,332",https://media-cdn.tripadvisor.com/media/photo-s/27/a3/78/15/crab-avocado-roll-with.jpg,"Chúng tôi đã có một đêm tuyệt vời với thức ăn tuyệt vời và dịch vụ tuyệt vời và chu đáo của Dee, Jack. Vẫn còn ẩn giấu với nhiều người chưa biết. Một điểm có thể cải thiện, âm nhạc từ quán bar trên...Thêm",#674 trên 3.735 nhà hàng ở Thành phố Hồ Chí Minh,https://www.tripadvisor.com.vn/Restaurant_Review-g293925-d18340675-Reviews-Truffle_Restaurant-Ho_Chi_Minh_City.html,Food,"Truffle Restaurant 208 Nguyễn Hữu Cảnh Tầng 73, Vincom Landmark 81, Vinhomes Central Park, Phường 22, Bình Thạnh, Thành phố Hồ Chí Minh 700000 Việt Nam",
Blanc. Restaurant,"Ngõ 178 - 180D Hai Bà Trưng Phường Đa Kao, Quận 1, Thành phố Hồ Chí Minh Việt Nam","10,781,971","106,693,081",https://media-cdn.tripadvisor.com/media/photo-s/10/de/68/2e/our-deaf-staff-is-at.jpg,Mình rất hài lòng khi đến thường thức buổi tối tại đây. Phong cách rất chuyên nghiệp và không gian thì lại ấm ápThêm,#115 trên 3.735 nhà hàng ở Thành phố Hồ Chí Minh,https://www.tripadvisor.com.vn/Restaurant_Review-g293925-d7306751-Reviews-Blanc_Restaurant-Ho_Chi_Minh_City.html,Food,"Blanc. Restaurant Ngõ 178 - 180D Hai Bà Trưng Phường Đa Kao, Quận 1, Thành phố Hồ Chí Minh Việt Nam",
